{"type":"FeatureCollection","name":"633004_SarpyMP Springfield Public Works_R26 - LEVEL 1","features":[{"type":"Feature","properties":{"type":"drawing","level":"LEVEL 1","Text":"SOLID","Layer":"A-WALL-PATT","source":"LEVEL_1_-_OVERALL.dxf","SubClasses":"AcDbEntity:AcDbHatch","EntityHandle":"9D","interactive":false},"geometry":{"type":"MultiLineString","coordinates":[[[-96.134329,41.081173],[-96.134325,41.081173],[-96.134325,41.081176],[-96.134338,41.081176],[-96.134338,41.081173],[-96.134329,41.081173]],[[-96.134357,41.081173],[-96.13435,41.081173],[-96.13435,41.081176],[-96.134363,41.081176],[-96.134363,41.081173],[-96.134357,41.081173]],[[-96.13442,41.081173],[-96.134399,41.081173],[-96.134399,41.081176],[-96.13442,41.081176],[-96.13442,41.081173],[-96.13442,41.081173]],[[-96.134474,41.081173],[-96.134456,41.081173],[-96.134456,41.081176],[-96.134474,41.081176],[-96.134474,41.081173],[-96.134474,41.081173]]]}},{"type":"Feature","properties":{"type":"drawing","level":"LEVEL 1","Text":"SOLID","Layer":"A-WALL-PATT","source":"LEVEL_1_-_OVERALL.dxf","SubClasses":"AcDbEntity:AcDbHatch","EntityHandle":"A3","interactive":false},"geometry":{"type":"MultiLineString","coordinates":[[[-96.134329,41.081176],[-96.134325,41.081176],[-96.134325,41.08128],[-96.134329,41.08128],[-96.134329,41.081216],[-96.134329,41.081176]]]}},{"type":"Feature","properties":{"type":"drawing","level":"LEVEL 1","Text":"SOLID","Layer":"A-WALL-PATT","source":"LEVEL_1_-_OVERALL.dxf","SubClasses":"AcDbEntity:AcDbHatch","EntityHandle":"A9","interactive":false},"geometry":{"type":"MultiLineString","coordinates":[[[-96.134329,41.081277],[-96.134329,41.08128],[-96.134474,41.08128],[-96.134474,41.081277],[-96.134356,41.081277],[-96.134329,41.081277]]]}},{"type":"Feature","properties":{"type":"drawing","level":"LEVEL 1","Text":"SOLID","Layer":"A-WALL-PATT","source":"LEVEL_1_-_OVERALL.dxf","SubClasses":"AcDbEntity:AcDbHatch","EntityHandle":"AF","interactive":false},"geometry":{"type":"MultiLineString","coordinates":[[[-96.134474,41.081176],[-96.134471,41.081176],[-96.134471,41.081277],[-96.134474,41.081277],[-96.134474,41.081216],[-96.134474,41.081176]]]}},{"type":"Feature","properties":{"type":"drawing","level":"LEVEL 1","Text":"SOLID","Layer":"A-WALL-PATT","source":"LEVEL_1_-_OVERALL.dxf","SubClasses":"AcDbEntity:AcDbHatch","EntityHandle":"B4","interactive":false},"geometry":{"type":"MultiLineString","coordinates":[[[-96.134356,41.081255],[-96.134356,41.081277],[-96.134358,41.081277],[-96.134358,41.081255],[-96.134356,41.081255]]]}},{"type":"Feature","properties":{"type":"drawing","level":"LEVEL 1","Text":"SOLID","Layer":"A-WALL-PATT","source":"LEVEL_1_-_OVERALL.dxf","SubClasses":"AcDbEntity:AcDbHatch","EntityHandle":"BD","interactive":false},"geometry":{"type":"MultiLineString","coordinates":[[[-96.134329,41.081255],[-96.134329,41.081257],[-96.134336,41.081257],[-96.134336,41.081255],[-96.134329,41.081255]],[[-96.134356,41.081255],[-96.134348,41.081255],[-96.134348,41.081257],[-96.134356,41.081257],[-96.134356,41.081255]]]}},{"type":"Feature","properties":{"type":"drawing","level":"LEVEL 1","Layer":"A-WALL","source":"LEVEL_1_-_OVERALL.dxf","SubClasses":"AcDbEntity:AcDbLine","EntityHandle":"BE","interactive":false},"geometry":{"type":"MultiLineString","coordinates":[[[-96.134474,41.081173],[-96.134456,41.081173]]]}},{"type":"Feature","properties":{"type":"drawing","level":"LEVEL 1","Layer":"A-WALL","source":"LEVEL_1_-_OVERALL.dxf","SubClasses":"AcDbEntity:AcDbLine","EntityHandle":"BF","interactive":false},"geometry":{"type":"MultiLineString","coordinates":[[[-96.134456,41.081173],[-96.134456,41.081176]]]}},{"type":"Feature","properties":{"type":"drawing","level":"LEVEL 1","Layer":"A-WALL","source":"LEVEL_1_-_OVERALL.dxf","SubClasses":"AcDbEntity:AcDbLine","EntityHandle":"C0","interactive":false},"geometry":{"type":"MultiLineString","coordinates":[[[-96.134456,41.081176],[-96.134471,41.081176]]]}},{"type":"Feature","properties":{"type":"drawing","level":"LEVEL 1","Layer":"A-WALL","source":"LEVEL_1_-_OVERALL.dxf","SubClasses":"AcDbEntity:AcDbLine","EntityHandle":"C2","interactive":false},"geometry":{"type":"MultiLineString","coordinates":[[[-96.13442,41.081173],[-96.134399,41.081173]]]}},{"type":"Feature","properties":{"type":"drawing","level":"LEVEL 1","Layer":"A-WALL","source":"LEVEL_1_-_OVERALL.dxf","SubClasses":"AcDbEntity:AcDbLine","EntityHandle":"C3","interactive":false},"geometry":{"type":"MultiLineString","coordinates":[[[-96.134399,41.081173],[-96.134399,41.081176]]]}},{"type":"Feature","properties":{"type":"drawing","level":"LEVEL 1","Layer":"A-WALL","source":"LEVEL_1_-_OVERALL.dxf","SubClasses":"AcDbEntity:AcDbLine","EntityHandle":"C4","interactive":false},"geometry":{"type":"MultiLineString","coordinates":[[[-96.134399,41.081176],[-96.13442,41.081176]]]}},{"type":"Feature","properties":{"type":"drawing","level":"LEVEL 1","Layer":"A-WALL","source":"LEVEL_1_-_OVERALL.dxf","SubClasses":"AcDbEntity:AcDbLine","EntityHandle":"C5","interactive":false},"geometry":{"type":"MultiLineString","coordinates":[[[-96.13442,41.081176],[-96.13442,41.081173]]]}},{"type":"Feature","properties":{"type":"drawing","level":"LEVEL 1","Layer":"A-WALL","source":"LEVEL_1_-_OVERALL.dxf","SubClasses":"AcDbEntity:AcDbLine","EntityHandle":"C6","interactive":false},"geometry":{"type":"MultiLineString","coordinates":[[[-96.134363,41.081173],[-96.13435,41.081173]]]}},{"type":"Feature","properties":{"type":"drawing","level":"LEVEL 1","Layer":"A-WALL","source":"LEVEL_1_-_OVERALL.dxf","SubClasses":"AcDbEntity:AcDbLine","EntityHandle":"C7","interactive":false},"geometry":{"type":"MultiLineString","coordinates":[[[-96.13435,41.081173],[-96.13435,41.081176]]]}},{"type":"Feature","properties":{"type":"drawing","level":"LEVEL 1","Layer":"A-WALL","source":"LEVEL_1_-_OVERALL.dxf","SubClasses":"AcDbEntity:AcDbLine","EntityHandle":"C8","interactive":false},"geometry":{"type":"MultiLineString","coordinates":[[[-96.13435,41.081176],[-96.134363,41.081176]]]}},{"type":"Feature","properties":{"type":"drawing","level":"LEVEL 1","Layer":"A-WALL","source":"LEVEL_1_-_OVERALL.dxf","SubClasses":"AcDbEntity:AcDbLine","EntityHandle":"C9","interactive":false},"geometry":{"type":"MultiLineString","coordinates":[[[-96.134363,41.081176],[-96.134363,41.081173]]]}},{"type":"Feature","properties":{"type":"drawing","level":"LEVEL 1","Layer":"A-WALL","source":"LEVEL_1_-_OVERALL.dxf","SubClasses":"AcDbEntity:AcDbLine","EntityHandle":"CA","interactive":false},"geometry":{"type":"MultiLineString","coordinates":[[[-96.134338,41.081173],[-96.134325,41.081173]]]}},{"type":"Feature","properties":{"type":"drawing","level":"LEVEL 1","Layer":"A-WALL","source":"LEVEL_1_-_OVERALL.dxf","SubClasses":"AcDbEntity:AcDbLine","EntityHandle":"CC","interactive":false},"geometry":{"type":"MultiLineString","coordinates":[[[-96.134329,41.081176],[-96.134338,41.081176]]]}},{"type":"Feature","properties":{"type":"drawing","level":"LEVEL 1","Layer":"A-WALL","source":"LEVEL_1_-_OVERALL.dxf","SubClasses":"AcDbEntity:AcDbLine","EntityHandle":"CD","interactive":false},"geometry":{"type":"MultiLineString","coordinates":[[[-96.134338,41.081176],[-96.134338,41.081173]]]}},{"type":"Feature","properties":{"type":"drawing","level":"LEVEL 1","Layer":"A-WALL","source":"LEVEL_1_-_OVERALL.dxf","SubClasses":"AcDbEntity:AcDbLine","EntityHandle":"CE","interactive":false},"geometry":{"type":"MultiLineString","coordinates":[[[-96.134325,41.081173],[-96.134325,41.08128]]]}},{"type":"Feature","properties":{"type":"drawing","level":"LEVEL 1","Layer":"A-WALL","source":"LEVEL_1_-_OVERALL.dxf","SubClasses":"AcDbEntity:AcDbLine","EntityHandle":"D0","interactive":false},"geometry":{"type":"MultiLineString","coordinates":[[[-96.134329,41.081277],[-96.134329,41.081257]]]}},{"type":"Feature","properties":{"type":"drawing","level":"LEVEL 1","Layer":"A-WALL","source":"LEVEL_1_-_OVERALL.dxf","SubClasses":"AcDbEntity:AcDbLine","EntityHandle":"D1","interactive":false},"geometry":{"type":"MultiLineString","coordinates":[[[-96.134329,41.081255],[-96.134329,41.081176]]]}},{"type":"Feature","properties":{"type":"drawing","level":"LEVEL 1","Layer":"A-WALL","source":"LEVEL_1_-_OVERALL.dxf","SubClasses":"AcDbEntity:AcDbLine","EntityHandle":"D2","interactive":false},"geometry":{"type":"MultiLineString","coordinates":[[[-96.134325,41.08128],[-96.134474,41.08128]]]}},{"type":"Feature","properties":{"type":"drawing","level":"LEVEL 1","Layer":"A-WALL","source":"LEVEL_1_-_OVERALL.dxf","SubClasses":"AcDbEntity:AcDbLine","EntityHandle":"D4","interactive":false},"geometry":{"type":"MultiLineString","coordinates":[[[-96.134471,41.081277],[-96.134358,41.081277]]]}},{"type":"Feature","properties":{"type":"drawing","level":"LEVEL 1","Layer":"A-WALL","source":"LEVEL_1_-_OVERALL.dxf","SubClasses":"AcDbEntity:AcDbLine","EntityHandle":"D5","interactive":false},"geometry":{"type":"MultiLineString","coordinates":[[[-96.134356,41.081277],[-96.134329,41.081277]]]}},{"type":"Feature","properties":{"type":"drawing","level":"LEVEL 1","Layer":"A-WALL","source":"LEVEL_1_-_OVERALL.dxf","SubClasses":"AcDbEntity:AcDbLine","EntityHandle":"D6","interactive":false},"geometry":{"type":"MultiLineString","coordinates":[[[-96.134474,41.08128],[-96.134474,41.081173]]]}},{"type":"Feature","properties":{"type":"drawing","level":"LEVEL 1","Layer":"A-WALL","source":"LEVEL_1_-_OVERALL.dxf","SubClasses":"AcDbEntity:AcDbLine","EntityHandle":"D7","interactive":false},"geometry":{"type":"MultiLineString","coordinates":[[[-96.134471,41.081176],[-96.134471,41.081277]]]}},{"type":"Feature","properties":{"type":"drawing","level":"LEVEL 1","Layer":"A-WALL","source":"LEVEL_1_-_OVERALL.dxf","SubClasses":"AcDbEntity:AcDbLine","EntityHandle":"D8","interactive":false},"geometry":{"type":"MultiLineString","coordinates":[[[-96.134358,41.081277],[-96.134358,41.081255]]]}},{"type":"Feature","properties":{"type":"drawing","level":"LEVEL 1","Layer":"A-WALL","source":"LEVEL_1_-_OVERALL.dxf","SubClasses":"AcDbEntity:AcDbLine","EntityHandle":"DA","interactive":false},"geometry":{"type":"MultiLineString","coordinates":[[[-96.134356,41.081257],[-96.134356,41.081277]]]}},{"type":"Feature","properties":{"type":"drawing","level":"LEVEL 1","Layer":"A-WALL","source":"LEVEL_1_-_OVERALL.dxf","SubClasses":"AcDbEntity:AcDbLine","EntityHandle":"DB","interactive":false},"geometry":{"type":"MultiLineString","coordinates":[[[-96.134358,41.081255],[-96.134348,41.081255]]]}},{"type":"Feature","properties":{"type":"drawing","level":"LEVEL 1","Layer":"A-WALL","source":"LEVEL_1_-_OVERALL.dxf","SubClasses":"AcDbEntity:AcDbLine","EntityHandle":"DC","interactive":false},"geometry":{"type":"MultiLineString","coordinates":[[[-96.134348,41.081255],[-96.134348,41.081257]]]}},{"type":"Feature","properties":{"type":"drawing","level":"LEVEL 1","Layer":"A-WALL","source":"LEVEL_1_-_OVERALL.dxf","SubClasses":"AcDbEntity:AcDbLine","EntityHandle":"DD","interactive":false},"geometry":{"type":"MultiLineString","coordinates":[[[-96.134348,41.081257],[-96.134356,41.081257]]]}},{"type":"Feature","properties":{"type":"drawing","level":"LEVEL 1","Layer":"A-WALL","source":"LEVEL_1_-_OVERALL.dxf","SubClasses":"AcDbEntity:AcDbLine","EntityHandle":"DE","interactive":false},"geometry":{"type":"MultiLineString","coordinates":[[[-96.134336,41.081255],[-96.134329,41.081255]]]}},{"type":"Feature","properties":{"type":"drawing","level":"LEVEL 1","Layer":"A-WALL","source":"LEVEL_1_-_OVERALL.dxf","SubClasses":"AcDbEntity:AcDbLine","EntityHandle":"DF","interactive":false},"geometry":{"type":"MultiLineString","coordinates":[[[-96.134329,41.081257],[-96.134336,41.081257]]]}},{"type":"Feature","properties":{"type":"drawing","level":"LEVEL 1","Layer":"A-WALL","source":"LEVEL_1_-_OVERALL.dxf","SubClasses":"AcDbEntity:AcDbLine","EntityHandle":"E0","interactive":false},"geometry":{"type":"MultiLineString","coordinates":[[[-96.134336,41.081257],[-96.134336,41.081255]]]}}]}