{"type":"FeatureCollection","name":"633004_SarpyMP Springfield Maintenance Facility_R26 - LEVEL 2","features":[{"properties":{"Revit_UniqueId":"b3a0b026-ea73-4d22-9120-df509ffcae46-0052aaa6","Element":"Room","Workstations":"","Area_SF":1148.06,"Number":"294","RevitId":5417638,"NCES_Type":"","NCES_Department":"Public Works","NCES_Occupancy Status":"","Name":"MEZZANINE","Seat Count":"","occupancyStatus":"Occupied","Level":"LEVEL 2"},"type":"Feature","geometry":{"type":"Polygon","coordinates":[[[-96.256311,41.109348],[-96.25629,41.109348],[-96.256289,41.109348],[-96.256288,41.109348],[-96.25627,41.109348],[-96.256244,41.109348],[-96.256211,41.109348],[-96.2562,41.109348],[-96.2562,41.109424],[-96.256388,41.109424],[-96.256388,41.109378],[-96.256311,41.109378],[-96.256311,41.109348]]]}},{"properties":{"Revit_UniqueId":"b3a0b026-ea73-4d22-9120-df509ffcae46-0052aaaa","Element":"Room","Workstations":"","Area_SF":210.11,"Number":"295","RevitId":5417642,"NCES_Type":"Mechanical Room","NCES_Department":"Public Works","NCES_Occupancy Status":"","Name":"MECHANICAL","Seat Count":"","occupancyStatus":"Occupied","Level":"LEVEL 2"},"type":"Feature","geometry":{"type":"Polygon","coordinates":[[[-96.256388,41.109348],[-96.256338,41.109348],[-96.256315,41.109348],[-96.256311,41.109348],[-96.256311,41.109378],[-96.256388,41.109378],[-96.256388,41.109348]]]}}]}