{"type":"FeatureCollection","name":"633004_SarpyMP Springfield Maintenance Facility_R26 - LEVEL 1","features":[{"properties":{"Revit_UniqueId":"fd053b58-4bc4-4259-a147-05c213d372a4-005285ad","Element":"Room","Workstations":"","Area_SF":11128.04,"Number":"281","RevitId":5408173,"NCES_Type":"Garage/Vehicle Bay","NCES_Department":"Public Works","NCES_Occupancy Status":"","Name":"MAIN BAY","Seat Count":"","occupancyStatus":"Occupied","Level":"LEVEL 1"},"type":"Feature","geometry":{"type":"Polygon","coordinates":[[[-96.255927,41.109348],[-96.255927,41.109624],[-96.256388,41.109624],[-96.256388,41.109424],[-96.25638,41.109424],[-96.25629,41.109424],[-96.256211,41.109424],[-96.256211,41.109407],[-96.2562,41.109407],[-96.2562,41.109348],[-96.255927,41.109348]]]}},{"properties":{"Revit_UniqueId":"fd053b58-4bc4-4259-a147-05c213d372a4-005285b8","Element":"Room","Workstations":"","Area_SF":2932.22,"Number":"282","RevitId":5408184,"NCES_Type":"Wash Bay","NCES_Department":"Public Works","NCES_Occupancy Status":"","Name":"WASH BAY","Seat Count":"","occupancyStatus":"Occupied","Level":"LEVEL 1"},"type":"Feature","geometry":{"type":"Polygon","coordinates":[[[-96.255927,41.109624],[-96.255927,41.10969],[-96.256388,41.10969],[-96.256388,41.109624],[-96.255927,41.109624]]]}},{"properties":{"Revit_UniqueId":"fd053b58-4bc4-4259-a147-05c213d372a4-005285c5","Element":"Room","Workstations":"","Area_SF":626.68,"Number":"283","RevitId":5408197,"NCES_Type":"Conference Room","NCES_Department":"Public Works","NCES_Occupancy Status":"","Name":"MEETING ROOM","Seat Count":"","occupancyStatus":"Occupied","Level":"LEVEL 1"},"type":"Feature","geometry":{"type":"Polygon","coordinates":[[[-96.2562,41.109348],[-96.2562,41.109407],[-96.256211,41.109407],[-96.256211,41.109424],[-96.25629,41.109424],[-96.25629,41.109376],[-96.25629,41.109352],[-96.25629,41.109348],[-96.256288,41.109348],[-96.25627,41.109348],[-96.256244,41.109348],[-96.256211,41.109348],[-96.2562,41.109348]]]}},{"properties":{"Revit_UniqueId":"fd053b58-4bc4-4259-a147-05c213d372a4-005285cc","Element":"Room","Workstations":"","Area_SF":73.68,"Number":"284","RevitId":5408204,"NCES_Type":"","NCES_Department":"Public Works","NCES_Occupancy Status":"","Name":"CORRIDOR","Seat Count":"","occupancyStatus":"Occupied","Level":"LEVEL 1"},"type":"Feature","geometry":{"type":"Polygon","coordinates":[[[-96.25629,41.10933],[-96.256244,41.10933],[-96.256244,41.109348],[-96.25627,41.109348],[-96.25629,41.109348],[-96.25629,41.10933]]]}},{"properties":{"Revit_UniqueId":"fd053b58-4bc4-4259-a147-05c213d372a4-005285cf","Element":"Room","Workstations":"","Area_SF":51,"Number":"285","RevitId":5408207,"NCES_Type":"","NCES_Department":"Public Works","NCES_Occupancy Status":"","Name":"VESTIBULE","Seat Count":"","occupancyStatus":"Occupied","Level":"LEVEL 1"},"type":"Feature","geometry":{"type":"Polygon","coordinates":[[[-96.256244,41.10933],[-96.256211,41.10933],[-96.256211,41.109348],[-96.256244,41.109348],[-96.256244,41.10933]]]}},{"properties":{"Revit_UniqueId":"fd053b58-4bc4-4259-a147-05c213d372a4-005285d2","Element":"Room","Workstations":"3","Area_SF":557.6,"Number":"286","RevitId":5408210,"NCES_Type":"Office/Storage","NCES_Department":"Public Works","NCES_Occupancy Status":"","Name":"OFFICE","Seat Count":"","occupancyStatus":"Occupied","Level":"LEVEL 1"},"type":"Feature","geometry":{"type":"Polygon","coordinates":[[[-96.256335,41.10928],[-96.2562,41.10928],[-96.2562,41.10933],[-96.256211,41.10933],[-96.256244,41.10933],[-96.25629,41.10933],[-96.25629,41.109325],[-96.25629,41.10931],[-96.256315,41.10931],[-96.256335,41.10931],[-96.256335,41.10928]]]}},{"properties":{"Revit_UniqueId":"fd053b58-4bc4-4259-a147-05c213d372a4-005285dc","Element":"Room","Workstations":"","Area_SF":232.85,"Number":"287","RevitId":5408220,"NCES_Type":"General Storage","NCES_Department":"Public Works","NCES_Occupancy Status":"","Name":"STORAGE","Seat Count":"","occupancyStatus":"Occupied","Level":"LEVEL 1"},"type":"Feature","geometry":{"type":"Polygon","coordinates":[[[-96.25638,41.109348],[-96.256338,41.109348],[-96.256315,41.109348],[-96.256307,41.109348],[-96.256307,41.109352],[-96.25629,41.109352],[-96.25629,41.109376],[-96.256339,41.109376],[-96.256388,41.109376],[-96.256388,41.109352],[-96.25638,41.109352],[-96.25638,41.109348]]]}},{"properties":{"Revit_UniqueId":"fd053b58-4bc4-4259-a147-05c213d372a4-005285df","Element":"Room","Workstations":"","Area_SF":418.81,"Number":"288","RevitId":5408223,"NCES_Type":"Mens Restroom","NCES_Department":"Public Works","NCES_Occupancy Status":"","Name":"MEN","Seat Count":"","occupancyStatus":"Occupied","Level":"LEVEL 1"},"type":"Feature","geometry":{"type":"Polygon","coordinates":[[[-96.256388,41.109415],[-96.256388,41.109376],[-96.256339,41.109376],[-96.25629,41.109376],[-96.25629,41.109424],[-96.25638,41.109424],[-96.25638,41.109415],[-96.256388,41.109415]]]}},{"properties":{"Revit_UniqueId":"fd053b58-4bc4-4259-a147-05c213d372a4-005285e7","Element":"Room","Workstations":"","Area_SF":174.44,"Number":"289","RevitId":5408231,"NCES_Type":"","NCES_Department":"Public Works","NCES_Occupancy Status":"","Name":"GENERATOR","Seat Count":"","occupancyStatus":"Occupied","Level":"LEVEL 1"},"type":"Feature","geometry":{"type":"Polygon","coordinates":[[[-96.25638,41.109348],[-96.256388,41.109348],[-96.256388,41.10931],[-96.256338,41.10931],[-96.256338,41.109348],[-96.25638,41.109348]]]}},{"properties":{"Revit_UniqueId":"fd053b58-4bc4-4259-a147-05c213d372a4-005285ea","Element":"Room","Workstations":"","Area_SF":75.94,"Number":"290","RevitId":5408234,"NCES_Type":"File Room - Active","NCES_Department":"","NCES_Occupancy Status":"","Name":"FILES","Seat Count":"","occupancyStatus":"Occupied","Level":"LEVEL 1"},"type":"Feature","geometry":{"type":"Polygon","coordinates":[[[-96.256315,41.109348],[-96.256338,41.109348],[-96.256338,41.10931],[-96.256338,41.10931],[-96.256335,41.10931],[-96.256315,41.10931],[-96.256315,41.109325],[-96.256315,41.109348]]]}},{"properties":{"Revit_UniqueId":"fd053b58-4bc4-4259-a147-05c213d372a4-005285ed","Element":"Room","Workstations":"","Area_SF":51.33,"Number":"291","RevitId":5408237,"NCES_Type":"Single Stall Restroom","NCES_Department":"Public Works","NCES_Occupancy Status":"","Name":"TOILET","Seat Count":"","occupancyStatus":"Occupied","Level":"LEVEL 1"},"type":"Feature","geometry":{"type":"Polygon","coordinates":[[[-96.256307,41.109348],[-96.256315,41.109348],[-96.256315,41.109325],[-96.25629,41.109325],[-96.25629,41.10933],[-96.25629,41.109347],[-96.25629,41.109348],[-96.25629,41.109348],[-96.256307,41.109348]]]}},{"properties":{"Revit_UniqueId":"fd053b58-4bc4-4259-a147-05c213d372a4-005285f0","Element":"Room","Workstations":"","Area_SF":32.08,"Number":"292","RevitId":5408240,"NCES_Type":"Janitor/Custodial Closet","NCES_Department":"Public Works","NCES_Occupancy Status":"","Name":"JANITOR","Seat Count":"","occupancyStatus":"Occupied","Level":"LEVEL 1"},"type":"Feature","geometry":{"type":"Polygon","coordinates":[[[-96.25629,41.10931],[-96.25629,41.109325],[-96.256315,41.109325],[-96.256315,41.10931],[-96.25629,41.10931]]]}},{"properties":{"Revit_UniqueId":"fd053b58-4bc4-4259-a147-05c213d372a4-00528602","Element":"Room","Workstations":"2","Area_SF":142.08,"Number":"293","RevitId":5408258,"NCES_Type":"Office/Storage","NCES_Department":"Public Works","NCES_Occupancy Status":"","Name":"OFFICE","Seat Count":"","occupancyStatus":"Occupied","Level":"LEVEL 1"},"type":"Feature","geometry":{"type":"Polygon","coordinates":[[[-96.256388,41.10931],[-96.256388,41.10928],[-96.256335,41.10928],[-96.256335,41.10931],[-96.256338,41.10931],[-96.256338,41.10931],[-96.256388,41.10931]]]}}]}