{"type":"FeatureCollection","name":"633004_SarpyMP Sheriff's Garage_R26 - LEVEL 1","features":[{"type":"Feature","properties":{"type":"drawing","level":"LEVEL 1","Text":"SOLID","Layer":"A-WALL","source":"LEVEL_1.dxf","SubClasses":"AcDbEntity:AcDbHatch","EntityHandle":"90","interactive":false},"geometry":{"type":"MultiLineString","coordinates":[[[-96.04206,41.089098],[-96.04206,41.089102],[-96.042062,41.089102],[-96.042062,41.089098],[-96.04206,41.089098]],[[-96.04206,41.089111],[-96.04206,41.089112],[-96.042062,41.089112],[-96.042062,41.089111],[-96.04206,41.089111]]]}},{"type":"Feature","properties":{"type":"drawing","level":"LEVEL 1","Text":"SOLID","Layer":"A-WALL","source":"LEVEL_1.dxf","SubClasses":"AcDbEntity:AcDbHatch","EntityHandle":"96","interactive":false},"geometry":{"type":"MultiLineString","coordinates":[[[-96.042062,41.089098],[-96.042062,41.0891],[-96.042104,41.0891],[-96.042104,41.089098],[-96.042064,41.089098],[-96.042062,41.089098]]]}},{"type":"Feature","properties":{"type":"drawing","level":"LEVEL 1","Text":"SOLID","Layer":"A-WALL","source":"LEVEL_1.dxf","SubClasses":"AcDbEntity:AcDbHatch","EntityHandle":"9C","interactive":false},"geometry":{"type":"MultiLineString","coordinates":[[[-96.04206,41.089112],[-96.04206,41.089114],[-96.042077,41.089114],[-96.042077,41.089112],[-96.042062,41.089112],[-96.04206,41.089112]]]}},{"type":"Feature","properties":{"type":"drawing","level":"LEVEL 1","Text":"SOLID","Layer":"A-WALL","source":"LEVEL_1.dxf","SubClasses":"AcDbEntity:AcDbHatch","EntityHandle":"A1","interactive":false},"geometry":{"type":"MultiLineString","coordinates":[[[-96.042077,41.089114],[-96.042075,41.089114],[-96.042075,41.089125],[-96.042077,41.089125],[-96.042077,41.089114]]]}},{"type":"Feature","properties":{"type":"drawing","level":"LEVEL 1","Text":"SOLID","Layer":"A-WALL","source":"LEVEL_1.dxf","SubClasses":"AcDbEntity:AcDbHatch","EntityHandle":"A8","interactive":false},"geometry":{"type":"MultiLineString","coordinates":[[[-96.042075,41.089125],[-96.04206,41.089125],[-96.04206,41.089127],[-96.042104,41.089127],[-96.042104,41.089125],[-96.042077,41.089125],[-96.042075,41.089125]]]}},{"type":"Feature","properties":{"type":"drawing","level":"LEVEL 1","Text":"SOLID","Layer":"A-WALL","source":"LEVEL_1.dxf","SubClasses":"AcDbEntity:AcDbHatch","EntityHandle":"B1","interactive":false},"geometry":{"type":"MultiLineString","coordinates":[[[-96.04206,41.089127],[-96.04206,41.089193],[-96.042062,41.089193],[-96.042062,41.089127],[-96.04206,41.089127]],[[-96.042062,41.089203],[-96.04206,41.089203],[-96.04206,41.089206],[-96.042062,41.089206],[-96.042062,41.089203]]]}},{"type":"Feature","properties":{"type":"drawing","level":"LEVEL 1","Text":"SOLID","Layer":"A-WALL","source":"LEVEL_1.dxf","SubClasses":"AcDbEntity:AcDbHatch","EntityHandle":"BA","interactive":false},"geometry":{"type":"MultiLineString","coordinates":[[[-96.042104,41.089045],[-96.042104,41.089192],[-96.042106,41.089192],[-96.042106,41.089045],[-96.042104,41.089045]],[[-96.042104,41.089201],[-96.042104,41.089209],[-96.042106,41.089209],[-96.042106,41.089201],[-96.042104,41.089201]]]}},{"type":"Feature","properties":{"type":"drawing","level":"LEVEL 1","Text":"SOLID","Layer":"A-WALL","source":"LEVEL_1.dxf","SubClasses":"AcDbEntity:AcDbHatch","EntityHandle":"C9","interactive":false},"geometry":{"type":"MultiLineString","coordinates":[[[-96.041767,41.089045],[-96.041765,41.089045],[-96.041765,41.089046],[-96.041774,41.089046],[-96.041774,41.089045],[-96.041767,41.089045]],[[-96.041857,41.089045],[-96.041847,41.089045],[-96.041847,41.089046],[-96.041857,41.089046],[-96.041857,41.089045]],[[-96.04187,41.089045],[-96.04187,41.089046],[-96.042104,41.089046],[-96.042104,41.089045],[-96.04194,41.089045],[-96.04187,41.089045]]]}},{"type":"Feature","properties":{"type":"drawing","level":"LEVEL 1","Text":"SOLID","Layer":"A-WALL","source":"LEVEL_1.dxf","SubClasses":"AcDbEntity:AcDbHatch","EntityHandle":"D2","interactive":false},"geometry":{"type":"MultiLineString","coordinates":[[[-96.041765,41.089046],[-96.041765,41.089192],[-96.041767,41.089192],[-96.041767,41.089046],[-96.041765,41.089046]],[[-96.041765,41.089201],[-96.041765,41.089209],[-96.041767,41.089209],[-96.041767,41.089201],[-96.041765,41.089201]]]}},{"type":"Feature","properties":{"type":"drawing","level":"LEVEL 1","Text":"SOLID","Layer":"A-WALL","source":"LEVEL_1.dxf","SubClasses":"AcDbEntity:AcDbHatch","EntityHandle":"EE","interactive":false},"geometry":{"type":"MultiLineString","coordinates":[[[-96.041767,41.089206],[-96.041767,41.089209],[-96.041774,41.089209],[-96.041774,41.089206],[-96.041767,41.089206]],[[-96.041847,41.089206],[-96.041847,41.089209],[-96.041858,41.089209],[-96.041858,41.089206],[-96.041847,41.089206]],[[-96.04193,41.089206],[-96.04193,41.089209],[-96.041946,41.089209],[-96.041946,41.089206],[-96.04194,41.089206],[-96.04193,41.089206]],[[-96.042014,41.089206],[-96.042014,41.089209],[-96.042025,41.089209],[-96.042025,41.089206],[-96.042014,41.089206]],[[-96.04206,41.089206],[-96.042057,41.089206],[-96.042057,41.089209],[-96.042066,41.089209],[-96.042066,41.089206],[-96.042062,41.089206],[-96.04206,41.089206]],[[-96.042104,41.089206],[-96.042099,41.089206],[-96.042099,41.089209],[-96.042104,41.089209],[-96.042104,41.089206]]]}},{"type":"Feature","properties":{"type":"drawing","level":"LEVEL 1","Text":"SOLID","Layer":"A-WALL","source":"LEVEL_1.dxf","SubClasses":"AcDbEntity:AcDbHatch","EntityHandle":"F9","interactive":false},"geometry":{"type":"MultiLineString","coordinates":[[[-96.041978,41.089099],[-96.041978,41.089099],[-96.041978,41.089099],[-96.042018,41.089099],[-96.042018,41.089099],[-96.042002,41.089099],[-96.041978,41.089099]],[[-96.042041,41.089099],[-96.042041,41.089099],[-96.04206,41.089099],[-96.04206,41.089099],[-96.042041,41.089099]]]}},{"type":"Feature","properties":{"type":"drawing","level":"LEVEL 1","Text":"SOLID","Layer":"A-WALL","source":"LEVEL_1.dxf","SubClasses":"AcDbEntity:AcDbHatch","EntityHandle":"103","interactive":false},"geometry":{"type":"MultiLineString","coordinates":[[[-96.041978,41.089046],[-96.041978,41.089046],[-96.041978,41.089061],[-96.041978,41.089061],[-96.041978,41.089046]],[[-96.041978,41.08907],[-96.041978,41.08907],[-96.041978,41.089099],[-96.041978,41.089099],[-96.041978,41.089072],[-96.041978,41.08907]]]}},{"type":"Feature","properties":{"type":"drawing","level":"LEVEL 1","Text":"SOLID","Layer":"A-WALL","source":"LEVEL_1.dxf","SubClasses":"AcDbEntity:AcDbHatch","EntityHandle":"109","interactive":false},"geometry":{"type":"MultiLineString","coordinates":[[[-96.041978,41.089072],[-96.041978,41.089072],[-96.042026,41.089072],[-96.042026,41.089072],[-96.042002,41.089072],[-96.041978,41.089072]]]}},{"type":"Feature","properties":{"type":"drawing","level":"LEVEL 1","Text":"SOLID","Layer":"A-WALL","source":"LEVEL_1.dxf","SubClasses":"AcDbEntity:AcDbHatch","EntityHandle":"10E","interactive":false},"geometry":{"type":"MultiLineString","coordinates":[[[-96.042026,41.089046],[-96.042026,41.089046],[-96.042026,41.089072],[-96.042026,41.089072],[-96.042026,41.089046]]]}},{"type":"Feature","properties":{"type":"drawing","level":"LEVEL 1","Layer":"A-WALL","source":"LEVEL_1.dxf","SubClasses":"AcDbEntity:AcDbLine","EntityHandle":"10F","interactive":false},"geometry":{"type":"MultiLineString","coordinates":[[[-96.042062,41.089112],[-96.042062,41.089111]]]}},{"type":"Feature","properties":{"type":"drawing","level":"LEVEL 1","Layer":"A-WALL","source":"LEVEL_1.dxf","SubClasses":"AcDbEntity:AcDbLine","EntityHandle":"110","interactive":false},"geometry":{"type":"MultiLineString","coordinates":[[[-96.042062,41.089111],[-96.04206,41.089111]]]}},{"type":"Feature","properties":{"type":"drawing","level":"LEVEL 1","Layer":"A-WALL","source":"LEVEL_1.dxf","SubClasses":"AcDbEntity:AcDbLine","EntityHandle":"112","interactive":false},"geometry":{"type":"MultiLineString","coordinates":[[[-96.042062,41.089102],[-96.042062,41.0891]]]}},{"type":"Feature","properties":{"type":"drawing","level":"LEVEL 1","Layer":"A-WALL","source":"LEVEL_1.dxf","SubClasses":"AcDbEntity:AcDbLine","EntityHandle":"114","interactive":false},"geometry":{"type":"MultiLineString","coordinates":[[[-96.04206,41.089098],[-96.04206,41.089099]]]}},{"type":"Feature","properties":{"type":"drawing","level":"LEVEL 1","Layer":"A-WALL","source":"LEVEL_1.dxf","SubClasses":"AcDbEntity:AcDbLine","EntityHandle":"115","interactive":false},"geometry":{"type":"MultiLineString","coordinates":[[[-96.04206,41.089099],[-96.04206,41.089102]]]}},{"type":"Feature","properties":{"type":"drawing","level":"LEVEL 1","Layer":"A-WALL","source":"LEVEL_1.dxf","SubClasses":"AcDbEntity:AcDbLine","EntityHandle":"116","interactive":false},"geometry":{"type":"MultiLineString","coordinates":[[[-96.04206,41.089102],[-96.042062,41.089102]]]}},{"type":"Feature","properties":{"type":"drawing","level":"LEVEL 1","Layer":"A-DOOR","source":"LEVEL_1.dxf","SubClasses":"AcDbEntity:AcDbBlockReference","EntityHandle":"137","interactive":false},"geometry":{"type":"MultiLineString","coordinates":[[[-96.042062,41.089103],[-96.042063,41.089103],[-96.042064,41.089103],[-96.042065,41.089103],[-96.042065,41.089103],[-96.042066,41.089103],[-96.042067,41.089103],[-96.042068,41.089103],[-96.042068,41.089104],[-96.042069,41.089104],[-96.042069,41.089104],[-96.04207,41.089105],[-96.04207,41.089105],[-96.042071,41.089106],[-96.042071,41.089106],[-96.042072,41.089107],[-96.042072,41.089107],[-96.042073,41.089108],[-96.042073,41.089108],[-96.042073,41.089109],[-96.042073,41.089109],[-96.042073,41.08911],[-96.042073,41.08911],[-96.042073,41.089111]],[[-96.042063,41.089111],[-96.042073,41.089111]],[[-96.042073,41.089111],[-96.042073,41.08911]],[[-96.042073,41.08911],[-96.042063,41.08911]],[[-96.042063,41.08911],[-96.042063,41.089111]],[[-96.042062,41.089103],[-96.042063,41.089103],[-96.042064,41.089103],[-96.042065,41.089103],[-96.042065,41.089103],[-96.042066,41.089103],[-96.042067,41.089103],[-96.042068,41.089103],[-96.042068,41.089104],[-96.042069,41.089104],[-96.042069,41.089104],[-96.04207,41.089105],[-96.04207,41.089105],[-96.042071,41.089106],[-96.042071,41.089106],[-96.042072,41.089107],[-96.042072,41.089107],[-96.042073,41.089108],[-96.042073,41.089108],[-96.042073,41.089109],[-96.042073,41.089109],[-96.042073,41.08911],[-96.042073,41.08911],[-96.042073,41.089111]],[[-96.042063,41.089111],[-96.042063,41.089111]],[[-96.042063,41.089111],[-96.042062,41.089111]],[[-96.042062,41.089111],[-96.042062,41.089111]],[[-96.042062,41.089111],[-96.042061,41.089111]],[[-96.042061,41.089111],[-96.042061,41.089111]],[[-96.042061,41.089111],[-96.04206,41.089111]],[[-96.04206,41.089111],[-96.04206,41.089111]],[[-96.04206,41.089111],[-96.042063,41.089111]],[[-96.042063,41.089103],[-96.042063,41.089102]],[[-96.042063,41.089102],[-96.04206,41.089102]],[[-96.04206,41.089102],[-96.04206,41.089103]],[[-96.04206,41.089103],[-96.042061,41.089103]],[[-96.042061,41.089103],[-96.042061,41.089103]],[[-96.042061,41.089103],[-96.042062,41.089103]],[[-96.042062,41.089103],[-96.042062,41.089103]],[[-96.042062,41.089103],[-96.042063,41.089103]],[[-96.042073,41.089111],[-96.042073,41.08911]],[[-96.042063,41.089111],[-96.042073,41.089111]],[[-96.042073,41.08911],[-96.042063,41.08911]],[[-96.042063,41.089111],[-96.042063,41.08911]],[[-96.042062,41.089103],[-96.042063,41.089103],[-96.042064,41.089103],[-96.042065,41.089103],[-96.042065,41.089103],[-96.042066,41.089103],[-96.042067,41.089103],[-96.042068,41.089103],[-96.042068,41.089104],[-96.042069,41.089104],[-96.042069,41.089104],[-96.04207,41.089105],[-96.04207,41.089105],[-96.042071,41.089106],[-96.042071,41.089106],[-96.042072,41.089107],[-96.042072,41.089107],[-96.042073,41.089108],[-96.042073,41.089108],[-96.042073,41.089109],[-96.042073,41.089109],[-96.042073,41.08911],[-96.042073,41.08911],[-96.042073,41.089111]],[[-96.042062,41.089103],[-96.042063,41.089103],[-96.042064,41.089103],[-96.042065,41.089103],[-96.042065,41.089103],[-96.042066,41.089103],[-96.042067,41.089103],[-96.042068,41.089103],[-96.042068,41.089104],[-96.042069,41.089104],[-96.042069,41.089104],[-96.04207,41.089105],[-96.04207,41.089105],[-96.042071,41.089106],[-96.042071,41.089106],[-96.042072,41.089107],[-96.042072,41.089107],[-96.042073,41.089108],[-96.042073,41.089108],[-96.042073,41.089109],[-96.042073,41.089109],[-96.042073,41.08911],[-96.042073,41.08911],[-96.042073,41.089111]]]}},{"type":"Feature","properties":{"type":"drawing","level":"LEVEL 1","Layer":"A-WALL","source":"LEVEL_1.dxf","SubClasses":"AcDbEntity:AcDbLine","EntityHandle":"138","interactive":false},"geometry":{"type":"MultiLineString","coordinates":[[[-96.042062,41.0891],[-96.042104,41.0891]]]}},{"type":"Feature","properties":{"type":"drawing","level":"LEVEL 1","Layer":"A-WALL","source":"LEVEL_1.dxf","SubClasses":"AcDbEntity:AcDbLine","EntityHandle":"139","interactive":false},"geometry":{"type":"MultiLineString","coordinates":[[[-96.042104,41.089098],[-96.04206,41.089098]]]}},{"type":"Feature","properties":{"type":"drawing","level":"LEVEL 1","Layer":"A-WALL","source":"LEVEL_1.dxf","SubClasses":"AcDbEntity:AcDbLine","EntityHandle":"13A","interactive":false},"geometry":{"type":"MultiLineString","coordinates":[[[-96.04206,41.089114],[-96.042075,41.089114]]]}},{"type":"Feature","properties":{"type":"drawing","level":"LEVEL 1","Layer":"A-WALL","source":"LEVEL_1.dxf","SubClasses":"AcDbEntity:AcDbLine","EntityHandle":"13C","interactive":false},"geometry":{"type":"MultiLineString","coordinates":[[[-96.042077,41.089112],[-96.042062,41.089112]]]}},{"type":"Feature","properties":{"type":"drawing","level":"LEVEL 1","Layer":"A-WALL","source":"LEVEL_1.dxf","SubClasses":"AcDbEntity:AcDbLine","EntityHandle":"13D","interactive":false},"geometry":{"type":"MultiLineString","coordinates":[[[-96.04206,41.089111],[-96.04206,41.089114]]]}},{"type":"Feature","properties":{"type":"drawing","level":"LEVEL 1","Layer":"A-WALL","source":"LEVEL_1.dxf","SubClasses":"AcDbEntity:AcDbLine","EntityHandle":"13E","interactive":false},"geometry":{"type":"MultiLineString","coordinates":[[[-96.042075,41.089114],[-96.042075,41.089125]]]}},{"type":"Feature","properties":{"type":"drawing","level":"LEVEL 1","Layer":"A-WALL","source":"LEVEL_1.dxf","SubClasses":"AcDbEntity:AcDbLine","EntityHandle":"13F","interactive":false},"geometry":{"type":"MultiLineString","coordinates":[[[-96.042077,41.089125],[-96.042077,41.089112]]]}},{"type":"Feature","properties":{"type":"drawing","level":"LEVEL 1","Layer":"A-WALL","source":"LEVEL_1.dxf","SubClasses":"AcDbEntity:AcDbLine","EntityHandle":"140","interactive":false},"geometry":{"type":"MultiLineString","coordinates":[[[-96.042104,41.089125],[-96.042077,41.089125]]]}},{"type":"Feature","properties":{"type":"drawing","level":"LEVEL 1","Layer":"A-WALL","source":"LEVEL_1.dxf","SubClasses":"AcDbEntity:AcDbLine","EntityHandle":"141","interactive":false},"geometry":{"type":"MultiLineString","coordinates":[[[-96.042075,41.089125],[-96.04206,41.089125]]]}},{"type":"Feature","properties":{"type":"drawing","level":"LEVEL 1","Layer":"A-WALL","source":"LEVEL_1.dxf","SubClasses":"AcDbEntity:AcDbLine","EntityHandle":"143","interactive":false},"geometry":{"type":"MultiLineString","coordinates":[[[-96.042062,41.089127],[-96.042104,41.089127]]]}},{"type":"Feature","properties":{"type":"drawing","level":"LEVEL 1","Layer":"A-WALL","source":"LEVEL_1.dxf","SubClasses":"AcDbEntity:AcDbLine","EntityHandle":"144","interactive":false},"geometry":{"type":"MultiLineString","coordinates":[[[-96.04206,41.089125],[-96.04206,41.089193]]]}},{"type":"Feature","properties":{"type":"drawing","level":"LEVEL 1","Layer":"A-WALL","source":"LEVEL_1.dxf","SubClasses":"AcDbEntity:AcDbLine","EntityHandle":"145","interactive":false},"geometry":{"type":"MultiLineString","coordinates":[[[-96.04206,41.089193],[-96.042062,41.089193]]]}},{"type":"Feature","properties":{"type":"drawing","level":"LEVEL 1","Layer":"A-WALL","source":"LEVEL_1.dxf","SubClasses":"AcDbEntity:AcDbLine","EntityHandle":"146","interactive":false},"geometry":{"type":"MultiLineString","coordinates":[[[-96.042062,41.089193],[-96.042062,41.089127]]]}},{"type":"Feature","properties":{"type":"drawing","level":"LEVEL 1","Layer":"A-WALL","source":"LEVEL_1.dxf","SubClasses":"AcDbEntity:AcDbLine","EntityHandle":"147","interactive":false},"geometry":{"type":"MultiLineString","coordinates":[[[-96.04206,41.089203],[-96.04206,41.089206]]]}},{"type":"Feature","properties":{"type":"drawing","level":"LEVEL 1","Layer":"A-WALL","source":"LEVEL_1.dxf","SubClasses":"AcDbEntity:AcDbLine","EntityHandle":"148","interactive":false},"geometry":{"type":"MultiLineString","coordinates":[[[-96.042062,41.089206],[-96.042062,41.089203]]]}},{"type":"Feature","properties":{"type":"drawing","level":"LEVEL 1","Layer":"A-WALL","source":"LEVEL_1.dxf","SubClasses":"AcDbEntity:AcDbLine","EntityHandle":"149","interactive":false},"geometry":{"type":"MultiLineString","coordinates":[[[-96.042062,41.089203],[-96.04206,41.089203]]]}},{"type":"Feature","properties":{"type":"drawing","level":"LEVEL 1","Layer":"A-WALL","source":"LEVEL_1.dxf","SubClasses":"AcDbEntity:AcDbLine","EntityHandle":"14A","interactive":false},"geometry":{"type":"MultiLineString","coordinates":[[[-96.042106,41.089209],[-96.042106,41.089201]]]}},{"type":"Feature","properties":{"type":"drawing","level":"LEVEL 1","Layer":"A-WALL","source":"LEVEL_1.dxf","SubClasses":"AcDbEntity:AcDbLine","EntityHandle":"14B","interactive":false},"geometry":{"type":"MultiLineString","coordinates":[[[-96.042106,41.089201],[-96.042104,41.089201]]]}},{"type":"Feature","properties":{"type":"drawing","level":"LEVEL 1","Layer":"A-WALL","source":"LEVEL_1.dxf","SubClasses":"AcDbEntity:AcDbLine","EntityHandle":"14C","interactive":false},"geometry":{"type":"MultiLineString","coordinates":[[[-96.042104,41.089201],[-96.042104,41.089206]]]}},{"type":"Feature","properties":{"type":"drawing","level":"LEVEL 1","Layer":"A-WALL","source":"LEVEL_1.dxf","SubClasses":"AcDbEntity:AcDbLine","EntityHandle":"14E","interactive":false},"geometry":{"type":"MultiLineString","coordinates":[[[-96.042106,41.089192],[-96.042106,41.089045]]]}},{"type":"Feature","properties":{"type":"drawing","level":"LEVEL 1","Layer":"A-WALL","source":"LEVEL_1.dxf","SubClasses":"AcDbEntity:AcDbLine","EntityHandle":"150","interactive":false},"geometry":{"type":"MultiLineString","coordinates":[[[-96.042104,41.089046],[-96.042104,41.089098]]]}},{"type":"Feature","properties":{"type":"drawing","level":"LEVEL 1","Layer":"A-WALL","source":"LEVEL_1.dxf","SubClasses":"AcDbEntity:AcDbLine","EntityHandle":"151","interactive":false},"geometry":{"type":"MultiLineString","coordinates":[[[-96.042104,41.0891],[-96.042104,41.089125]]]}},{"type":"Feature","properties":{"type":"drawing","level":"LEVEL 1","Layer":"A-WALL","source":"LEVEL_1.dxf","SubClasses":"AcDbEntity:AcDbLine","EntityHandle":"152","interactive":false},"geometry":{"type":"MultiLineString","coordinates":[[[-96.042104,41.089127],[-96.042104,41.089192]]]}},{"type":"Feature","properties":{"type":"drawing","level":"LEVEL 1","Layer":"A-WALL","source":"LEVEL_1.dxf","SubClasses":"AcDbEntity:AcDbLine","EntityHandle":"153","interactive":false},"geometry":{"type":"MultiLineString","coordinates":[[[-96.042104,41.089192],[-96.042106,41.089192]]]}},{"type":"Feature","properties":{"type":"drawing","level":"LEVEL 1","Layer":"A-WALL","source":"LEVEL_1.dxf","SubClasses":"AcDbEntity:AcDbLine","EntityHandle":"154","interactive":false},"geometry":{"type":"MultiLineString","coordinates":[[[-96.042106,41.089045],[-96.04187,41.089045]]]}},{"type":"Feature","properties":{"type":"drawing","level":"LEVEL 1","Layer":"A-WALL","source":"LEVEL_1.dxf","SubClasses":"AcDbEntity:AcDbLine","EntityHandle":"155","interactive":false},"geometry":{"type":"MultiLineString","coordinates":[[[-96.04187,41.089045],[-96.04187,41.089046]]]}},{"type":"Feature","properties":{"type":"drawing","level":"LEVEL 1","Layer":"A-WALL","source":"LEVEL_1.dxf","SubClasses":"AcDbEntity:AcDbLine","EntityHandle":"156","interactive":false},"geometry":{"type":"MultiLineString","coordinates":[[[-96.04187,41.089046],[-96.041978,41.089046]]]}},{"type":"Feature","properties":{"type":"drawing","level":"LEVEL 1","Layer":"A-WALL","source":"LEVEL_1.dxf","SubClasses":"AcDbEntity:AcDbLine","EntityHandle":"157","interactive":false},"geometry":{"type":"MultiLineString","coordinates":[[[-96.041978,41.089046],[-96.042026,41.089046]]]}},{"type":"Feature","properties":{"type":"drawing","level":"LEVEL 1","Layer":"A-WALL","source":"LEVEL_1.dxf","SubClasses":"AcDbEntity:AcDbLine","EntityHandle":"158","interactive":false},"geometry":{"type":"MultiLineString","coordinates":[[[-96.042026,41.089046],[-96.042104,41.089046]]]}},{"type":"Feature","properties":{"type":"drawing","level":"LEVEL 1","Layer":"A-WALL","source":"LEVEL_1.dxf","SubClasses":"AcDbEntity:AcDbLine","EntityHandle":"159","interactive":false},"geometry":{"type":"MultiLineString","coordinates":[[[-96.041857,41.089045],[-96.041847,41.089045]]]}},{"type":"Feature","properties":{"type":"drawing","level":"LEVEL 1","Layer":"A-WALL","source":"LEVEL_1.dxf","SubClasses":"AcDbEntity:AcDbLine","EntityHandle":"15A","interactive":false},"geometry":{"type":"MultiLineString","coordinates":[[[-96.041847,41.089045],[-96.041847,41.089046]]]}},{"type":"Feature","properties":{"type":"drawing","level":"LEVEL 1","Layer":"A-WALL","source":"LEVEL_1.dxf","SubClasses":"AcDbEntity:AcDbLine","EntityHandle":"15B","interactive":false},"geometry":{"type":"MultiLineString","coordinates":[[[-96.041847,41.089046],[-96.041857,41.089046]]]}},{"type":"Feature","properties":{"type":"drawing","level":"LEVEL 1","Layer":"A-WALL","source":"LEVEL_1.dxf","SubClasses":"AcDbEntity:AcDbLine","EntityHandle":"15C","interactive":false},"geometry":{"type":"MultiLineString","coordinates":[[[-96.041857,41.089046],[-96.041857,41.089045]]]}},{"type":"Feature","properties":{"type":"drawing","level":"LEVEL 1","Layer":"A-WALL","source":"LEVEL_1.dxf","SubClasses":"AcDbEntity:AcDbLine","EntityHandle":"15D","interactive":false},"geometry":{"type":"MultiLineString","coordinates":[[[-96.041774,41.089045],[-96.041765,41.089045]]]}},{"type":"Feature","properties":{"type":"drawing","level":"LEVEL 1","Layer":"A-WALL","source":"LEVEL_1.dxf","SubClasses":"AcDbEntity:AcDbLine","EntityHandle":"15F","interactive":false},"geometry":{"type":"MultiLineString","coordinates":[[[-96.041767,41.089046],[-96.041774,41.089046]]]}},{"type":"Feature","properties":{"type":"drawing","level":"LEVEL 1","Layer":"A-WALL","source":"LEVEL_1.dxf","SubClasses":"AcDbEntity:AcDbLine","EntityHandle":"160","interactive":false},"geometry":{"type":"MultiLineString","coordinates":[[[-96.041774,41.089046],[-96.041774,41.089045]]]}},{"type":"Feature","properties":{"type":"drawing","level":"LEVEL 1","Layer":"A-WALL","source":"LEVEL_1.dxf","SubClasses":"AcDbEntity:AcDbLine","EntityHandle":"161","interactive":false},"geometry":{"type":"MultiLineString","coordinates":[[[-96.041765,41.089045],[-96.041765,41.089192]]]}},{"type":"Feature","properties":{"type":"drawing","level":"LEVEL 1","Layer":"A-WALL","source":"LEVEL_1.dxf","SubClasses":"AcDbEntity:AcDbLine","EntityHandle":"162","interactive":false},"geometry":{"type":"MultiLineString","coordinates":[[[-96.041765,41.089192],[-96.041767,41.089192]]]}},{"type":"Feature","properties":{"type":"drawing","level":"LEVEL 1","Layer":"A-WALL","source":"LEVEL_1.dxf","SubClasses":"AcDbEntity:AcDbLine","EntityHandle":"163","interactive":false},"geometry":{"type":"MultiLineString","coordinates":[[[-96.041767,41.089192],[-96.041767,41.089046]]]}},{"type":"Feature","properties":{"type":"drawing","level":"LEVEL 1","Layer":"A-WALL","source":"LEVEL_1.dxf","SubClasses":"AcDbEntity:AcDbLine","EntityHandle":"164","interactive":false},"geometry":{"type":"MultiLineString","coordinates":[[[-96.041765,41.089201],[-96.041765,41.089209]]]}},{"type":"Feature","properties":{"type":"drawing","level":"LEVEL 1","Layer":"A-WALL","source":"LEVEL_1.dxf","SubClasses":"AcDbEntity:AcDbLine","EntityHandle":"166","interactive":false},"geometry":{"type":"MultiLineString","coordinates":[[[-96.041767,41.089206],[-96.041767,41.089201]]]}},{"type":"Feature","properties":{"type":"drawing","level":"LEVEL 1","Layer":"A-WALL","source":"LEVEL_1.dxf","SubClasses":"AcDbEntity:AcDbLine","EntityHandle":"167","interactive":false},"geometry":{"type":"MultiLineString","coordinates":[[[-96.041767,41.089201],[-96.041765,41.089201]]]}},{"type":"Feature","properties":{"type":"drawing","level":"LEVEL 1","Layer":"A-WALL","source":"LEVEL_1.dxf","SubClasses":"AcDbEntity:AcDbLine","EntityHandle":"168","interactive":false},"geometry":{"type":"MultiLineString","coordinates":[[[-96.041765,41.089209],[-96.041774,41.089209]]]}},{"type":"Feature","properties":{"type":"drawing","level":"LEVEL 1","Layer":"A-WALL","source":"LEVEL_1.dxf","SubClasses":"AcDbEntity:AcDbLine","EntityHandle":"169","interactive":false},"geometry":{"type":"MultiLineString","coordinates":[[[-96.041774,41.089209],[-96.041774,41.089206]]]}},{"type":"Feature","properties":{"type":"drawing","level":"LEVEL 1","Layer":"A-WALL","source":"LEVEL_1.dxf","SubClasses":"AcDbEntity:AcDbLine","EntityHandle":"16A","interactive":false},"geometry":{"type":"MultiLineString","coordinates":[[[-96.041774,41.089206],[-96.041767,41.089206]]]}},{"type":"Feature","properties":{"type":"drawing","level":"LEVEL 1","Layer":"A-WALL","source":"LEVEL_1.dxf","SubClasses":"AcDbEntity:AcDbLine","EntityHandle":"16B","interactive":false},"geometry":{"type":"MultiLineString","coordinates":[[[-96.041847,41.089209],[-96.041858,41.089209]]]}},{"type":"Feature","properties":{"type":"drawing","level":"LEVEL 1","Layer":"A-WALL","source":"LEVEL_1.dxf","SubClasses":"AcDbEntity:AcDbLine","EntityHandle":"16C","interactive":false},"geometry":{"type":"MultiLineString","coordinates":[[[-96.041858,41.089209],[-96.041858,41.089206]]]}},{"type":"Feature","properties":{"type":"drawing","level":"LEVEL 1","Layer":"A-WALL","source":"LEVEL_1.dxf","SubClasses":"AcDbEntity:AcDbLine","EntityHandle":"16D","interactive":false},"geometry":{"type":"MultiLineString","coordinates":[[[-96.041858,41.089206],[-96.041847,41.089206]]]}},{"type":"Feature","properties":{"type":"drawing","level":"LEVEL 1","Layer":"A-WALL","source":"LEVEL_1.dxf","SubClasses":"AcDbEntity:AcDbLine","EntityHandle":"16E","interactive":false},"geometry":{"type":"MultiLineString","coordinates":[[[-96.041847,41.089206],[-96.041847,41.089209]]]}},{"type":"Feature","properties":{"type":"drawing","level":"LEVEL 1","Layer":"A-WALL","source":"LEVEL_1.dxf","SubClasses":"AcDbEntity:AcDbLine","EntityHandle":"16F","interactive":false},"geometry":{"type":"MultiLineString","coordinates":[[[-96.04193,41.089209],[-96.041946,41.089209]]]}},{"type":"Feature","properties":{"type":"drawing","level":"LEVEL 1","Layer":"A-WALL","source":"LEVEL_1.dxf","SubClasses":"AcDbEntity:AcDbLine","EntityHandle":"170","interactive":false},"geometry":{"type":"MultiLineString","coordinates":[[[-96.041946,41.089209],[-96.041946,41.089206]]]}},{"type":"Feature","properties":{"type":"drawing","level":"LEVEL 1","Layer":"A-WALL","source":"LEVEL_1.dxf","SubClasses":"AcDbEntity:AcDbLine","EntityHandle":"171","interactive":false},"geometry":{"type":"MultiLineString","coordinates":[[[-96.041946,41.089206],[-96.04193,41.089206]]]}},{"type":"Feature","properties":{"type":"drawing","level":"LEVEL 1","Layer":"A-WALL","source":"LEVEL_1.dxf","SubClasses":"AcDbEntity:AcDbLine","EntityHandle":"172","interactive":false},"geometry":{"type":"MultiLineString","coordinates":[[[-96.04193,41.089206],[-96.04193,41.089209]]]}},{"type":"Feature","properties":{"type":"drawing","level":"LEVEL 1","Layer":"A-WALL","source":"LEVEL_1.dxf","SubClasses":"AcDbEntity:AcDbLine","EntityHandle":"173","interactive":false},"geometry":{"type":"MultiLineString","coordinates":[[[-96.042014,41.089209],[-96.042025,41.089209]]]}},{"type":"Feature","properties":{"type":"drawing","level":"LEVEL 1","Layer":"A-WALL","source":"LEVEL_1.dxf","SubClasses":"AcDbEntity:AcDbLine","EntityHandle":"174","interactive":false},"geometry":{"type":"MultiLineString","coordinates":[[[-96.042025,41.089209],[-96.042025,41.089206]]]}},{"type":"Feature","properties":{"type":"drawing","level":"LEVEL 1","Layer":"A-WALL","source":"LEVEL_1.dxf","SubClasses":"AcDbEntity:AcDbLine","EntityHandle":"175","interactive":false},"geometry":{"type":"MultiLineString","coordinates":[[[-96.042025,41.089206],[-96.042014,41.089206]]]}},{"type":"Feature","properties":{"type":"drawing","level":"LEVEL 1","Layer":"A-WALL","source":"LEVEL_1.dxf","SubClasses":"AcDbEntity:AcDbLine","EntityHandle":"176","interactive":false},"geometry":{"type":"MultiLineString","coordinates":[[[-96.042014,41.089206],[-96.042014,41.089209]]]}},{"type":"Feature","properties":{"type":"drawing","level":"LEVEL 1","Layer":"A-WALL","source":"LEVEL_1.dxf","SubClasses":"AcDbEntity:AcDbLine","EntityHandle":"177","interactive":false},"geometry":{"type":"MultiLineString","coordinates":[[[-96.042057,41.089209],[-96.042066,41.089209]]]}},{"type":"Feature","properties":{"type":"drawing","level":"LEVEL 1","Layer":"A-WALL","source":"LEVEL_1.dxf","SubClasses":"AcDbEntity:AcDbLine","EntityHandle":"178","interactive":false},"geometry":{"type":"MultiLineString","coordinates":[[[-96.042066,41.089209],[-96.042066,41.089206]]]}},{"type":"Feature","properties":{"type":"drawing","level":"LEVEL 1","Layer":"A-WALL","source":"LEVEL_1.dxf","SubClasses":"AcDbEntity:AcDbLine","EntityHandle":"179","interactive":false},"geometry":{"type":"MultiLineString","coordinates":[[[-96.042066,41.089206],[-96.042062,41.089206]]]}},{"type":"Feature","properties":{"type":"drawing","level":"LEVEL 1","Layer":"A-WALL","source":"LEVEL_1.dxf","SubClasses":"AcDbEntity:AcDbLine","EntityHandle":"17A","interactive":false},"geometry":{"type":"MultiLineString","coordinates":[[[-96.04206,41.089206],[-96.042057,41.089206]]]}},{"type":"Feature","properties":{"type":"drawing","level":"LEVEL 1","Layer":"A-WALL","source":"LEVEL_1.dxf","SubClasses":"AcDbEntity:AcDbLine","EntityHandle":"17B","interactive":false},"geometry":{"type":"MultiLineString","coordinates":[[[-96.042057,41.089206],[-96.042057,41.089209]]]}},{"type":"Feature","properties":{"type":"drawing","level":"LEVEL 1","Layer":"A-WALL","source":"LEVEL_1.dxf","SubClasses":"AcDbEntity:AcDbLine","EntityHandle":"17C","interactive":false},"geometry":{"type":"MultiLineString","coordinates":[[[-96.042099,41.089209],[-96.042106,41.089209]]]}},{"type":"Feature","properties":{"type":"drawing","level":"LEVEL 1","Layer":"A-WALL","source":"LEVEL_1.dxf","SubClasses":"AcDbEntity:AcDbLine","EntityHandle":"17D","interactive":false},"geometry":{"type":"MultiLineString","coordinates":[[[-96.042104,41.089206],[-96.042099,41.089206]]]}},{"type":"Feature","properties":{"type":"drawing","level":"LEVEL 1","Layer":"A-WALL","source":"LEVEL_1.dxf","SubClasses":"AcDbEntity:AcDbLine","EntityHandle":"17E","interactive":false},"geometry":{"type":"MultiLineString","coordinates":[[[-96.042099,41.089206],[-96.042099,41.089209]]]}},{"type":"Feature","properties":{"type":"drawing","level":"LEVEL 1","Layer":"A-DOOR","source":"LEVEL_1.dxf","SubClasses":"AcDbEntity:AcDbBlockReference","EntityHandle":"19E","interactive":false},"geometry":{"type":"MultiLineString","coordinates":[[[-96.042118,41.089193],[-96.042117,41.089193],[-96.042117,41.089194],[-96.042117,41.089194],[-96.042117,41.089195],[-96.042117,41.089196],[-96.042117,41.089196],[-96.042116,41.089197],[-96.042116,41.089197],[-96.042116,41.089198],[-96.042115,41.089198],[-96.042115,41.089198],[-96.042114,41.089199],[-96.042113,41.089199],[-96.042113,41.0892],[-96.042112,41.0892],[-96.042112,41.0892],[-96.042111,41.0892],[-96.04211,41.089201],[-96.042109,41.089201],[-96.042109,41.089201],[-96.042108,41.089201],[-96.042107,41.089201],[-96.042107,41.089201]],[[-96.042107,41.089193],[-96.042118,41.089193]],[[-96.042118,41.089193],[-96.042118,41.089193]],[[-96.042118,41.089193],[-96.042107,41.089193]],[[-96.042107,41.089193],[-96.042107,41.089193]],[[-96.042118,41.089193],[-96.042117,41.089193],[-96.042117,41.089194],[-96.042117,41.089194],[-96.042117,41.089195],[-96.042117,41.089196],[-96.042117,41.089196],[-96.042116,41.089197],[-96.042116,41.089197],[-96.042116,41.089198],[-96.042115,41.089198],[-96.042115,41.089198],[-96.042114,41.089199],[-96.042113,41.089199],[-96.042113,41.0892],[-96.042112,41.0892],[-96.042112,41.0892],[-96.042111,41.0892],[-96.04211,41.089201],[-96.042109,41.089201],[-96.042109,41.089201],[-96.042108,41.089201],[-96.042107,41.089201],[-96.042107,41.089201]],[[-96.042104,41.089192],[-96.042107,41.089192]],[[-96.042104,41.089193],[-96.042104,41.089192]],[[-96.042106,41.089193],[-96.042104,41.089193]],[[-96.042106,41.089193],[-96.042106,41.089193]],[[-96.042106,41.089193],[-96.042106,41.089193]],[[-96.042106,41.089193],[-96.042106,41.089193]],[[-96.042107,41.089193],[-96.042106,41.089193]],[[-96.042107,41.089192],[-96.042107,41.089193]],[[-96.042106,41.089201],[-96.042107,41.089201]],[[-96.042106,41.089201],[-96.042106,41.089201]],[[-96.042106,41.089201],[-96.042106,41.089201]],[[-96.042106,41.089201],[-96.042106,41.089201]],[[-96.042104,41.089201],[-96.042106,41.089201]],[[-96.042104,41.089201],[-96.042104,41.089201]],[[-96.042107,41.089201],[-96.042104,41.089201]],[[-96.042107,41.089201],[-96.042107,41.089201]],[[-96.042118,41.089193],[-96.042118,41.089193]],[[-96.042107,41.089193],[-96.042118,41.089193]],[[-96.042118,41.089193],[-96.042107,41.089193]],[[-96.042107,41.089193],[-96.042107,41.089193]],[[-96.042118,41.089193],[-96.042117,41.089193],[-96.042117,41.089194],[-96.042117,41.089194],[-96.042117,41.089195],[-96.042117,41.089196],[-96.042117,41.089196],[-96.042116,41.089197],[-96.042116,41.089197],[-96.042116,41.089198],[-96.042115,41.089198],[-96.042115,41.089198],[-96.042114,41.089199],[-96.042113,41.089199],[-96.042113,41.0892],[-96.042112,41.0892],[-96.042112,41.0892],[-96.042111,41.0892],[-96.04211,41.089201],[-96.042109,41.089201],[-96.042109,41.089201],[-96.042108,41.089201],[-96.042107,41.089201],[-96.042107,41.089201]],[[-96.042118,41.089193],[-96.042117,41.089193],[-96.042117,41.089194],[-96.042117,41.089194],[-96.042117,41.089195],[-96.042117,41.089196],[-96.042117,41.089196],[-96.042116,41.089197],[-96.042116,41.089197],[-96.042116,41.089198],[-96.042115,41.089198],[-96.042115,41.089198],[-96.042114,41.089199],[-96.042113,41.089199],[-96.042113,41.0892],[-96.042112,41.0892],[-96.042112,41.0892],[-96.042111,41.0892],[-96.04211,41.089201],[-96.042109,41.089201],[-96.042109,41.089201],[-96.042108,41.089201],[-96.042107,41.089201],[-96.042107,41.089201]]]}},{"type":"Feature","properties":{"type":"drawing","level":"LEVEL 1","Layer":"A-DOOR","source":"LEVEL_1.dxf","SubClasses":"AcDbEntity:AcDbBlockReference","EntityHandle":"19F","interactive":false},"geometry":{"type":"MultiLineString","coordinates":[[[-96.042062,41.089194],[-96.042063,41.089194],[-96.042064,41.089194],[-96.042065,41.089194],[-96.042065,41.089194],[-96.042066,41.089194],[-96.042067,41.089195],[-96.042068,41.089195],[-96.042068,41.089195],[-96.042069,41.089195],[-96.042069,41.089196],[-96.04207,41.089196],[-96.04207,41.089196],[-96.042071,41.089197],[-96.042071,41.089197],[-96.042072,41.089198],[-96.042072,41.089198],[-96.042073,41.089199],[-96.042073,41.089199],[-96.042073,41.0892],[-96.042073,41.0892],[-96.042073,41.089201],[-96.042073,41.089202],[-96.042073,41.089202]],[[-96.042063,41.089202],[-96.042073,41.089202]],[[-96.042073,41.089202],[-96.042073,41.089202]],[[-96.042073,41.089202],[-96.042063,41.089202]],[[-96.042063,41.089202],[-96.042063,41.089202]],[[-96.042062,41.089194],[-96.042063,41.089194],[-96.042064,41.089194],[-96.042065,41.089194],[-96.042065,41.089194],[-96.042066,41.089194],[-96.042067,41.089195],[-96.042068,41.089195],[-96.042068,41.089195],[-96.042069,41.089195],[-96.042069,41.089196],[-96.04207,41.089196],[-96.04207,41.089196],[-96.042071,41.089197],[-96.042071,41.089197],[-96.042072,41.089198],[-96.042072,41.089198],[-96.042073,41.089199],[-96.042073,41.089199],[-96.042073,41.0892],[-96.042073,41.0892],[-96.042073,41.089201],[-96.042073,41.089202],[-96.042073,41.089202]],[[-96.042063,41.089203],[-96.042063,41.089202]],[[-96.042063,41.089202],[-96.042062,41.089202]],[[-96.042062,41.089202],[-96.042062,41.089202]],[[-96.042062,41.089202],[-96.042061,41.089202]],[[-96.042061,41.089202],[-96.042061,41.089202]],[[-96.042061,41.089202],[-96.04206,41.089202]],[[-96.04206,41.089202],[-96.04206,41.089203]],[[-96.04206,41.089203],[-96.042063,41.089203]],[[-96.042063,41.089194],[-96.042063,41.089193]],[[-96.042063,41.089193],[-96.04206,41.089193]],[[-96.04206,41.089193],[-96.04206,41.089194]],[[-96.04206,41.089194],[-96.042061,41.089194]],[[-96.042061,41.089194],[-96.042061,41.089194]],[[-96.042061,41.089194],[-96.042062,41.089194]],[[-96.042062,41.089194],[-96.042062,41.089194]],[[-96.042062,41.089194],[-96.042063,41.089194]],[[-96.042073,41.089202],[-96.042073,41.089202]],[[-96.042063,41.089202],[-96.042073,41.089202]],[[-96.042073,41.089202],[-96.042063,41.089202]],[[-96.042063,41.089202],[-96.042063,41.089202]],[[-96.042062,41.089194],[-96.042063,41.089194],[-96.042064,41.089194],[-96.042065,41.089194],[-96.042065,41.089194],[-96.042066,41.089194],[-96.042067,41.089195],[-96.042068,41.089195],[-96.042068,41.089195],[-96.042069,41.089195],[-96.042069,41.089196],[-96.04207,41.089196],[-96.04207,41.089196],[-96.042071,41.089197],[-96.042071,41.089197],[-96.042072,41.089198],[-96.042072,41.089198],[-96.042073,41.089199],[-96.042073,41.089199],[-96.042073,41.0892],[-96.042073,41.0892],[-96.042073,41.089201],[-96.042073,41.089202],[-96.042073,41.089202]],[[-96.042062,41.089194],[-96.042063,41.089194],[-96.042064,41.089194],[-96.042065,41.089194],[-96.042065,41.089194],[-96.042066,41.089194],[-96.042067,41.089195],[-96.042068,41.089195],[-96.042068,41.089195],[-96.042069,41.089195],[-96.042069,41.089196],[-96.04207,41.089196],[-96.04207,41.089196],[-96.042071,41.089197],[-96.042071,41.089197],[-96.042072,41.089198],[-96.042072,41.089198],[-96.042073,41.089199],[-96.042073,41.089199],[-96.042073,41.0892],[-96.042073,41.0892],[-96.042073,41.089201],[-96.042073,41.089202],[-96.042073,41.089202]]]}},{"type":"Feature","properties":{"type":"drawing","level":"LEVEL 1","Layer":"A-DOOR","source":"LEVEL_1.dxf","SubClasses":"AcDbEntity:AcDbBlockReference","EntityHandle":"1AB","interactive":false},"geometry":{"type":"MultiLineString","coordinates":[[[-96.042099,41.089206],[-96.042099,41.089206]],[[-96.042099,41.089206],[-96.042066,41.089206]],[[-96.042066,41.089206],[-96.042066,41.089206]],[[-96.042066,41.089206],[-96.042099,41.089206]],[[-96.042099,41.089179],[-96.042099,41.089206]],[[-96.042066,41.089179],[-96.042099,41.089179]],[[-96.042066,41.089206],[-96.042066,41.089179]]]}},{"type":"Feature","properties":{"type":"drawing","level":"LEVEL 1","Layer":"A-DOOR","source":"LEVEL_1.dxf","SubClasses":"AcDbEntity:AcDbBlockReference","EntityHandle":"1AC","interactive":false},"geometry":{"type":"MultiLineString","coordinates":[[[-96.042057,41.089206],[-96.042057,41.089206]],[[-96.042057,41.089206],[-96.042025,41.089206]],[[-96.042025,41.089206],[-96.042025,41.089206]],[[-96.042025,41.089206],[-96.042057,41.089206]],[[-96.042057,41.089179],[-96.042057,41.089206]],[[-96.042025,41.089179],[-96.042057,41.089179]],[[-96.042025,41.089206],[-96.042025,41.089179]]]}},{"type":"Feature","properties":{"type":"drawing","level":"LEVEL 1","Layer":"A-DOOR","source":"LEVEL_1.dxf","SubClasses":"AcDbEntity:AcDbBlockReference","EntityHandle":"1B7","interactive":false},"geometry":{"type":"MultiLineString","coordinates":[[[-96.042014,41.089206],[-96.042014,41.089206]],[[-96.042014,41.089206],[-96.041946,41.089206]],[[-96.041946,41.089206],[-96.041946,41.089206]],[[-96.041946,41.089206],[-96.042014,41.089206]],[[-96.042014,41.089151],[-96.042014,41.089206]],[[-96.041946,41.089151],[-96.042014,41.089151]],[[-96.041946,41.089206],[-96.041946,41.089151]]]}},{"type":"Feature","properties":{"type":"drawing","level":"LEVEL 1","Layer":"A-DOOR","source":"LEVEL_1.dxf","SubClasses":"AcDbEntity:AcDbBlockReference","EntityHandle":"1C2","interactive":false},"geometry":{"type":"MultiLineString","coordinates":[[[-96.04193,41.089206],[-96.04193,41.089206]],[[-96.04193,41.089206],[-96.041858,41.089206]],[[-96.041858,41.089206],[-96.041858,41.089206]],[[-96.041858,41.089206],[-96.04193,41.089206]],[[-96.04193,41.089151],[-96.04193,41.089206]],[[-96.041858,41.089151],[-96.04193,41.089151]],[[-96.041858,41.089206],[-96.041858,41.089151]]]}},{"type":"Feature","properties":{"type":"drawing","level":"LEVEL 1","Layer":"A-DOOR","source":"LEVEL_1.dxf","SubClasses":"AcDbEntity:AcDbBlockReference","EntityHandle":"1C3","interactive":false},"geometry":{"type":"MultiLineString","coordinates":[[[-96.041847,41.089206],[-96.041847,41.089206]],[[-96.041847,41.089206],[-96.041774,41.089206]],[[-96.041774,41.089206],[-96.041774,41.089206]],[[-96.041774,41.089206],[-96.041847,41.089206]],[[-96.041847,41.089151],[-96.041847,41.089206]],[[-96.041774,41.089151],[-96.041847,41.089151]],[[-96.041774,41.089206],[-96.041774,41.089151]]]}},{"type":"Feature","properties":{"type":"drawing","level":"LEVEL 1","Layer":"A-DOOR","source":"LEVEL_1.dxf","SubClasses":"AcDbEntity:AcDbBlockReference","EntityHandle":"1CE","interactive":false},"geometry":{"type":"MultiLineString","coordinates":[[[-96.041847,41.089046],[-96.041847,41.089047]],[[-96.041847,41.089047],[-96.041774,41.089047]],[[-96.041774,41.089047],[-96.041774,41.089046]],[[-96.041774,41.089046],[-96.041847,41.089046]],[[-96.041847,41.089101],[-96.041847,41.089046]],[[-96.041774,41.089101],[-96.041847,41.089101]],[[-96.041774,41.089046],[-96.041774,41.089101]]]}},{"type":"Feature","properties":{"type":"drawing","level":"LEVEL 1","Layer":"A-DOOR","source":"LEVEL_1.dxf","SubClasses":"AcDbEntity:AcDbBlockReference","EntityHandle":"1CF","interactive":false},"geometry":{"type":"MultiLineString","coordinates":[[[-96.041765,41.089201],[-96.041764,41.089201],[-96.041763,41.089201],[-96.041763,41.089201],[-96.041762,41.089201],[-96.041761,41.0892],[-96.04176,41.0892],[-96.04176,41.0892],[-96.041759,41.0892],[-96.041758,41.089199],[-96.041758,41.089199],[-96.041757,41.089199],[-96.041757,41.089198],[-96.041756,41.089198],[-96.041756,41.089197],[-96.041755,41.089197],[-96.041755,41.089197],[-96.041755,41.089196],[-96.041754,41.089196],[-96.041754,41.089195],[-96.041754,41.089194],[-96.041754,41.089194],[-96.041754,41.089193],[-96.041754,41.089193]],[[-96.041765,41.089193],[-96.041754,41.089193]],[[-96.041754,41.089193],[-96.041754,41.089193]],[[-96.041754,41.089193],[-96.041765,41.089193]],[[-96.041765,41.089193],[-96.041765,41.089193]],[[-96.041765,41.089201],[-96.041764,41.089201],[-96.041763,41.089201],[-96.041763,41.089201],[-96.041762,41.089201],[-96.041761,41.0892],[-96.04176,41.0892],[-96.04176,41.0892],[-96.041759,41.0892],[-96.041758,41.089199],[-96.041758,41.089199],[-96.041757,41.089199],[-96.041757,41.089198],[-96.041756,41.089198],[-96.041756,41.089197],[-96.041755,41.089197],[-96.041755,41.089197],[-96.041755,41.089196],[-96.041754,41.089196],[-96.041754,41.089195],[-96.041754,41.089194],[-96.041754,41.089194],[-96.041754,41.089193],[-96.041754,41.089193]],[[-96.041765,41.089192],[-96.041765,41.089193]],[[-96.041765,41.089193],[-96.041765,41.089193]],[[-96.041765,41.089193],[-96.041765,41.089193]],[[-96.041765,41.089193],[-96.041766,41.089193]],[[-96.041766,41.089193],[-96.041766,41.089193]],[[-96.041766,41.089193],[-96.041767,41.089193]],[[-96.041767,41.089193],[-96.041767,41.089192]],[[-96.041767,41.089192],[-96.041765,41.089192]],[[-96.041765,41.089201],[-96.041765,41.089201]],[[-96.041765,41.089201],[-96.041767,41.089201]],[[-96.041767,41.089201],[-96.041767,41.089201]],[[-96.041767,41.089201],[-96.041766,41.089201]],[[-96.041766,41.089201],[-96.041766,41.089201]],[[-96.041766,41.089201],[-96.041765,41.089201]],[[-96.041765,41.089201],[-96.041765,41.089201]],[[-96.041765,41.089201],[-96.041765,41.089201]],[[-96.041754,41.089193],[-96.041754,41.089193]],[[-96.041765,41.089193],[-96.041754,41.089193]],[[-96.041754,41.089193],[-96.041765,41.089193]],[[-96.041765,41.089193],[-96.041765,41.089193]],[[-96.041765,41.089201],[-96.041764,41.089201],[-96.041763,41.089201],[-96.041763,41.089201],[-96.041762,41.089201],[-96.041761,41.0892],[-96.04176,41.0892],[-96.04176,41.0892],[-96.041759,41.0892],[-96.041758,41.089199],[-96.041758,41.089199],[-96.041757,41.089199],[-96.041757,41.089198],[-96.041756,41.089198],[-96.041756,41.089197],[-96.041755,41.089197],[-96.041755,41.089197],[-96.041755,41.089196],[-96.041754,41.089196],[-96.041754,41.089195],[-96.041754,41.089194],[-96.041754,41.089194],[-96.041754,41.089193],[-96.041754,41.089193]],[[-96.041765,41.089201],[-96.041764,41.089201],[-96.041763,41.089201],[-96.041763,41.089201],[-96.041762,41.089201],[-96.041761,41.0892],[-96.04176,41.0892],[-96.04176,41.0892],[-96.041759,41.0892],[-96.041758,41.089199],[-96.041758,41.089199],[-96.041757,41.089199],[-96.041757,41.089198],[-96.041756,41.089198],[-96.041756,41.089197],[-96.041755,41.089197],[-96.041755,41.089197],[-96.041755,41.089196],[-96.041754,41.089196],[-96.041754,41.089195],[-96.041754,41.089194],[-96.041754,41.089194],[-96.041754,41.089193],[-96.041754,41.089193]]]}},{"type":"Feature","properties":{"type":"drawing","level":"LEVEL 1","Layer":"A-DOOR","source":"LEVEL_1.dxf","SubClasses":"AcDbEntity:AcDbBlockReference","EntityHandle":"1D0","interactive":false},"geometry":{"type":"MultiLineString","coordinates":[[[-96.041858,41.089044],[-96.041858,41.089044],[-96.041858,41.089043],[-96.041858,41.089043],[-96.041858,41.089042],[-96.041859,41.089042],[-96.041859,41.089041],[-96.041859,41.089041],[-96.04186,41.08904],[-96.04186,41.08904],[-96.04186,41.089039],[-96.041861,41.089039],[-96.041861,41.089038],[-96.041862,41.089038],[-96.041863,41.089038],[-96.041863,41.089037],[-96.041864,41.089037],[-96.041865,41.089037],[-96.041865,41.089037],[-96.041866,41.089037],[-96.041867,41.089036],[-96.041867,41.089036],[-96.041868,41.089036],[-96.041869,41.089036]],[[-96.041869,41.089044],[-96.041869,41.089036]],[[-96.041869,41.089036],[-96.041868,41.089036]],[[-96.041868,41.089036],[-96.041868,41.089044]],[[-96.041868,41.089044],[-96.041869,41.089044]],[[-96.041858,41.089044],[-96.041858,41.089044],[-96.041858,41.089043],[-96.041858,41.089043],[-96.041858,41.089042],[-96.041859,41.089042],[-96.041859,41.089041],[-96.041859,41.089041],[-96.04186,41.08904],[-96.04186,41.08904],[-96.04186,41.089039],[-96.041861,41.089039],[-96.041861,41.089038],[-96.041862,41.089038],[-96.041863,41.089038],[-96.041863,41.089037],[-96.041864,41.089037],[-96.041865,41.089037],[-96.041865,41.089037],[-96.041866,41.089037],[-96.041867,41.089036],[-96.041867,41.089036],[-96.041868,41.089036],[-96.041869,41.089036]],[[-96.04187,41.089044],[-96.041869,41.089044]],[[-96.041869,41.089044],[-96.041869,41.089045]],[[-96.041869,41.089045],[-96.041869,41.089045]],[[-96.041869,41.089045],[-96.041869,41.089045]],[[-96.041869,41.089045],[-96.041869,41.089045]],[[-96.041869,41.089045],[-96.041869,41.089046]],[[-96.041869,41.089046],[-96.04187,41.089046]],[[-96.04187,41.089046],[-96.04187,41.089044]],[[-96.041858,41.089044],[-96.041857,41.089044]],[[-96.041857,41.089044],[-96.041857,41.089046]],[[-96.041857,41.089046],[-96.041858,41.089046]],[[-96.041858,41.089046],[-96.041858,41.089045]],[[-96.041858,41.089045],[-96.041858,41.089045]],[[-96.041858,41.089045],[-96.041858,41.089045]],[[-96.041858,41.089045],[-96.041858,41.089045]],[[-96.041858,41.089045],[-96.041858,41.089044]],[[-96.041869,41.089036],[-96.041868,41.089036]],[[-96.041869,41.089044],[-96.041869,41.089036]],[[-96.041868,41.089036],[-96.041868,41.089044]],[[-96.041869,41.089044],[-96.041868,41.089044]],[[-96.041858,41.089044],[-96.041858,41.089044],[-96.041858,41.089043],[-96.041858,41.089043],[-96.041858,41.089042],[-96.041859,41.089042],[-96.041859,41.089041],[-96.041859,41.089041],[-96.04186,41.08904],[-96.04186,41.08904],[-96.04186,41.089039],[-96.041861,41.089039],[-96.041861,41.089038],[-96.041862,41.089038],[-96.041863,41.089038],[-96.041863,41.089037],[-96.041864,41.089037],[-96.041865,41.089037],[-96.041865,41.089037],[-96.041866,41.089037],[-96.041867,41.089036],[-96.041867,41.089036],[-96.041868,41.089036],[-96.041869,41.089036]],[[-96.041858,41.089044],[-96.041858,41.089044],[-96.041858,41.089043],[-96.041858,41.089043],[-96.041858,41.089042],[-96.041859,41.089042],[-96.041859,41.089041],[-96.041859,41.089041],[-96.04186,41.08904],[-96.04186,41.08904],[-96.04186,41.089039],[-96.041861,41.089039],[-96.041861,41.089038],[-96.041862,41.089038],[-96.041863,41.089038],[-96.041863,41.089037],[-96.041864,41.089037],[-96.041865,41.089037],[-96.041865,41.089037],[-96.041866,41.089037],[-96.041867,41.089036],[-96.041867,41.089036],[-96.041868,41.089036],[-96.041869,41.089036]]]}},{"type":"Feature","properties":{"type":"drawing","level":"LEVEL 1","Layer":"A-WALL","source":"LEVEL_1.dxf","SubClasses":"AcDbEntity:AcDbLine","EntityHandle":"1D1","interactive":false},"geometry":{"type":"MultiLineString","coordinates":[[[-96.04206,41.089099],[-96.042041,41.089099]]]}},{"type":"Feature","properties":{"type":"drawing","level":"LEVEL 1","Layer":"A-WALL","source":"LEVEL_1.dxf","SubClasses":"AcDbEntity:AcDbLine","EntityHandle":"1D2","interactive":false},"geometry":{"type":"MultiLineString","coordinates":[[[-96.042041,41.089099],[-96.042041,41.089099]]]}},{"type":"Feature","properties":{"type":"drawing","level":"LEVEL 1","Layer":"A-WALL","source":"LEVEL_1.dxf","SubClasses":"AcDbEntity:AcDbLine","EntityHandle":"1D3","interactive":false},"geometry":{"type":"MultiLineString","coordinates":[[[-96.042041,41.089099],[-96.04206,41.089099]]]}},{"type":"Feature","properties":{"type":"drawing","level":"LEVEL 1","Layer":"A-WALL","source":"LEVEL_1.dxf","SubClasses":"AcDbEntity:AcDbLine","EntityHandle":"1D4","interactive":false},"geometry":{"type":"MultiLineString","coordinates":[[[-96.042018,41.089099],[-96.041978,41.089099]]]}},{"type":"Feature","properties":{"type":"drawing","level":"LEVEL 1","Layer":"A-WALL","source":"LEVEL_1.dxf","SubClasses":"AcDbEntity:AcDbLine","EntityHandle":"1D6","interactive":false},"geometry":{"type":"MultiLineString","coordinates":[[[-96.041978,41.089099],[-96.042018,41.089099]]]}},{"type":"Feature","properties":{"type":"drawing","level":"LEVEL 1","Layer":"A-WALL","source":"LEVEL_1.dxf","SubClasses":"AcDbEntity:AcDbLine","EntityHandle":"1D7","interactive":false},"geometry":{"type":"MultiLineString","coordinates":[[[-96.042018,41.089099],[-96.042018,41.089099]]]}},{"type":"Feature","properties":{"type":"drawing","level":"LEVEL 1","Layer":"A-WALL","source":"LEVEL_1.dxf","SubClasses":"AcDbEntity:AcDbLine","EntityHandle":"1D8","interactive":false},"geometry":{"type":"MultiLineString","coordinates":[[[-96.041978,41.089099],[-96.041978,41.089072]]]}},{"type":"Feature","properties":{"type":"drawing","level":"LEVEL 1","Layer":"A-WALL","source":"LEVEL_1.dxf","SubClasses":"AcDbEntity:AcDbLine","EntityHandle":"1D9","interactive":false},"geometry":{"type":"MultiLineString","coordinates":[[[-96.041978,41.089072],[-96.041978,41.08907]]]}},{"type":"Feature","properties":{"type":"drawing","level":"LEVEL 1","Layer":"A-WALL","source":"LEVEL_1.dxf","SubClasses":"AcDbEntity:AcDbLine","EntityHandle":"1DA","interactive":false},"geometry":{"type":"MultiLineString","coordinates":[[[-96.041978,41.08907],[-96.041978,41.08907]]]}},{"type":"Feature","properties":{"type":"drawing","level":"LEVEL 1","Layer":"A-WALL","source":"LEVEL_1.dxf","SubClasses":"AcDbEntity:AcDbLine","EntityHandle":"1DB","interactive":false},"geometry":{"type":"MultiLineString","coordinates":[[[-96.041978,41.08907],[-96.041978,41.089099]]]}},{"type":"Feature","properties":{"type":"drawing","level":"LEVEL 1","Layer":"A-WALL","source":"LEVEL_1.dxf","SubClasses":"AcDbEntity:AcDbLine","EntityHandle":"1DC","interactive":false},"geometry":{"type":"MultiLineString","coordinates":[[[-96.041978,41.089061],[-96.041978,41.089046]]]}},{"type":"Feature","properties":{"type":"drawing","level":"LEVEL 1","Layer":"A-WALL","source":"LEVEL_1.dxf","SubClasses":"AcDbEntity:AcDbLine","EntityHandle":"1DD","interactive":false},"geometry":{"type":"MultiLineString","coordinates":[[[-96.041978,41.089046],[-96.041978,41.089061]]]}},{"type":"Feature","properties":{"type":"drawing","level":"LEVEL 1","Layer":"A-WALL","source":"LEVEL_1.dxf","SubClasses":"AcDbEntity:AcDbLine","EntityHandle":"1DE","interactive":false},"geometry":{"type":"MultiLineString","coordinates":[[[-96.041978,41.089061],[-96.041978,41.089061]]]}},{"type":"Feature","properties":{"type":"drawing","level":"LEVEL 1","Layer":"A-WALL","source":"LEVEL_1.dxf","SubClasses":"AcDbEntity:AcDbLine","EntityHandle":"1DF","interactive":false},"geometry":{"type":"MultiLineString","coordinates":[[[-96.041978,41.089072],[-96.042026,41.089072]]]}},{"type":"Feature","properties":{"type":"drawing","level":"LEVEL 1","Layer":"A-WALL","source":"LEVEL_1.dxf","SubClasses":"AcDbEntity:AcDbLine","EntityHandle":"1E1","interactive":false},"geometry":{"type":"MultiLineString","coordinates":[[[-96.042026,41.089072],[-96.041978,41.089072]]]}},{"type":"Feature","properties":{"type":"drawing","level":"LEVEL 1","Layer":"A-WALL","source":"LEVEL_1.dxf","SubClasses":"AcDbEntity:AcDbLine","EntityHandle":"1E2","interactive":false},"geometry":{"type":"MultiLineString","coordinates":[[[-96.042026,41.089072],[-96.042026,41.089046]]]}},{"type":"Feature","properties":{"type":"drawing","level":"LEVEL 1","Layer":"A-WALL","source":"LEVEL_1.dxf","SubClasses":"AcDbEntity:AcDbLine","EntityHandle":"1E3","interactive":false},"geometry":{"type":"MultiLineString","coordinates":[[[-96.042026,41.089046],[-96.042026,41.089072]]]}},{"type":"Feature","properties":{"type":"drawing","level":"LEVEL 1","Layer":"A-DOOR","source":"LEVEL_1.dxf","SubClasses":"AcDbEntity:AcDbBlockReference","EntityHandle":"203","interactive":false},"geometry":{"type":"MultiLineString","coordinates":[[[-96.041967,41.08907],[-96.041967,41.089069],[-96.041967,41.089069],[-96.041967,41.089068],[-96.041967,41.089068],[-96.041968,41.089067],[-96.041968,41.089066],[-96.041968,41.089066],[-96.041969,41.089065],[-96.041969,41.089065],[-96.041969,41.089065],[-96.04197,41.089064],[-96.04197,41.089064],[-96.041971,41.089063],[-96.041972,41.089063],[-96.041972,41.089063],[-96.041973,41.089062],[-96.041974,41.089062],[-96.041974,41.089062],[-96.041975,41.089062],[-96.041976,41.089062],[-96.041976,41.089062],[-96.041977,41.089062],[-96.041978,41.089062]],[[-96.041978,41.08907],[-96.041967,41.08907]],[[-96.041967,41.08907],[-96.041967,41.089069]],[[-96.041967,41.089069],[-96.041978,41.089069]],[[-96.041978,41.089069],[-96.041978,41.08907]],[[-96.041967,41.08907],[-96.041967,41.089069],[-96.041967,41.089069],[-96.041967,41.089068],[-96.041967,41.089068],[-96.041968,41.089067],[-96.041968,41.089066],[-96.041968,41.089066],[-96.041969,41.089065],[-96.041969,41.089065],[-96.041969,41.089065],[-96.04197,41.089064],[-96.04197,41.089064],[-96.041971,41.089063],[-96.041972,41.089063],[-96.041972,41.089063],[-96.041973,41.089062],[-96.041974,41.089062],[-96.041974,41.089062],[-96.041975,41.089062],[-96.041976,41.089062],[-96.041976,41.089062],[-96.041977,41.089062],[-96.041978,41.089062]],[[-96.041978,41.08907],[-96.041978,41.08907]],[[-96.041978,41.08907],[-96.041978,41.08907]],[[-96.041979,41.08907],[-96.041978,41.08907]],[[-96.041979,41.08907],[-96.041979,41.08907]],[[-96.041978,41.08907],[-96.041979,41.08907]],[[-96.041978,41.08907],[-96.041978,41.08907]],[[-96.041978,41.08907],[-96.041978,41.08907]],[[-96.041978,41.08907],[-96.041978,41.08907]],[[-96.041978,41.089062],[-96.041978,41.089062]],[[-96.041978,41.089062],[-96.041978,41.089062]],[[-96.041979,41.089062],[-96.041978,41.089062]],[[-96.041979,41.089062],[-96.041979,41.089062]],[[-96.041978,41.089062],[-96.041979,41.089062]],[[-96.041978,41.089061],[-96.041978,41.089062]],[[-96.041978,41.089061],[-96.041978,41.089061]],[[-96.041978,41.089062],[-96.041978,41.089061]],[[-96.041967,41.08907],[-96.041967,41.089069]],[[-96.041978,41.08907],[-96.041967,41.08907]],[[-96.041967,41.089069],[-96.041978,41.089069]],[[-96.041978,41.08907],[-96.041978,41.089069]],[[-96.041967,41.08907],[-96.041967,41.089069],[-96.041967,41.089069],[-96.041967,41.089068],[-96.041967,41.089068],[-96.041968,41.089067],[-96.041968,41.089066],[-96.041968,41.089066],[-96.041969,41.089065],[-96.041969,41.089065],[-96.041969,41.089065],[-96.04197,41.089064],[-96.04197,41.089064],[-96.041971,41.089063],[-96.041972,41.089063],[-96.041972,41.089063],[-96.041973,41.089062],[-96.041974,41.089062],[-96.041974,41.089062],[-96.041975,41.089062],[-96.041976,41.089062],[-96.041976,41.089062],[-96.041977,41.089062],[-96.041978,41.089062]],[[-96.041967,41.08907],[-96.041967,41.089069],[-96.041967,41.089069],[-96.041967,41.089068],[-96.041967,41.089068],[-96.041968,41.089067],[-96.041968,41.089066],[-96.041968,41.089066],[-96.041969,41.089065],[-96.041969,41.089065],[-96.041969,41.089065],[-96.04197,41.089064],[-96.04197,41.089064],[-96.041971,41.089063],[-96.041972,41.089063],[-96.041972,41.089063],[-96.041973,41.089062],[-96.041974,41.089062],[-96.041974,41.089062],[-96.041975,41.089062],[-96.041976,41.089062],[-96.041976,41.089062],[-96.041977,41.089062],[-96.041978,41.089062]]]}},{"type":"Feature","properties":{"type":"drawing","level":"LEVEL 1","Layer":"A-DOOR","source":"LEVEL_1.dxf","SubClasses":"AcDbEntity:AcDbBlockReference","EntityHandle":"221","interactive":false},"geometry":{"type":"MultiLineString","coordinates":[[[-96.04204,41.089108],[-96.042039,41.089108],[-96.042038,41.089108],[-96.042038,41.089107],[-96.042037,41.089107],[-96.042036,41.089107],[-96.042035,41.089107],[-96.042035,41.089107],[-96.042034,41.089106],[-96.042034,41.089106],[-96.042033,41.089106],[-96.042032,41.089105],[-96.042032,41.089105],[-96.042031,41.089104],[-96.042031,41.089104],[-96.042031,41.089103],[-96.04203,41.089103],[-96.04203,41.089102],[-96.04203,41.089102],[-96.04203,41.089101],[-96.04203,41.089101],[-96.042029,41.0891],[-96.042029,41.089099]],[[-96.042029,41.089099],[-96.042029,41.0891],[-96.042029,41.089101],[-96.042029,41.089101],[-96.042029,41.089102],[-96.042029,41.089102],[-96.042029,41.089103],[-96.042028,41.089103],[-96.042028,41.089104],[-96.042027,41.089104],[-96.042027,41.089105],[-96.042026,41.089105],[-96.042026,41.089106],[-96.042025,41.089106],[-96.042025,41.089106],[-96.042024,41.089107],[-96.042023,41.089107],[-96.042023,41.089107],[-96.042022,41.089107],[-96.042021,41.089107],[-96.042021,41.089108],[-96.04202,41.089108],[-96.042019,41.089108]],[[-96.04204,41.0891],[-96.042041,41.0891]],[[-96.042041,41.0891],[-96.042041,41.089099]],[[-96.042041,41.089099],[-96.04204,41.089099]],[[-96.04204,41.089099],[-96.04204,41.089099]],[[-96.04204,41.089099],[-96.04204,41.089099]],[[-96.04204,41.089099],[-96.04204,41.089099]],[[-96.04204,41.089099],[-96.04204,41.089099]],[[-96.04204,41.089099],[-96.04204,41.0891]],[[-96.042018,41.0891],[-96.042019,41.0891]],[[-96.042019,41.0891],[-96.042019,41.089099]],[[-96.042019,41.089099],[-96.042019,41.089099]],[[-96.042019,41.089099],[-96.042019,41.089099]],[[-96.042019,41.089099],[-96.042019,41.089099]],[[-96.042019,41.089099],[-96.042019,41.089099]],[[-96.042019,41.089099],[-96.042018,41.089099]],[[-96.042018,41.089099],[-96.042018,41.0891]],[[-96.042019,41.089108],[-96.042019,41.089108]],[[-96.042019,41.089108],[-96.042019,41.0891]],[[-96.042019,41.0891],[-96.042019,41.0891]],[[-96.042019,41.0891],[-96.042019,41.089108]],[[-96.04204,41.0891],[-96.04204,41.089108]],[[-96.04204,41.089108],[-96.04204,41.089108]],[[-96.04204,41.089108],[-96.04204,41.0891]],[[-96.04204,41.0891],[-96.04204,41.0891]]]}}]}