{
  "features": [
    {
      "geometry": {
        "coordinates": [
          -95.572152526915275, 
          42.756863782452776
        ], 
        "type": "Point"
      }, 
      "properties": {
        "Level": "LEVEL 3", 
        "RevitId": 5677887, 
        "Type": "Stair", 
        "Revit_UniqueId": "1f9d7a8f-f265-4728-a925-62dafe2a6a5e-0056a33f", 
        "Name": "Stair", 
        "Family": "Assembled Stair", 
        "interactive": false, 
        "Element": "Stair", 
        "Building": "Main/Administration", 
        "kind": "stair"
      }, 
      "type": "Feature"
    }, 
    {
      "geometry": {
        "coordinates": [
          -95.572142410078740, 
          42.756881861132129
        ], 
        "type": "Point"
      }, 
      "properties": {
        "Level": "LEVEL 3", 
        "RevitId": 5677936, 
        "Type": "Stair", 
        "Revit_UniqueId": "1f9d7a8f-f265-4728-a925-62dafe2a6a5e-0056a370", 
        "Name": "Stair", 
        "Family": "Assembled Stair", 
        "interactive": false, 
        "Element": "Stair", 
        "Building": "Main/Administration", 
        "kind": "stair"
      }, 
      "type": "Feature"
    }, 
    {
      "geometry": {
        "coordinates": [
          -95.572154428203817, 
          42.756875679813447
        ], 
        "type": "Point"
      }, 
      "properties": {
        "Level": "LEVEL 3", 
        "RevitId": 5677888, 
        "Type": "Stair", 
        "Revit_UniqueId": "1f9d7a8f-f265-4728-a925-62dafe2a6a5e-0056a340", 
        "Name": "Stair", 
        "Family": "Non-Monolithic Run", 
        "interactive": false, 
        "Element": "Stair", 
        "Building": "Main/Administration", 
        "kind": "stair"
      }, 
      "type": "Feature"
    }, 
    {
      "geometry": {
        "coordinates": [
          -95.572174400637039, 
          42.756853375788175
        ], 
        "type": "Point"
      }, 
      "properties": {
        "Level": "LEVEL 3", 
        "RevitId": 5677892, 
        "Type": "Stair", 
        "Revit_UniqueId": "1f9d7a8f-f265-4728-a925-62dafe2a6a5e-0056a344", 
        "Name": "Stair", 
        "Family": "Non-Monolithic Run", 
        "interactive": false, 
        "Element": "Stair", 
        "Building": "Main/Administration", 
        "kind": "stair"
      }, 
      "type": "Feature"
    }, 
    {
      "geometry": {
        "coordinates": [
          -95.572156966202542, 
          42.756839522454740
        ], 
        "type": "Point"
      }, 
      "properties": {
        "Level": "LEVEL 3", 
        "RevitId": 5677918, 
        "Type": "Stair", 
        "Revit_UniqueId": "1f9d7a8f-f265-4728-a925-62dafe2a6a5e-0056a35e", 
        "Name": "Stair", 
        "Family": "Non-Monolithic Run", 
        "interactive": false, 
        "Element": "Stair", 
        "Building": "Main/Administration", 
        "kind": "stair"
      }, 
      "type": "Feature"
    }, 
    {
      "geometry": {
        "coordinates": [
          -95.572142228895260, 
          42.756881861132129
        ], 
        "type": "Point"
      }, 
      "properties": {
        "Level": "LEVEL 3", 
        "RevitId": 5677937, 
        "Type": "Stair", 
        "Revit_UniqueId": "1f9d7a8f-f265-4728-a925-62dafe2a6a5e-0056a371", 
        "Name": "Stair", 
        "Family": "Non-Monolithic Run", 
        "interactive": false, 
        "Element": "Stair", 
        "Building": "Main/Administration", 
        "kind": "stair"
      }, 
      "type": "Feature"
    }, 
    {
      "geometry": {
        "coordinates": [
          -95.572165981944877, 
          42.756863592134330
        ], 
        "type": "Point"
      }, 
      "properties": {
        "Level": "LEVEL 3", 
        "RevitId": 5677941, 
        "Type": "Stair", 
        "Revit_UniqueId": "1f9d7a8f-f265-4728-a925-62dafe2a6a5e-0056a375", 
        "Name": "Stair", 
        "Family": "Non-Monolithic Run", 
        "interactive": false, 
        "Element": "Stair", 
        "Building": "Main/Administration", 
        "kind": "stair"
      }, 
      "type": "Feature"
    }, 
    {
      "geometry": {
        "coordinates": [
          -95.572146481812766, 
          42.756845703773422
        ], 
        "type": "Point"
      }, 
      "properties": {
        "Level": "LEVEL 3", 
        "RevitId": 5677967, 
        "Type": "Stair", 
        "Revit_UniqueId": "1f9d7a8f-f265-4728-a925-62dafe2a6a5e-0056a38f", 
        "Name": "Stair", 
        "Family": "Non-Monolithic Run", 
        "interactive": false, 
        "Element": "Stair", 
        "Building": "Main/Administration", 
        "kind": "stair"
      }, 
      "type": "Feature"
    }, 
    {
      "geometry": {
        "coordinates": [
          -95.572174400637039, 
          42.756873579542756
        ], 
        "type": "Point"
      }, 
      "properties": {
        "Level": "LEVEL 3", 
        "RevitId": 5677894, 
        "Type": "Stair", 
        "Revit_UniqueId": "1f9d7a8f-f265-4728-a925-62dafe2a6a5e-0056a346", 
        "Name": "Stair", 
        "Family": "Non-Monolithic Landing", 
        "interactive": false, 
        "Element": "Stair", 
        "Building": "Main/Administration", 
        "kind": "stair"
      }, 
      "type": "Feature"
    }, 
    {
      "geometry": {
        "coordinates": [
          -95.572174400637039, 
          42.756839522454740
        ], 
        "type": "Point"
      }, 
      "properties": {
        "Level": "LEVEL 3", 
        "RevitId": 5677920, 
        "Type": "Stair", 
        "Revit_UniqueId": "1f9d7a8f-f265-4728-a925-62dafe2a6a5e-0056a360", 
        "Name": "Stair", 
        "Family": "Non-Monolithic Landing", 
        "interactive": false, 
        "Element": "Stair", 
        "Building": "Main/Administration", 
        "kind": "stair"
      }, 
      "type": "Feature"
    }, 
    {
      "geometry": {
        "coordinates": [
          -95.572164219543296, 
          42.756880810996783
        ], 
        "type": "Point"
      }, 
      "properties": {
        "Level": "LEVEL 3", 
        "RevitId": 5677943, 
        "Type": "Stair", 
        "Revit_UniqueId": "1f9d7a8f-f265-4728-a925-62dafe2a6a5e-0056a377", 
        "Name": "Stair", 
        "Family": "Non-Monolithic Landing", 
        "interactive": false, 
        "Element": "Stair", 
        "Building": "Main/Administration", 
        "kind": "stair"
      }, 
      "type": "Feature"
    }, 
    {
      "geometry": {
        "coordinates": [
          -95.572165527518095, 
          42.756846592207538
        ], 
        "type": "Point"
      }, 
      "properties": {
        "Level": "LEVEL 3", 
        "RevitId": 5677969, 
        "Type": "Stair", 
        "Revit_UniqueId": "1f9d7a8f-f265-4728-a925-62dafe2a6a5e-0056a391", 
        "Name": "Stair", 
        "Family": "Non-Monolithic Landing", 
        "interactive": false, 
        "Element": "Stair", 
        "Building": "Main/Administration", 
        "kind": "stair"
      }, 
      "type": "Feature"
    }
  ], 
  "type": "FeatureCollection", 
  "name": "Main/Administration - LEVEL 3 Stairs"
}