{
  "features": [
    {
      "geometry": {
        "coordinates": [
          -95.572152526915275, 
          42.756863782452776
        ], 
        "type": "Point"
      }, 
      "properties": {
        "Level": "LEVEL 2", 
        "RevitId": 5662478, 
        "Type": "Stair", 
        "Revit_UniqueId": "dad237cc-6968-4188-9f55-ae8359a05182-0056670e", 
        "Name": "Stair", 
        "Family": "Assembled Stair", 
        "interactive": false, 
        "Element": "Stair", 
        "Building": "Main/Administration", 
        "kind": "stair"
      }, 
      "type": "Feature"
    }, 
    {
      "geometry": {
        "coordinates": [
          -95.571998248440480, 
          42.756727394934906
        ], 
        "type": "Point"
      }, 
      "properties": {
        "Level": "LEVEL 2", 
        "RevitId": 5669318, 
        "Type": "Stair", 
        "Revit_UniqueId": "dad237cc-6968-4188-9f55-ae8359a05182-005681c6", 
        "Name": "Stair", 
        "Family": "Assembled Stair", 
        "interactive": false, 
        "Element": "Stair", 
        "Building": "Main/Administration", 
        "kind": "stair"
      }, 
      "type": "Feature"
    }, 
    {
      "geometry": {
        "coordinates": [
          -95.571998248440480, 
          42.756714116546625
        ], 
        "type": "Point"
      }, 
      "properties": {
        "Level": "LEVEL 2", 
        "RevitId": 5669511, 
        "Type": "Stair", 
        "Revit_UniqueId": "dad237cc-6968-4188-9f55-ae8359a05182-00568287", 
        "Name": "Stair", 
        "Family": "Assembled Stair", 
        "interactive": false, 
        "Element": "Stair", 
        "Building": "Main/Administration", 
        "kind": "stair"
      }, 
      "type": "Feature"
    }, 
    {
      "geometry": {
        "coordinates": [
          -95.572142410078740, 
          42.756881861132129
        ], 
        "type": "Point"
      }, 
      "properties": {
        "Level": "LEVEL 2", 
        "RevitId": 5677887, 
        "Type": "Stair", 
        "Revit_UniqueId": "1f9d7a8f-f265-4728-a925-62dafe2a6a5e-0056a33f", 
        "Name": "Stair", 
        "Family": "Assembled Stair", 
        "interactive": false, 
        "Element": "Stair", 
        "Building": "Main/Administration", 
        "kind": "stair"
      }, 
      "type": "Feature"
    }, 
    {
      "geometry": {
        "coordinates": [
          -95.572154428203817, 
          42.756875679813447
        ], 
        "type": "Point"
      }, 
      "properties": {
        "Level": "LEVEL 2", 
        "RevitId": 5662743, 
        "Type": "Stair", 
        "Revit_UniqueId": "dad237cc-6968-4188-9f55-ae8359a05182-00566817", 
        "Name": "Stair", 
        "Family": "Non-Monolithic Run", 
        "interactive": false, 
        "Element": "Stair", 
        "Building": "Main/Administration", 
        "kind": "stair"
      }, 
      "type": "Feature"
    }, 
    {
      "geometry": {
        "coordinates": [
          -95.572174400637039, 
          42.756853375788175
        ], 
        "type": "Point"
      }, 
      "properties": {
        "Level": "LEVEL 2", 
        "RevitId": 5662843, 
        "Type": "Stair", 
        "Revit_UniqueId": "dad237cc-6968-4188-9f55-ae8359a05182-0056687b", 
        "Name": "Stair", 
        "Family": "Non-Monolithic Run", 
        "interactive": false, 
        "Element": "Stair", 
        "Building": "Main/Administration", 
        "kind": "stair"
      }, 
      "type": "Feature"
    }, 
    {
      "geometry": {
        "coordinates": [
          -95.572156966202542, 
          42.756839522454740
        ], 
        "type": "Point"
      }, 
      "properties": {
        "Level": "LEVEL 2", 
        "RevitId": 5667280, 
        "Type": "Stair", 
        "Revit_UniqueId": "dad237cc-6968-4188-9f55-ae8359a05182-005679d0", 
        "Name": "Stair", 
        "Family": "Non-Monolithic Run", 
        "interactive": false, 
        "Element": "Stair", 
        "Building": "Main/Administration", 
        "kind": "stair"
      }, 
      "type": "Feature"
    }, 
    {
      "geometry": {
        "coordinates": [
          -95.572014072463730, 
          42.756721900429412
        ], 
        "type": "Point"
      }, 
      "properties": {
        "Level": "LEVEL 2", 
        "RevitId": 5669353, 
        "Type": "Stair", 
        "Revit_UniqueId": "dad237cc-6968-4188-9f55-ae8359a05182-005681e9", 
        "Name": "Stair", 
        "Family": "Non-Monolithic Run", 
        "interactive": false, 
        "Element": "Stair", 
        "Building": "Main/Administration", 
        "kind": "stair"
      }, 
      "type": "Feature"
    }, 
    {
      "geometry": {
        "coordinates": [
          -95.572014072463730, 
          42.756708622041131
        ], 
        "type": "Point"
      }, 
      "properties": {
        "Level": "LEVEL 2", 
        "RevitId": 5669512, 
        "Type": "Stair", 
        "Revit_UniqueId": "dad237cc-6968-4188-9f55-ae8359a05182-00568288", 
        "Name": "Stair", 
        "Family": "Non-Monolithic Run", 
        "interactive": false, 
        "Element": "Stair", 
        "Building": "Main/Administration", 
        "kind": "stair"
      }, 
      "type": "Feature"
    }, 
    {
      "geometry": {
        "coordinates": [
          -95.572142228895260, 
          42.756881861132129
        ], 
        "type": "Point"
      }, 
      "properties": {
        "Level": "LEVEL 2", 
        "RevitId": 5677888, 
        "Type": "Stair", 
        "Revit_UniqueId": "1f9d7a8f-f265-4728-a925-62dafe2a6a5e-0056a340", 
        "Name": "Stair", 
        "Family": "Non-Monolithic Run", 
        "interactive": false, 
        "Element": "Stair", 
        "Building": "Main/Administration", 
        "kind": "stair"
      }, 
      "type": "Feature"
    }, 
    {
      "geometry": {
        "coordinates": [
          -95.572165981944877, 
          42.756863592134330
        ], 
        "type": "Point"
      }, 
      "properties": {
        "Level": "LEVEL 2", 
        "RevitId": 5677892, 
        "Type": "Stair", 
        "Revit_UniqueId": "1f9d7a8f-f265-4728-a925-62dafe2a6a5e-0056a344", 
        "Name": "Stair", 
        "Family": "Non-Monolithic Run", 
        "interactive": false, 
        "Element": "Stair", 
        "Building": "Main/Administration", 
        "kind": "stair"
      }, 
      "type": "Feature"
    }, 
    {
      "geometry": {
        "coordinates": [
          -95.572146481812766, 
          42.756845703773422
        ], 
        "type": "Point"
      }, 
      "properties": {
        "Level": "LEVEL 2", 
        "RevitId": 5677918, 
        "Type": "Stair", 
        "Revit_UniqueId": "1f9d7a8f-f265-4728-a925-62dafe2a6a5e-0056a35e", 
        "Name": "Stair", 
        "Family": "Non-Monolithic Run", 
        "interactive": false, 
        "Element": "Stair", 
        "Building": "Main/Administration", 
        "kind": "stair"
      }, 
      "type": "Feature"
    }, 
    {
      "geometry": {
        "coordinates": [
          -95.572174400637039, 
          42.756873579542756
        ], 
        "type": "Point"
      }, 
      "properties": {
        "Level": "LEVEL 2", 
        "RevitId": 5662845, 
        "Type": "Stair", 
        "Revit_UniqueId": "dad237cc-6968-4188-9f55-ae8359a05182-0056687d", 
        "Name": "Stair", 
        "Family": "Non-Monolithic Landing", 
        "interactive": false, 
        "Element": "Stair", 
        "Building": "Main/Administration", 
        "kind": "stair"
      }, 
      "type": "Feature"
    }, 
    {
      "geometry": {
        "coordinates": [
          -95.572174400637039, 
          42.756839522454740
        ], 
        "type": "Point"
      }, 
      "properties": {
        "Level": "LEVEL 2", 
        "RevitId": 5667282, 
        "Type": "Stair", 
        "Revit_UniqueId": "dad237cc-6968-4188-9f55-ae8359a05182-005679d2", 
        "Name": "Stair", 
        "Family": "Non-Monolithic Landing", 
        "interactive": false, 
        "Element": "Stair", 
        "Building": "Main/Administration", 
        "kind": "stair"
      }, 
      "type": "Feature"
    }, 
    {
      "geometry": {
        "coordinates": [
          -95.572164219543296, 
          42.756880810996783
        ], 
        "type": "Point"
      }, 
      "properties": {
        "Level": "LEVEL 2", 
        "RevitId": 5677894, 
        "Type": "Stair", 
        "Revit_UniqueId": "1f9d7a8f-f265-4728-a925-62dafe2a6a5e-0056a346", 
        "Name": "Stair", 
        "Family": "Non-Monolithic Landing", 
        "interactive": false, 
        "Element": "Stair", 
        "Building": "Main/Administration", 
        "kind": "stair"
      }, 
      "type": "Feature"
    }, 
    {
      "geometry": {
        "coordinates": [
          -95.572165527518095, 
          42.756846592207538
        ], 
        "type": "Point"
      }, 
      "properties": {
        "Level": "LEVEL 2", 
        "RevitId": 5677920, 
        "Type": "Stair", 
        "Revit_UniqueId": "1f9d7a8f-f265-4728-a925-62dafe2a6a5e-0056a360", 
        "Name": "Stair", 
        "Family": "Non-Monolithic Landing", 
        "interactive": false, 
        "Element": "Stair", 
        "Building": "Main/Administration", 
        "kind": "stair"
      }, 
      "type": "Feature"
    }
  ], 
  "type": "FeatureCollection", 
  "name": "Main/Administration - LEVEL 2 Stairs"
}