{
  "features": [
    {
      "geometry": {
        "coordinates": [
          -95.572152526915275, 
          42.756863782452776
        ], 
        "type": "Point"
      }, 
      "properties": {
        "Level": "LEVEL 4", 
        "RevitId": 5677936, 
        "Type": "Stair", 
        "Revit_UniqueId": "1f9d7a8f-f265-4728-a925-62dafe2a6a5e-0056a370", 
        "Name": "Stair", 
        "Family": "Assembled Stair", 
        "interactive": false, 
        "Element": "Stair", 
        "Building": "Main/Administration", 
        "kind": "stair"
      }, 
      "type": "Feature"
    }, 
    {
      "geometry": {
        "coordinates": [
          -95.572154428203817, 
          42.756875679813447
        ], 
        "type": "Point"
      }, 
      "properties": {
        "Level": "LEVEL 4", 
        "RevitId": 5677937, 
        "Type": "Stair", 
        "Revit_UniqueId": "1f9d7a8f-f265-4728-a925-62dafe2a6a5e-0056a371", 
        "Name": "Stair", 
        "Family": "Non-Monolithic Run", 
        "interactive": false, 
        "Element": "Stair", 
        "Building": "Main/Administration", 
        "kind": "stair"
      }, 
      "type": "Feature"
    }, 
    {
      "geometry": {
        "coordinates": [
          -95.572174400637039, 
          42.756853375788175
        ], 
        "type": "Point"
      }, 
      "properties": {
        "Level": "LEVEL 4", 
        "RevitId": 5677941, 
        "Type": "Stair", 
        "Revit_UniqueId": "1f9d7a8f-f265-4728-a925-62dafe2a6a5e-0056a375", 
        "Name": "Stair", 
        "Family": "Non-Monolithic Run", 
        "interactive": false, 
        "Element": "Stair", 
        "Building": "Main/Administration", 
        "kind": "stair"
      }, 
      "type": "Feature"
    }, 
    {
      "geometry": {
        "coordinates": [
          -95.572156966202542, 
          42.756839522454740
        ], 
        "type": "Point"
      }, 
      "properties": {
        "Level": "LEVEL 4", 
        "RevitId": 5677967, 
        "Type": "Stair", 
        "Revit_UniqueId": "1f9d7a8f-f265-4728-a925-62dafe2a6a5e-0056a38f", 
        "Name": "Stair", 
        "Family": "Non-Monolithic Run", 
        "interactive": false, 
        "Element": "Stair", 
        "Building": "Main/Administration", 
        "kind": "stair"
      }, 
      "type": "Feature"
    }, 
    {
      "geometry": {
        "coordinates": [
          -95.572174400637039, 
          42.756873579542756
        ], 
        "type": "Point"
      }, 
      "properties": {
        "Level": "LEVEL 4", 
        "RevitId": 5677943, 
        "Type": "Stair", 
        "Revit_UniqueId": "1f9d7a8f-f265-4728-a925-62dafe2a6a5e-0056a377", 
        "Name": "Stair", 
        "Family": "Non-Monolithic Landing", 
        "interactive": false, 
        "Element": "Stair", 
        "Building": "Main/Administration", 
        "kind": "stair"
      }, 
      "type": "Feature"
    }, 
    {
      "geometry": {
        "coordinates": [
          -95.572174400637039, 
          42.756839522454740
        ], 
        "type": "Point"
      }, 
      "properties": {
        "Level": "LEVEL 4", 
        "RevitId": 5677969, 
        "Type": "Stair", 
        "Revit_UniqueId": "1f9d7a8f-f265-4728-a925-62dafe2a6a5e-0056a391", 
        "Name": "Stair", 
        "Family": "Non-Monolithic Landing", 
        "interactive": false, 
        "Element": "Stair", 
        "Building": "Main/Administration", 
        "kind": "stair"
      }, 
      "type": "Feature"
    }
  ], 
  "type": "FeatureCollection", 
  "name": "Main/Administration - LEVEL 4 Stairs"
}