{
  "features": [
    {
      "geometry": {
        "coordinates": [
          -71.032968612038246, 
          42.212698786180916
        ], 
        "type": "Point"
      }, 
      "properties": {
        "Level": "LEVEL 1", 
        "RevitId": 5662478, 
        "Type": "Stair", 
        "Revit_UniqueId": "dad237cc-6968-4188-9f55-ae8359a05182-0056670e", 
        "Name": "Stair", 
        "Family": "Assembled Stair", 
        "interactive": false, 
        "Element": "Stair", 
        "Building": "Main/Administration", 
        "kind": "stair"
      }, 
      "type": "Feature"
    }, 
    {
      "geometry": {
        "coordinates": [
          -71.033021191757925, 
          42.212366971738156
        ], 
        "type": "Point"
      }, 
      "properties": {
        "Level": "LEVEL 1", 
        "RevitId": 5664329, 
        "Type": "Stair", 
        "Revit_UniqueId": "dad237cc-6968-4188-9f55-ae8359a05182-00566e49", 
        "Name": "Stair", 
        "Family": "Assembled Stair", 
        "interactive": false, 
        "Element": "Stair", 
        "Building": "Main/Administration", 
        "kind": "stair"
      }, 
      "type": "Feature"
    }, 
    {
      "geometry": {
        "coordinates": [
          -71.032806115302265, 
          42.212366971738156
        ], 
        "type": "Point"
      }, 
      "properties": {
        "Level": "LEVEL 1", 
        "RevitId": 5664525, 
        "Type": "Stair", 
        "Revit_UniqueId": "dad237cc-6968-4188-9f55-ae8359a05182-00566f0d", 
        "Name": "Stair", 
        "Family": "Assembled Stair", 
        "interactive": false, 
        "Element": "Stair", 
        "Building": "Main/Administration", 
        "kind": "stair"
      }, 
      "type": "Feature"
    }, 
    {
      "geometry": {
        "coordinates": [
          -71.032913776893650, 
          42.212300568716309
        ], 
        "type": "Point"
      }, 
      "properties": {
        "Level": "LEVEL 1", 
        "RevitId": 5664610, 
        "Type": "Stair", 
        "Revit_UniqueId": "dad237cc-6968-4188-9f55-ae8359a05182-00566f62", 
        "Name": "Stair", 
        "Family": "Assembled Stair", 
        "interactive": false, 
        "Element": "Stair", 
        "Building": "Main/Administration", 
        "kind": "stair"
      }, 
      "type": "Feature"
    }, 
    {
      "geometry": {
        "coordinates": [
          -71.032825698979394, 
          42.212544319983692
        ], 
        "type": "Point"
      }, 
      "properties": {
        "Level": "LEVEL 1", 
        "RevitId": 5669318, 
        "Type": "Stair", 
        "Revit_UniqueId": "dad237cc-6968-4188-9f55-ae8359a05182-005681c6", 
        "Name": "Stair", 
        "Family": "Assembled Stair", 
        "interactive": false, 
        "Element": "Stair", 
        "Building": "Main/Administration", 
        "kind": "stair"
      }, 
      "type": "Feature"
    }, 
    {
      "geometry": {
        "coordinates": [
          -71.032825698979394, 
          42.212531041595412
        ], 
        "type": "Point"
      }, 
      "properties": {
        "Level": "LEVEL 1", 
        "RevitId": 5669511, 
        "Type": "Stair", 
        "Revit_UniqueId": "dad237cc-6968-4188-9f55-ae8359a05182-00568287", 
        "Name": "Stair", 
        "Family": "Assembled Stair", 
        "interactive": false, 
        "Element": "Stair", 
        "Building": "Main/Administration", 
        "kind": "stair"
      }, 
      "type": "Feature"
    }, 
    {
      "geometry": {
        "coordinates": [
          -71.032968432423985, 
          42.212698786180916
        ], 
        "type": "Point"
      }, 
      "properties": {
        "Level": "LEVEL 1", 
        "RevitId": 5662743, 
        "Type": "Stair", 
        "Revit_UniqueId": "dad237cc-6968-4188-9f55-ae8359a05182-00566817", 
        "Name": "Stair", 
        "Family": "Non-Monolithic Run", 
        "interactive": false, 
        "Element": "Stair", 
        "Building": "Main/Administration", 
        "kind": "stair"
      }, 
      "type": "Feature"
    }, 
    {
      "geometry": {
        "coordinates": [
          -71.032991979749198, 
          42.212680517183117
        ], 
        "type": "Point"
      }, 
      "properties": {
        "Level": "LEVEL 1", 
        "RevitId": 5662843, 
        "Type": "Stair", 
        "Revit_UniqueId": "dad237cc-6968-4188-9f55-ae8359a05182-0056687b", 
        "Name": "Stair", 
        "Family": "Non-Monolithic Run", 
        "interactive": false, 
        "Element": "Stair", 
        "Building": "Main/Administration", 
        "kind": "stair"
      }, 
      "type": "Feature"
    }, 
    {
      "geometry": {
        "coordinates": [
          -71.033034792285278, 
          42.212350488221666
        ], 
        "type": "Point"
      }, 
      "properties": {
        "Level": "LEVEL 1", 
        "RevitId": 5664388, 
        "Type": "Stair", 
        "Revit_UniqueId": "dad237cc-6968-4188-9f55-ae8359a05182-00566e84", 
        "Name": "Stair", 
        "Family": "Non-Monolithic Run", 
        "interactive": false, 
        "Element": "Stair", 
        "Building": "Main/Administration", 
        "kind": "stair"
      }, 
      "type": "Feature"
    }, 
    {
      "geometry": {
        "coordinates": [
          -71.032820102208234, 
          42.212350488221666
        ], 
        "type": "Point"
      }, 
      "properties": {
        "Level": "LEVEL 1", 
        "RevitId": 5664526, 
        "Type": "Stair", 
        "Revit_UniqueId": "dad237cc-6968-4188-9f55-ae8359a05182-00566f0e", 
        "Name": "Stair", 
        "Family": "Non-Monolithic Run", 
        "interactive": false, 
        "Element": "Stair", 
        "Building": "Main/Administration", 
        "kind": "stair"
      }, 
      "type": "Feature"
    }, 
    {
      "geometry": {
        "coordinates": [
          -71.032913776893650, 
          42.212300711802392
        ], 
        "type": "Point"
      }, 
      "properties": {
        "Level": "LEVEL 1", 
        "RevitId": 5664611, 
        "Type": "Stair", 
        "Revit_UniqueId": "dad237cc-6968-4188-9f55-ae8359a05182-00566f63", 
        "Name": "Stair", 
        "Family": "Non-Monolithic Run", 
        "interactive": false, 
        "Element": "Stair", 
        "Building": "Main/Administration", 
        "kind": "stair"
      }, 
      "type": "Feature"
    }, 
    {
      "geometry": {
        "coordinates": [
          -71.032972648507112, 
          42.212662628822208
        ], 
        "type": "Point"
      }, 
      "properties": {
        "Level": "LEVEL 1", 
        "RevitId": 5667280, 
        "Type": "Stair", 
        "Revit_UniqueId": "dad237cc-6968-4188-9f55-ae8359a05182-005679d0", 
        "Name": "Stair", 
        "Family": "Non-Monolithic Run", 
        "interactive": false, 
        "Element": "Stair", 
        "Building": "Main/Administration", 
        "kind": "stair"
      }, 
      "type": "Feature"
    }, 
    {
      "geometry": {
        "coordinates": [
          -71.032825892168702, 
          42.212544319983692
        ], 
        "type": "Point"
      }, 
      "properties": {
        "Level": "LEVEL 1", 
        "RevitId": 5669353, 
        "Type": "Stair", 
        "Revit_UniqueId": "dad237cc-6968-4188-9f55-ae8359a05182-005681e9", 
        "Name": "Stair", 
        "Family": "Non-Monolithic Run", 
        "interactive": false, 
        "Element": "Stair", 
        "Building": "Main/Administration", 
        "kind": "stair"
      }, 
      "type": "Feature"
    }, 
    {
      "geometry": {
        "coordinates": [
          -71.032841385951272, 
          42.212525547089918
        ], 
        "type": "Point"
      }, 
      "properties": {
        "Level": "LEVEL 1", 
        "RevitId": 5669512, 
        "Type": "Stair", 
        "Revit_UniqueId": "dad237cc-6968-4188-9f55-ae8359a05182-00568288", 
        "Name": "Stair", 
        "Family": "Non-Monolithic Run", 
        "interactive": false, 
        "Element": "Stair", 
        "Building": "Main/Administration", 
        "kind": "stair"
      }, 
      "type": "Feature"
    }, 
    {
      "geometry": {
        "coordinates": [
          -71.032990232611724, 
          42.212697736045570
        ], 
        "type": "Point"
      }, 
      "properties": {
        "Level": "LEVEL 1", 
        "RevitId": 5662845, 
        "Type": "Stair", 
        "Revit_UniqueId": "dad237cc-6968-4188-9f55-ae8359a05182-0056687d", 
        "Name": "Stair", 
        "Family": "Non-Monolithic Landing", 
        "interactive": false, 
        "Element": "Stair", 
        "Building": "Main/Administration", 
        "kind": "stair"
      }, 
      "type": "Feature"
    }, 
    {
      "geometry": {
        "coordinates": [
          -71.032991529258183, 
          42.212663517256324
        ], 
        "type": "Point"
      }, 
      "properties": {
        "Level": "LEVEL 1", 
        "RevitId": 5667282, 
        "Type": "Stair", 
        "Revit_UniqueId": "dad237cc-6968-4188-9f55-ae8359a05182-005679d2", 
        "Name": "Stair", 
        "Family": "Non-Monolithic Landing", 
        "interactive": false, 
        "Element": "Stair", 
        "Building": "Main/Administration", 
        "kind": "stair"
      }, 
      "type": "Feature"
    }
  ], 
  "type": "FeatureCollection", 
  "name": "Main/Administration - LEVEL 1 Stairs"
}