{
  "features": [
    {
      "geometry": {
        "coordinates": [
          [
            [
              -71.032950252643715, 
              42.212601831303907
            ], 
            [
              -71.032950252643715, 
              42.212653242375318
            ], 
            [
              -71.032980636477305, 
              42.212653242375318
            ], 
            [
              -71.032982474148127, 
              42.212651228397370
            ], 
            [
              -71.032993954228417, 
              42.212638646911991
            ], 
            [
              -71.033058560530819, 
              42.212638646911991
            ], 
            [
              -71.033058560530819, 
              42.212601831303907
            ], 
            [
              -71.032950252643715, 
              42.212601831303907
            ]
          ]
        ], 
        "type": "Polygon"
      }, 
      "properties": {
        "Seat Count": "", 
        "Number": "010B", 
        "NCES_Type": "General Storage", 
        "Workstations": "", 
        "Element": "Room", 
        "RevitId": 5892375, 
        "occupancyStatus": "Occupied", 
        "Building": "Main/Administration", 
        "Area_SF": 391.88999999999999, 
        "Name": "STORAGE", 
        "NCES_Occupancy Status": "", 
        "NCES_Department": "Administration", 
        "Level": "BASEMENT", 
        "Revit_UniqueId": "b612191a-e846-414b-aff5-ef84177b204e-0059db68"
      }, 
      "type": "Feature"
    }, 
    {
      "geometry": {
        "coordinates": [
          [
            [
              -71.032950252643715, 
              42.212560803500175
            ], 
            [
              -71.032950252643715, 
              42.212580319524342
            ], 
            [
              -71.033058560530819, 
              42.212580319524342
            ], 
            [
              -71.033058560530819, 
              42.212571927256455
            ], 
            [
              -71.033058560530819, 
              42.212522370818775
            ], 
            [
              -71.033054851296086, 
              42.212523715588091
            ], 
            [
              -71.032950252643715, 
              42.212523715588091
            ], 
            [
              -71.032950252643715, 
              42.212560803500175
            ]
          ]
        ], 
        "type": "Polygon"
      }, 
      "properties": {
        "Seat Count": "", 
        "Number": "010C", 
        "NCES_Type": "Break Room", 
        "Workstations": "", 
        "Element": "Room", 
        "RevitId": 5892377, 
        "occupancyStatus": "Occupied", 
        "Building": "Main/Administration", 
        "Area_SF": 662.01999999999998, 
        "Name": "STAFF BREAK ROOM", 
        "NCES_Occupancy Status": "", 
        "NCES_Department": "Administration", 
        "Level": "BASEMENT", 
        "Revit_UniqueId": "b612191a-e846-414b-aff5-ef84177b204e-0059db6b"
      }, 
      "type": "Feature"
    }, 
    {
      "geometry": {
        "coordinates": [
          [
            [
              -71.032955121389591, 
              42.212708591485203
            ], 
            [
              -71.032957315329156, 
              42.212708591485203
            ], 
            [
              -71.032957315329156, 
              42.212690276466894
            ], 
            [
              -71.032957315329156, 
              42.212670870580446
            ], 
            [
              -71.032948398026349, 
              42.212670870580446
            ], 
            [
              -71.032948398026349, 
              42.212654621496199
            ], 
            [
              -71.032948398026349, 
              42.212653242375318
            ], 
            [
              -71.032950252643715, 
              42.212653242375318
            ], 
            [
              -71.032950252643715, 
              42.212601831303907
            ], 
            [
              -71.032950252643715, 
              42.212580319524342
            ], 
            [
              -71.032950252643715, 
              42.212560803500175
            ], 
            [
              -71.032925274467985, 
              42.212560803500175
            ], 
            [
              -71.032925274467985, 
              42.212520968335340
            ], 
            [
              -71.032907655603012, 
              42.212520968335340
            ], 
            [
              -71.032877054416488, 
              42.212520968335340
            ], 
            [
              -71.032877054416488, 
              42.212523715588091
            ], 
            [
              -71.032877054416488, 
              42.212552846996871
            ], 
            [
              -71.032877054416488, 
              42.212569788388812
            ], 
            [
              -71.032877054416488, 
              42.212580319524342
            ], 
            [
              -71.032877054416488, 
              42.212597710424788
            ], 
            [
              -71.032877054416488, 
              42.212653242375318
            ], 
            [
              -71.032877054416488, 
              42.212687529214143
            ], 
            [
              -71.032877054416488, 
              42.212714004051790
            ], 
            [
              -71.032887674545648, 
              42.212721869873484
            ], 
            [
              -71.032893436869884, 
              42.212721869873484
            ], 
            [
              -71.032933793289885, 
              42.212721869873484
            ], 
            [
              -71.032937193421731, 
              42.212721869873484
            ], 
            [
              -71.032955121389591, 
              42.212708591485203
            ]
          ]
        ], 
        "type": "Polygon"
      }, 
      "properties": {
        "Seat Count": "", 
        "Number": "010D", 
        "NCES_Type": "Corridor/Hallway", 
        "Workstations": "", 
        "Element": "Room", 
        "RevitId": 5892379, 
        "occupancyStatus": "Occupied", 
        "Building": "Main/Administration", 
        "Area_SF": 1243.4000000000001, 
        "Name": "CORRIDOR", 
        "NCES_Occupancy Status": "", 
        "NCES_Department": "Administration", 
        "Level": "BASEMENT", 
        "Revit_UniqueId": "b612191a-e846-414b-aff5-ef84177b204e-0059db6e"
      }, 
      "type": "Feature"
    }, 
    {
      "geometry": {
        "coordinates": [
          [
            [
              -71.032768360392524, 
              42.212653756802098
            ], 
            [
              -71.032819925770326, 
              42.212653756802098
            ], 
            [
              -71.032819925770326, 
              42.212653242375318
            ], 
            [
              -71.032823654418564, 
              42.212653242375318
            ], 
            [
              -71.032877054416488, 
              42.212653242375318
            ], 
            [
              -71.032877054416488, 
              42.212597710424788
            ], 
            [
              -71.032817706660794, 
              42.212597710424788
            ], 
            [
              -71.032804724339243, 
              42.212597710424788
            ], 
            [
              -71.032768360392524, 
              42.212597710424788
            ], 
            [
              -71.032768360392524, 
              42.212653756802098
            ]
          ]
        ], 
        "type": "Polygon"
      }, 
      "properties": {
        "Seat Count": "", 
        "Number": "010E", 
        "NCES_Type": "Kitchen", 
        "Workstations": "", 
        "Element": "Room", 
        "RevitId": 5892381, 
        "occupancyStatus": "Occupied", 
        "Building": "Main/Administration", 
        "Area_SF": 529.76999999999998, 
        "Name": "KITCHEN", 
        "NCES_Occupancy Status": "", 
        "NCES_Department": "Administration", 
        "Level": "BASEMENT", 
        "Revit_UniqueId": "b612191a-e846-414b-aff5-ef84177b204e-0059db71"
      }, 
      "type": "Feature"
    }, 
    {
      "geometry": {
        "coordinates": [
          [
            [
              -71.032877054416488, 
              42.212580319524342
            ], 
            [
              -71.032877054416488, 
              42.212569788388812
            ], 
            [
              -71.032871490564389, 
              42.212569788388812
            ], 
            [
              -71.032871490564389, 
              42.212556052125080
            ], 
            [
              -71.032822034101315, 
              42.212556052125080
            ], 
            [
              -71.032822034101315, 
              42.212594284725810
            ], 
            [
              -71.032871490564389, 
              42.212594284725810
            ], 
            [
              -71.032871490564389, 
              42.212580319524342
            ], 
            [
              -71.032877054416488, 
              42.212580319524342
            ]
          ]
        ], 
        "type": "Polygon"
      }, 
      "properties": {
        "Seat Count": "", 
        "Number": "010F", 
        "NCES_Type": "Archive Storage", 
        "Workstations": "", 
        "Element": "Room", 
        "RevitId": 5892383, 
        "occupancyStatus": "Occupied", 
        "Building": "Main/Administration", 
        "Area_SF": 175.50999999999999, 
        "Name": "HISTORICAL\r\nSTORAGE", 
        "NCES_Occupancy Status": "", 
        "NCES_Department": "Administration", 
        "Level": "BASEMENT", 
        "Revit_UniqueId": "b612191a-e846-414b-aff5-ef84177b204e-0059db74"
      }, 
      "type": "Feature"
    }, 
    {
      "geometry": {
        "coordinates": [
          [
            [
              -71.032950252643715, 
              42.212520968335340
            ], 
            [
              -71.032950252643715, 
              42.212523715588091
            ], 
            [
              -71.033058560530819, 
              42.212523715588091
            ], 
            [
              -71.033058560530819, 
              42.212464649654024
            ], 
            [
              -71.032950252643715, 
              42.212464649654024
            ], 
            [
              -71.032950252643715, 
              42.212486627676000
            ], 
            [
              -71.032950252643715, 
              42.212520968335340
            ]
          ]
        ], 
        "type": "Polygon"
      }, 
      "properties": {
        "Seat Count": "", 
        "Number": "010I", 
        "NCES_Type": "General Storage", 
        "Workstations": "", 
        "Element": "Room", 
        "RevitId": 5892389, 
        "occupancyStatus": "Occupied", 
        "Building": "Main/Administration", 
        "Area_SF": 562.72000000000003, 
        "Name": "STORAGE", 
        "NCES_Occupancy Status": "", 
        "NCES_Department": "Administration", 
        "Level": "BASEMENT", 
        "Revit_UniqueId": "b612191a-e846-414b-aff5-ef84177b204e-0059db7d"
      }, 
      "type": "Feature"
    }, 
    {
      "geometry": {
        "coordinates": [
          [
            [
              -71.032950252643715, 
              42.212453660643035
            ], 
            [
              -71.032950252643715, 
              42.212464649654024
            ], 
            [
              -71.033058560530819, 
              42.212464649654024
            ], 
            [
              -71.033058560530819, 
              42.212422832544014
            ], 
            [
              -71.032950252643715, 
              42.212422832544014
            ], 
            [
              -71.032950252643715, 
              42.212453660643035
            ]
          ]
        ], 
        "type": "Polygon"
      }, 
      "properties": {
        "Seat Count": "", 
        "Number": "010J", 
        "NCES_Type": "General Storage", 
        "Workstations": "", 
        "Element": "Room", 
        "RevitId": 5892391, 
        "occupancyStatus": "Occupied", 
        "Building": "Main/Administration", 
        "Area_SF": 397.23000000000002, 
        "Name": "STORAGE", 
        "NCES_Occupancy Status": "", 
        "NCES_Department": "Administration", 
        "Level": "BASEMENT", 
        "Revit_UniqueId": "b612191a-e846-414b-aff5-ef84177b204e-0059db80"
      }, 
      "type": "Feature"
    }, 
    {
      "geometry": {
        "coordinates": [
          [
            [
              -71.032768500141913, 
              42.212422832544014
            ], 
            [
              -71.032768500141913, 
              42.212464649654024
            ], 
            [
              -71.032822777279193, 
              42.212464649654024
            ], 
            [
              -71.032877054416488, 
              42.212464649654024
            ], 
            [
              -71.032877054416488, 
              42.212422832544014
            ], 
            [
              -71.032768500141913, 
              42.212422832544014
            ]
          ]
        ], 
        "type": "Polygon"
      }, 
      "properties": {
        "Seat Count": "", 
        "Number": "010K", 
        "NCES_Type": "General Storage", 
        "Workstations": "", 
        "Element": "Room", 
        "RevitId": 5892393, 
        "occupancyStatus": "Occupied", 
        "Building": "Main/Administration", 
        "Area_SF": 398.19999999999999, 
        "Name": "STORAGE", 
        "NCES_Occupancy Status": "", 
        "NCES_Department": "Administration", 
        "Level": "BASEMENT", 
        "Revit_UniqueId": "b612191a-e846-414b-aff5-ef84177b204e-0059db83"
      }, 
      "type": "Feature"
    }, 
    {
      "geometry": {
        "coordinates": [
          [
            [
              -71.032950252643715, 
              42.212453660643035
            ], 
            [
              -71.032950252643715, 
              42.212422832544014
            ], 
            [
              -71.032877054416488, 
              42.212422832544014
            ], 
            [
              -71.032877054416488, 
              42.212464649654024
            ], 
            [
              -71.032877054416488, 
              42.212520968335340
            ], 
            [
              -71.032907655603012, 
              42.212520968335340
            ], 
            [
              -71.032907655603012, 
              42.212486627676000
            ], 
            [
              -71.032907655603012, 
              42.212453660643035
            ], 
            [
              -71.032950252643715, 
              42.212453660643035
            ]
          ]
        ], 
        "type": "Polygon"
      }, 
      "properties": {
        "Seat Count": "", 
        "Number": "010L", 
        "NCES_Type": "Corridor/Hallway", 
        "Workstations": "", 
        "Element": "Room", 
        "RevitId": 5892395, 
        "occupancyStatus": "Occupied", 
        "Building": "Main/Administration", 
        "Area_SF": 371.31000000000000, 
        "Name": "CORRIDOR", 
        "NCES_Occupancy Status": "", 
        "NCES_Department": "Administration", 
        "Level": "BASEMENT", 
        "Revit_UniqueId": "b612191a-e846-414b-aff5-ef84177b204e-0059db86"
      }, 
      "type": "Feature"
    }, 
    {
      "geometry": {
        "coordinates": [
          [
            [
              -71.032819925770326, 
              42.212653242375318
            ], 
            [
              -71.032819925770326, 
              42.212687529214143
            ], 
            [
              -71.032877054416488, 
              42.212687529214143
            ], 
            [
              -71.032877054416488, 
              42.212653242375318
            ], 
            [
              -71.032819925770326, 
              42.212653242375318
            ]
          ]
        ], 
        "type": "Polygon"
      }, 
      "properties": {
        "Seat Count": "", 
        "Number": "010M", 
        "NCES_Type": "Administrative Workroom", 
        "Workstations": "", 
        "Element": "Room", 
        "RevitId": 5892397, 
        "occupancyStatus": "Occupied", 
        "Building": "Main/Administration", 
        "Area_SF": 160.13999999999999, 
        "Name": "SHREDDING ROOM", 
        "NCES_Occupancy Status": "", 
        "NCES_Department": "Administration", 
        "Level": "BASEMENT", 
        "Revit_UniqueId": "b612191a-e846-414b-aff5-ef84177b204e-0059db93"
      }, 
      "type": "Feature"
    }, 
    {
      "geometry": {
        "coordinates": [
          [
            [
              -71.032819925770326, 
              42.212708591485203
            ], 
            [
              -71.032869746577788, 
              42.212708591485203
            ], 
            [
              -71.032877054416488, 
              42.212714004051790
            ], 
            [
              -71.032877054416488, 
              42.212687529214143
            ], 
            [
              -71.032819925770326, 
              42.212687529214143
            ], 
            [
              -71.032819925770326, 
              42.212708591485203
            ]
          ]
        ], 
        "type": "Polygon"
      }, 
      "properties": {
        "Seat Count": "", 
        "Number": "010N", 
        "NCES_Type": "Staff Toilet/Changing", 
        "Workstations": "", 
        "Element": "Room", 
        "RevitId": 5892399, 
        "occupancyStatus": "Occupied", 
        "Building": "Main/Administration", 
        "Area_SF": 87.920000000000002, 
        "Name": "RR", 
        "NCES_Occupancy Status": "", 
        "NCES_Department": "Administration", 
        "Level": "BASEMENT", 
        "Revit_UniqueId": "b612191a-e846-414b-aff5-ef84177b204e-0059db96"
      }, 
      "type": "Feature"
    }, 
    {
      "geometry": {
        "coordinates": [
          [
            [
              -71.032877054416488, 
              42.212552846996871
            ], 
            [
              -71.032877054416488, 
              42.212523715588091
            ], 
            [
              -71.032822777279193, 
              42.212523715588091
            ], 
            [
              -71.032804202412095, 
              42.212523715588091
            ], 
            [
              -71.032804202412095, 
              42.212538068206058
            ], 
            [
              -71.032837585524675, 
              42.212538068206058
            ], 
            [
              -71.032837585524675, 
              42.212552846996871
            ], 
            [
              -71.032877054416488, 
              42.212552846996871
            ]
          ]
        ], 
        "type": "Polygon"
      }, 
      "properties": {
        "Seat Count": "", 
        "Number": "010O", 
        "NCES_Type": "Stair", 
        "Workstations": "", 
        "Element": "Room", 
        "RevitId": 5892404, 
        "occupancyStatus": "Occupied", 
        "Building": "Main/Administration", 
        "Area_SF": 132.86000000000001, 
        "Name": "STAIR", 
        "NCES_Occupancy Status": "", 
        "NCES_Department": "Administration", 
        "Level": "BASEMENT", 
        "Revit_UniqueId": "b612191a-e846-414b-aff5-ef84177b204e-0059dc76"
      }, 
      "type": "Feature"
    }, 
    {
      "geometry": {
        "coordinates": [
          [
            [
              -71.032768360392524, 
              42.212572883368566
            ], 
            [
              -71.032768360392524, 
              42.212597710424788
            ], 
            [
              -71.032804724339243, 
              42.212597710424788
            ], 
            [
              -71.032817706660794, 
              42.212597710424788
            ], 
            [
              -71.032817706660794, 
              42.212552846996871
            ], 
            [
              -71.032739744403344, 
              42.212552846996871
            ], 
            [
              -71.032739744403344, 
              42.212558475744132
            ], 
            [
              -71.032759197022315, 
              42.212572883368566
            ], 
            [
              -71.032768360392524, 
              42.212572883368566
            ]
          ]
        ], 
        "type": "Polygon"
      }, 
      "properties": {
        "Seat Count": "", 
        "Number": "010P", 
        "NCES_Type": "Pantry", 
        "Workstations": "", 
        "Element": "Room", 
        "RevitId": 5892407, 
        "occupancyStatus": "Occupied", 
        "Building": "Main/Administration", 
        "Area_SF": 219.19999999999999, 
        "Name": "PANTRY", 
        "NCES_Occupancy Status": "", 
        "NCES_Department": "Administration", 
        "Level": "BASEMENT", 
        "Revit_UniqueId": "b612191a-e846-414b-aff5-ef84177b204e-0059dcea"
      }, 
      "type": "Feature"
    }, 
    {
      "geometry": {
        "coordinates": [
          [
            [
              -71.032950252643715, 
              42.212486627676000
            ], 
            [
              -71.032950252643715, 
              42.212464649654024
            ], 
            [
              -71.032950252643715, 
              42.212453660643035
            ], 
            [
              -71.032907655603012, 
              42.212453660643035
            ], 
            [
              -71.032907655603012, 
              42.212486627676000
            ], 
            [
              -71.032950252643715, 
              42.212486627676000
            ]
          ]
        ], 
        "type": "Polygon"
      }, 
      "properties": {
        "Seat Count": "", 
        "Number": "010HHH", 
        "NCES_Type": "Dispatch/Communications", 
        "Workstations": "", 
        "Element": "Room", 
        "RevitId": 5923803, 
        "occupancyStatus": "Occupied", 
        "Building": "Main/Administration", 
        "Area_SF": 120.56999999999999, 
        "Name": "TELEPHONE", 
        "NCES_Occupancy Status": "", 
        "NCES_Department": "Administration", 
        "Level": "BASEMENT", 
        "Revit_UniqueId": "db0be3e9-3b45-462b-9900-5806e1fd64a6-005a5511"
      }, 
      "type": "Feature"
    }, 
    {
      "geometry": {
        "coordinates": [
          [
            [
              -71.032877054416488, 
              42.212405662214344
            ], 
            [
              -71.032822497755660, 
              42.212405662214344
            ], 
            [
              -71.032768500141913, 
              42.212405662214344
            ], 
            [
              -71.032768500141913, 
              42.212422832544014
            ], 
            [
              -71.032877054416488, 
              42.212422832544014
            ], 
            [
              -71.032877054416488, 
              42.212405662214344
            ]
          ]
        ], 
        "type": "Polygon"
      }, 
      "properties": {
        "Seat Count": "", 
        "Number": "010III", 
        "NCES_Type": "General Storage", 
        "Workstations": "", 
        "Element": "Room", 
        "RevitId": 5923806, 
        "occupancyStatus": "Occupied", 
        "Building": "Main/Administration", 
        "Area_SF": 137.58000000000001, 
        "Name": "WIRE\r\nSTOR", 
        "NCES_Occupancy Status": "", 
        "NCES_Department": "Administration", 
        "Level": "BASEMENT", 
        "Revit_UniqueId": "db0be3e9-3b45-462b-9900-5806e1fd64a6-005a55e1"
      }, 
      "type": "Feature"
    }, 
    {
      "geometry": {
        "coordinates": [
          [
            [
              -71.032950252643715, 
              42.212580319524342
            ], 
            [
              -71.032950252643715, 
              42.212601831303907
            ], 
            [
              -71.033058560530819, 
              42.212601831303907
            ], 
            [
              -71.033058560530819, 
              42.212580319524342
            ], 
            [
              -71.032950252643715, 
              42.212580319524342
            ]
          ]
        ], 
        "type": "Polygon"
      }, 
      "properties": {
        "Seat Count": "", 
        "Number": "010JJJ", 
        "NCES_Type": "General Storage", 
        "Workstations": "", 
        "Element": "Room", 
        "RevitId": 5923809, 
        "occupancyStatus": "Occupied", 
        "Building": "Main/Administration", 
        "Area_SF": 194.34999999999999, 
        "Name": "STORAGE", 
        "NCES_Occupancy Status": "", 
        "NCES_Department": "Administration", 
        "Level": "BASEMENT", 
        "Revit_UniqueId": "db0be3e9-3b45-462b-9900-5806e1fd64a6-005a5665"
      }, 
      "type": "Feature"
    }, 
    {
      "geometry": {
        "coordinates": [
          [
            [
              -71.033058560530819, 
              42.212653929188505
            ], 
            [
              -71.033058560530819, 
              42.212638646911991
            ], 
            [
              -71.032993954228417, 
              42.212638646911991
            ], 
            [
              -71.032980636477305, 
              42.212653242375318
            ], 
            [
              -71.033003435464479, 
              42.212653242375318
            ], 
            [
              -71.033005297500310, 
              42.212653242375318
            ], 
            [
              -71.033005297500310, 
              42.212653929188505
            ], 
            [
              -71.033058560530819, 
              42.212653929188505
            ]
          ]
        ], 
        "type": "Polygon"
      }, 
      "properties": {
        "Seat Count": "", 
        "Number": "010", 
        "NCES_Type": "Electrical Room", 
        "Workstations": "", 
        "Element": "Room", 
        "RevitId": 5923824, 
        "occupancyStatus": "Occupied", 
        "Building": "Main/Administration", 
        "Area_SF": 81.090000000000003, 
        "Name": "ELEC", 
        "NCES_Occupancy Status": "", 
        "NCES_Department": "Administration", 
        "Level": "BASEMENT", 
        "Revit_UniqueId": "db0be3e9-3b45-462b-9900-5806e1fd64a6-005a6010"
      }, 
      "type": "Feature"
    }, 
    {
      "geometry": {
        "coordinates": [
          [
            [
              -71.032982114783238, 
              42.212708591485203
            ], 
            [
              -71.033005297500310, 
              42.212708591485203
            ], 
            [
              -71.033005297500310, 
              42.212653242375318
            ], 
            [
              -71.032984016911342, 
              42.212653242375318
            ], 
            [
              -71.032983635756281, 
              42.212653242375318
            ], 
            [
              -71.032980636477305, 
              42.212653242375318
            ], 
            [
              -71.032948398026349, 
              42.212653242375318
            ], 
            [
              -71.032948398026349, 
              42.212670870580446
            ], 
            [
              -71.032957315329156, 
              42.212670870580446
            ], 
            [
              -71.032981187474562, 
              42.212670870580446
            ], 
            [
              -71.032981187474562, 
              42.212690276466894
            ], 
            [
              -71.032982114783238, 
              42.212690276466894
            ], 
            [
              -71.032982114783238, 
              42.212691664471926
            ], 
            [
              -71.032982114783238, 
              42.212708591485203
            ]
          ]
        ], 
        "type": "Polygon"
      }, 
      "properties": {
        "Seat Count": "", 
        "Number": "011", 
        "NCES_Type": "Closet", 
        "Workstations": "", 
        "Element": "Room", 
        "RevitId": 5923826, 
        "occupancyStatus": "Occupied", 
        "Building": "Main/Administration", 
        "Area_SF": 144.84999999999999, 
        "Name": "CLOSET", 
        "NCES_Occupancy Status": "", 
        "NCES_Department": "Administration", 
        "Level": "BASEMENT", 
        "Revit_UniqueId": "db0be3e9-3b45-462b-9900-5806e1fd64a6-005a6013"
      }, 
      "type": "Feature"
    }, 
    {
      "geometry": {
        "coordinates": [
          [
            [
              -71.032877054416488, 
              42.212523715588091
            ], 
            [
              -71.032877054416488, 
              42.212520968335340
            ], 
            [
              -71.032877054416488, 
              42.212464649654024
            ], 
            [
              -71.032822777279193, 
              42.212464649654024
            ], 
            [
              -71.032822777279193, 
              42.212497616686989
            ], 
            [
              -71.032822777279193, 
              42.212508605697977
            ], 
            [
              -71.032822777279193, 
              42.212523715588091
            ], 
            [
              -71.032877054416488, 
              42.212523715588091
            ]
          ]
        ], 
        "type": "Polygon"
      }, 
      "properties": {
        "Seat Count": "", 
        "Number": "342", 
        "NCES_Type": "Shared Office - Enclosed", 
        "Workstations": "", 
        "Element": "Room", 
        "RevitId": 6022953, 
        "occupancyStatus": "Occupied", 
        "Building": "Main/Administration", 
        "Area_SF": 280.48000000000002, 
        "Name": "MAINT STAFF", 
        "NCES_Occupancy Status": "", 
        "NCES_Department": "Administration", 
        "Level": "BASEMENT", 
        "Revit_UniqueId": "568ae92b-a280-451e-8461-f6d387948176-005be729"
      }, 
      "type": "Feature"
    }, 
    {
      "geometry": {
        "coordinates": [
          [
            [
              -71.032768500141913, 
              42.212464649654024
            ], 
            [
              -71.032768500141913, 
              42.212523715588091
            ], 
            [
              -71.032804202412095, 
              42.212523715588091
            ], 
            [
              -71.032822777279193, 
              42.212523715588091
            ], 
            [
              -71.032822777279193, 
              42.212508605697977
            ], 
            [
              -71.032822777279193, 
              42.212497616686989
            ], 
            [
              -71.032822777279193, 
              42.212464649654024
            ], 
            [
              -71.032768500141913, 
              42.212464649654024
            ]
          ]
        ], 
        "type": "Polygon"
      }, 
      "properties": {
        "Seat Count": "", 
        "Number": "343", 
        "NCES_Type": "General Storage", 
        "Workstations": "", 
        "Element": "Room", 
        "RevitId": 6022956, 
        "occupancyStatus": "Occupied", 
        "Building": "Main/Administration", 
        "Area_SF": 275.35000000000002, 
        "Name": "STORAGE", 
        "NCES_Occupancy Status": "", 
        "NCES_Department": "Administration", 
        "Level": "BASEMENT", 
        "Revit_UniqueId": "568ae92b-a280-451e-8461-f6d387948176-005be72c"
      }, 
      "type": "Feature"
    }, 
    {
      "geometry": {
        "coordinates": [
          [
            [
              -71.032981187474562, 
              42.212690276466894
            ], 
            [
              -71.032981187474562, 
              42.212670870580446
            ], 
            [
              -71.032957315329156, 
              42.212670870580446
            ], 
            [
              -71.032957315329156, 
              42.212690276466894
            ], 
            [
              -71.032981168061042, 
              42.212690276466894
            ], 
            [
              -71.032981187474562, 
              42.212690276466894
            ]
          ]
        ], 
        "type": "Polygon"
      }, 
      "properties": {
        "Seat Count": "", 
        "Number": "347", 
        "NCES_Type": "General Storage", 
        "Workstations": "", 
        "Element": "Room", 
        "RevitId": 6024580, 
        "occupancyStatus": "Occupied", 
        "Building": "Main/Administration", 
        "Area_SF": 35.899999999999999, 
        "Name": "CLOS", 
        "NCES_Occupancy Status": "", 
        "NCES_Department": "Administration", 
        "Level": "BASEMENT", 
        "Revit_UniqueId": "eef478cf-42ac-44fb-8ec0-2d083b00022a-005bed84"
      }, 
      "type": "Feature"
    }, 
    {
      "geometry": {
        "coordinates": [
          [
            [
              -71.032893436869884, 
              42.212811025526442
            ], 
            [
              -71.032877886444979, 
              42.212822542982366
            ], 
            [
              -71.032668315795803, 
              42.212822542982366
            ], 
            [
              -71.032668315795803, 
              42.212851997193013
            ], 
            [
              -71.032696537408683, 
              42.212851997193013
            ], 
            [
              -71.032716938199698, 
              42.212851997193013
            ], 
            [
              -71.032761738705844, 
              42.212851997193013
            ], 
            [
              -71.032764540045406, 
              42.212851997193013
            ], 
            [
              -71.032764540045406, 
              42.212852684006201
            ], 
            [
              -71.032841620595747, 
              42.212852684006201
            ], 
            [
              -71.032876394671348, 
              42.212852684006201
            ], 
            [
              -71.032878140303666, 
              42.212852684006201
            ], 
            [
              -71.032879631342638, 
              42.212853788347452
            ], 
            [
              -71.032895559050786, 
              42.212865585239037
            ], 
            [
              -71.032895559050786, 
              42.212869167522690
            ], 
            [
              -71.032895559050786, 
              42.212908302281974
            ], 
            [
              -71.032895559050786, 
              42.212967273952010
            ], 
            [
              -71.032896486359476, 
              42.212967273952010
            ], 
            [
              -71.032896486359476, 
              42.212968661957042
            ], 
            [
              -71.032896486359476, 
              42.213027383505327
            ], 
            [
              -71.032896486359476, 
              42.213062120287674
            ], 
            [
              -71.032931011363843, 
              42.213062120287674
            ], 
            [
              -71.032931011363843, 
              42.213027383505327
            ], 
            [
              -71.032931011363843, 
              42.212968661957042
            ], 
            [
              -71.032931011363843, 
              42.212967273952010
            ], 
            [
              -71.032931938672519, 
              42.212967273952010
            ], 
            [
              -71.032931938672519, 
              42.212907615468787
            ], 
            [
              -71.032931938672519, 
              42.212871914775434
            ], 
            [
              -71.032931938672519, 
              42.212866383938653
            ], 
            [
              -71.032951363101759, 
              42.212851997193013
            ], 
            [
              -71.032989431810847, 
              42.212851997193013
            ], 
            [
              -71.032989431810847, 
              42.212852684006201
            ], 
            [
              -71.033062731118335, 
              42.212852684006201
            ], 
            [
              -71.033062731118335, 
              42.212851997193013
            ], 
            [
              -71.033110837321544, 
              42.212851997193013
            ], 
            [
              -71.033129383495208, 
              42.212851997193013
            ], 
            [
              -71.033158460320195, 
              42.212851997193013
            ], 
            [
              -71.033158460320195, 
              42.212822542982366
            ], 
            [
              -71.032949343714790, 
              42.212822542982366
            ], 
            [
              -71.032933793289885, 
              42.212811025526442
            ], 
            [
              -71.032933793289885, 
              42.212721869873484
            ], 
            [
              -71.032893436869884, 
              42.212721869873484
            ], 
            [
              -71.032893436869884, 
              42.212811025526442
            ]
          ]
        ], 
        "type": "Polygon"
      }, 
      "properties": {
        "Seat Count": "", 
        "Number": "348", 
        "NCES_Type": "Corridor/Hallway", 
        "Workstations": "", 
        "Element": "Room", 
        "RevitId": 6024679, 
        "occupancyStatus": "Occupied", 
        "Building": "Main/Administration", 
        "Area_SF": 2208.2100000000000, 
        "Name": "CORRIDOR", 
        "NCES_Occupancy Status": "", 
        "NCES_Department": "General", 
        "Level": "BASEMENT", 
        "Revit_UniqueId": "eef478cf-42ac-44fb-8ec0-2d083b00022a-005bede7"
      }, 
      "type": "Feature"
    }
  ], 
  "type": "FeatureCollection", 
  "name": "Main/Administration - BASEMENT"
}