{
  "features": [
    {
      "geometry": {
        "coordinates": [
          [
            [
              -95.572123890284857, 
              42.756596988410038
            ], 
            [
              -95.572123890284857, 
              42.756588737165558
            ], 
            [
              -95.572123890284857, 
              42.756570889508936
            ], 
            [
              -95.572050052551347, 
              42.756570889508936
            ], 
            [
              -95.572050052551347, 
              42.756588737165558
            ], 
            [
              -95.572050052551347, 
              42.756596988410038
            ], 
            [
              -95.572123890284857, 
              42.756596988410038
            ]
          ]
        ], 
        "type": "Polygon"
      }, 
      "properties": {
        "Seat Count": "", 
        "Number": "1", 
        "NCES_Type": "Vestibule", 
        "Workstations": "", 
        "Element": "Room", 
        "RevitId": 5662194, 
        "occupancyStatus": "Occupied", 
        "Building": "Main/Administration", 
        "Area_SF": 150.43000000000001, 
        "Name": "VESTIBULE", 
        "NCES_Occupancy Status": "", 
        "NCES_Department": "Administration", 
        "Level": "LEVEL 1", 
        "Revit_UniqueId": "dad237cc-6968-4188-9f55-ae8359a05182-005665f2"
      }, 
      "type": "Feature"
    }, 
    {
      "geometry": {
        "coordinates": [
          [
            [
              -95.572233144418561, 
              42.756588737165558
            ], 
            [
              -95.572181729818098, 
              42.756588737165558
            ], 
            [
              -95.572181729818098, 
              42.756615522879841
            ], 
            [
              -95.572157409151828, 
              42.756615522879841
            ], 
            [
              -95.572157409151828, 
              42.756648569606476
            ], 
            [
              -95.572233144418561, 
              42.756648569606476
            ], 
            [
              -95.572233144418561, 
              42.756588737165558
            ]
          ]
        ], 
        "type": "Polygon"
      }, 
      "properties": {
        "Seat Count": "", 
        "Number": "3", 
        "NCES_Type": "Private Office - Enclosed", 
        "Workstations": "", 
        "Element": "Room", 
        "RevitId": 5662204, 
        "occupancyStatus": "Occupied", 
        "Building": "Main/Administration", 
        "Area_SF": 321.87000000000000, 
        "Name": "OFFICE", 
        "NCES_Occupancy Status": "", 
        "NCES_Department": "Administration", 
        "Level": "LEVEL 1", 
        "Revit_UniqueId": "dad237cc-6968-4188-9f55-ae8359a05182-005665fc"
      }, 
      "type": "Feature"
    }, 
    {
      "geometry": {
        "coordinates": [
          [
            [
              -95.572123890284857, 
              42.756648569606476
            ], 
            [
              -95.572123890284857, 
              42.756706304544963
            ], 
            [
              -95.572233144418561, 
              42.756706304544963
            ], 
            [
              -95.572233144418561, 
              42.756648569606476
            ], 
            [
              -95.572157409151828, 
              42.756648569606476
            ], 
            [
              -95.572123890284857, 
              42.756648569606476
            ]
          ]
        ], 
        "type": "Polygon"
      }, 
      "properties": {
        "Seat Count": "", 
        "Number": "4", 
        "NCES_Type": "Shared Office - Enclosed", 
        "Workstations": "", 
        "Element": "Room", 
        "RevitId": 5662207, 
        "occupancyStatus": "Occupied", 
        "Building": "Main/Administration", 
        "Area_SF": 535.69000000000005, 
        "Name": "ADMISSIONS", 
        "NCES_Occupancy Status": "", 
        "NCES_Department": "Administration", 
        "Level": "LEVEL 1", 
        "Revit_UniqueId": "dad237cc-6968-4188-9f55-ae8359a05182-005665ff"
      }, 
      "type": "Feature"
    }, 
    {
      "geometry": {
        "coordinates": [
          [
            [
              -95.571940549877567, 
              42.756647583648132
            ], 
            [
              -95.571940549877567, 
              42.756706790539305
            ], 
            [
              -95.571946333172093, 
              42.756706790539305
            ], 
            [
              -95.572050052551347, 
              42.756706790539305
            ], 
            [
              -95.572050052551347, 
              42.756647583648132
            ], 
            [
              -95.572014265941021, 
              42.756647583648132
            ], 
            [
              -95.571940549877567, 
              42.756647583648132
            ]
          ]
        ], 
        "type": "Polygon"
      }, 
      "properties": {
        "Seat Count": "", 
        "Number": "5", 
        "NCES_Type": "Lobby/Reception", 
        "Workstations": "", 
        "Element": "Room", 
        "RevitId": 5662216, 
        "occupancyStatus": "Occupied", 
        "Building": "Main/Administration", 
        "Area_SF": 558.61000000000001, 
        "Name": "RECEPTION / \r\nPATIENT ACCOUNTS", 
        "NCES_Occupancy Status": "", 
        "NCES_Department": "Administration", 
        "Level": "LEVEL 1", 
        "Revit_UniqueId": "dad237cc-6968-4188-9f55-ae8359a05182-00566608"
      }, 
      "type": "Feature"
    }, 
    {
      "geometry": {
        "coordinates": [
          [
            [
              [
                -95.572123890284857, 
                42.756706304544963
              ], 
              [
                -95.572123890284857, 
                42.756782288022507
              ], 
              [
                -95.572179416048343, 
                42.756782288022507
              ], 
              [
                -95.572233144418561, 
                42.756782288022507
              ], 
              [
                -95.572233144418561, 
                42.756755002207669
              ], 
              [
                -95.572233144418561, 
                42.756705445769988
              ], 
              [
                -95.572233144418561, 
                42.756706304544963
              ], 
              [
                -95.572229383194482, 
                42.756706304544963
              ], 
              [
                -95.572123890284857, 
                42.756706304544963
              ]
            ]
          ], 
          [
            [
              [
                -95.572227531957111, 
                42.756758705572530
              ], 
              [
                -95.572227531957111, 
                42.756779309968131
              ], 
              [
                -95.572167665701670, 
                42.756779309968131
              ], 
              [
                -95.572167665701670, 
                42.756758705572530
              ], 
              [
                -95.572227531957111, 
                42.756758705572530
              ]
            ]
          ]
        ], 
        "type": "MultiPolygon"
      }, 
      "properties": {
        "Seat Count": "", 
        "Number": "6", 
        "NCES_Type": "Records Storage - Active", 
        "Workstations": "", 
        "Element": "Room", 
        "RevitId": 5662227, 
        "occupancyStatus": "Occupied", 
        "Building": "Main/Administration", 
        "Area_SF": 709.86000000000001, 
        "Name": "HEALTH INFORMATION", 
        "NCES_Occupancy Status": "", 
        "NCES_Department": "Administration", 
        "Level": "LEVEL 1", 
        "Revit_UniqueId": "dad237cc-6968-4188-9f55-ae8359a05182-00566613"
      }, 
      "type": "Feature"
    }, 
    {
      "geometry": {
        "coordinates": [
          [
            [
              -95.572050052551347, 
              42.756706790539305
            ], 
            [
              -95.571946333172093, 
              42.756706790539305
            ], 
            [
              -95.571946333172093, 
              42.756735353924178
            ], 
            [
              -95.571990921060262, 
              42.756735353924178
            ], 
            [
              -95.572050052551347, 
              42.756735353924178
            ], 
            [
              -95.572050052551347, 
              42.756706790539305
            ]
          ]
        ], 
        "type": "Polygon"
      }, 
      "properties": {
        "Seat Count": "", 
        "Number": "7", 
        "NCES_Type": "Stair", 
        "Workstations": "", 
        "Element": "Room", 
        "RevitId": 5662230, 
        "occupancyStatus": "Occupied", 
        "Building": "Main/Administration", 
        "Area_SF": 238.36000000000001, 
        "Name": "STAIR HALL", 
        "NCES_Occupancy Status": "", 
        "NCES_Department": "Administration", 
        "Level": "LEVEL 1", 
        "Revit_UniqueId": "dad237cc-6968-4188-9f55-ae8359a05182-00566616"
      }, 
      "type": "Feature"
    }, 
    {
      "geometry": {
        "coordinates": [
          [
            [
              -95.571940549877567, 
              42.756706790539305
            ], 
            [
              -95.571936808236600, 
              42.756706790539305
            ], 
            [
              -95.571936808236600, 
              42.756705416912929
            ], 
            [
              -95.571932693272473, 
              42.756705416912929
            ], 
            [
              -95.571911542910556, 
              42.756720946299744
            ], 
            [
              -95.571911542910556, 
              42.756735353924178
            ], 
            [
              -95.571946333172093, 
              42.756735353924178
            ], 
            [
              -95.571946333172093, 
              42.756706790539305
            ], 
            [
              -95.571940549877567, 
              42.756706790539305
            ]
          ]
        ], 
        "type": "Polygon"
      }, 
      "properties": {
        "Seat Count": "", 
        "Number": "8", 
        "NCES_Type": "Vestibule", 
        "Workstations": "", 
        "Element": "Room", 
        "RevitId": 5662240, 
        "occupancyStatus": "Occupied", 
        "Building": "Main/Administration", 
        "Area_SF": 60.020000000000003, 
        "Name": "VESTIBULE", 
        "NCES_Occupancy Status": "", 
        "NCES_Department": "Administration", 
        "Level": "LEVEL 1", 
        "Revit_UniqueId": "dad237cc-6968-4188-9f55-ae8359a05182-00566620"
      }, 
      "type": "Feature"
    }, 
    {
      "geometry": {
        "coordinates": [
          [
            [
              -95.571940408907238, 
              42.756755958319779
            ], 
            [
              -95.571940408907238, 
              42.756779309968131
            ], 
            [
              -95.571990921060262, 
              42.756779309968131
            ], 
            [
              -95.571990921060262, 
              42.756735353924178
            ], 
            [
              -95.571946333172093, 
              42.756735353924178
            ], 
            [
              -95.571911542910556, 
              42.756735353924178
            ], 
            [
              -95.571911542910556, 
              42.756741550695345
            ], 
            [
              -95.571931165479995, 
              42.756755958319779
            ], 
            [
              -95.571940408907238, 
              42.756755958319779
            ]
          ]
        ], 
        "type": "Polygon"
      }, 
      "properties": {
        "Seat Count": "", 
        "Number": "9", 
        "NCES_Type": "Private Office - Enclosed", 
        "Workstations": "", 
        "Element": "Room", 
        "RevitId": 5662247, 
        "occupancyStatus": "Occupied", 
        "Building": "Main/Administration", 
        "Area_SF": 207.50999999999999, 
        "Name": "STENOGRAPHER'S OFFICE", 
        "NCES_Occupancy Status": "", 
        "NCES_Department": "Administration", 
        "Level": "LEVEL 1", 
        "Revit_UniqueId": "dad237cc-6968-4188-9f55-ae8359a05182-00566627"
      }, 
      "type": "Feature"
    }, 
    {
      "geometry": {
        "coordinates": [
          [
            [
              -95.571995598111471, 
              42.756738787990109
            ], 
            [
              -95.571995598111471, 
              42.756776014659074
            ], 
            [
              -95.572045241371569, 
              42.756776014659074
            ], 
            [
              -95.572045241371569, 
              42.756738787990109
            ], 
            [
              -95.571995598111471, 
              42.756738787990109
            ]
          ]
        ], 
        "type": "Polygon"
      }, 
      "properties": {
        "Seat Count": "", 
        "Number": "10", 
        "NCES_Type": "Ballot Storage/Secure Vault", 
        "Workstations": "", 
        "Element": "Room", 
        "RevitId": 5662250, 
        "occupancyStatus": "Occupied", 
        "Building": "Main/Administration", 
        "Area_SF": 162.34999999999999, 
        "Name": "VAULT", 
        "NCES_Occupancy Status": "", 
        "NCES_Department": "Administration", 
        "Level": "LEVEL 1", 
        "Revit_UniqueId": "dad237cc-6968-4188-9f55-ae8359a05182-0056662a"
      }, 
      "type": "Feature"
    }, 
    {
      "geometry": {
        "coordinates": [
          [
            [
              -95.571940408907238, 
              42.756836831753311
            ], 
            [
              -95.571992424792981, 
              42.756836831753311
            ], 
            [
              -95.571992424792981, 
              42.756835458126943
            ], 
            [
              -95.571996186017074, 
              42.756835458126943
            ], 
            [
              -95.572034402705100, 
              42.756835458126943
            ], 
            [
              -95.572050052551347, 
              42.756835458126943
            ], 
            [
              -95.572050052551347, 
              42.756779309968131
            ], 
            [
              -95.571990921060262, 
              42.756779309968131
            ], 
            [
              -95.571940408907238, 
              42.756779309968131
            ], 
            [
              -95.571940408907238, 
              42.756836831753311
            ]
          ]
        ], 
        "type": "Polygon"
      }, 
      "properties": {
        "Seat Count": "", 
        "Number": "11", 
        "NCES_Type": "Archive Storage", 
        "Workstations": "", 
        "Element": "Room", 
        "RevitId": 5662266, 
        "occupancyStatus": "Occupied", 
        "Building": "Main/Administration", 
        "Area_SF": 528.70000000000005, 
        "Name": "HERITAGE ROOM", 
        "NCES_Occupancy Status": "", 
        "NCES_Department": "Administration", 
        "Level": "LEVEL 1", 
        "Revit_UniqueId": "dad237cc-6968-4188-9f55-ae8359a05182-0056663a"
      }, 
      "type": "Feature"
    }, 
    {
      "geometry": {
        "coordinates": [
          [
            [
              -95.571992424792981, 
              42.756835458126943
            ], 
            [
              -95.571992424792981, 
              42.756847133951119
            ], 
            [
              -95.572034402705100, 
              42.756847133951119
            ], 
            [
              -95.572034402705100, 
              42.756835458126943
            ], 
            [
              -95.571992424792981, 
              42.756835458126943
            ]
          ]
        ], 
        "type": "Polygon"
      }, 
      "properties": {
        "Seat Count": "", 
        "Number": "13", 
        "NCES_Type": "Closet", 
        "Workstations": "", 
        "Element": "Room", 
        "RevitId": 5662458, 
        "occupancyStatus": "Occupied", 
        "Building": "Main/Administration", 
        "Area_SF": 34.020000000000003, 
        "Name": "CLOSET", 
        "NCES_Occupancy Status": "", 
        "NCES_Department": "Administration", 
        "Level": "LEVEL 1", 
        "Revit_UniqueId": "dad237cc-6968-4188-9f55-ae8359a05182-005666fa"
      }, 
      "type": "Feature"
    }, 
    {
      "geometry": {
        "coordinates": [
          [
            [
              -95.571992424792981, 
              42.756847133951119
            ], 
            [
              -95.571992424792981, 
              42.756870409347542
            ], 
            [
              -95.572050052551347, 
              42.756870409347542
            ], 
            [
              -95.572050052551347, 
              42.756846447137931
            ], 
            [
              -95.572034402705100, 
              42.756846447137931
            ], 
            [
              -95.572034402705100, 
              42.756847133951119
            ], 
            [
              -95.572032512301490, 
              42.756847133951119
            ], 
            [
              -95.571992424792981, 
              42.756847133951119
            ]
          ]
        ], 
        "type": "Polygon"
      }, 
      "properties": {
        "Seat Count": "", 
        "Number": "14", 
        "NCES_Type": "Restroom - Bath/Shower", 
        "Workstations": "", 
        "Element": "Room", 
        "RevitId": 5662465, 
        "occupancyStatus": "Occupied", 
        "Building": "Main/Administration", 
        "Area_SF": 105.42000000000000, 
        "Name": "SHOWER", 
        "NCES_Occupancy Status": "", 
        "NCES_Department": "Administration", 
        "Level": "LEVEL 1", 
        "Revit_UniqueId": "dad237cc-6968-4188-9f55-ae8359a05182-00566701"
      }, 
      "type": "Feature"
    }, 
    {
      "geometry": {
        "coordinates": [
          [
            [
              -95.571992424792981, 
              42.756891666436417
            ], 
            [
              -95.572042680866716, 
              42.756891666436417
            ], 
            [
              -95.572050052551347, 
              42.756897079003004
            ], 
            [
              -95.572050052551347, 
              42.756870409347542
            ], 
            [
              -95.571992424792981, 
              42.756870409347542
            ], 
            [
              -95.571992424792981, 
              42.756891666436417
            ]
          ]
        ], 
        "type": "Polygon"
      }, 
      "properties": {
        "Seat Count": "", 
        "Number": "15", 
        "NCES_Type": "Single Stall Restroom", 
        "Workstations": "", 
        "Element": "Room", 
        "RevitId": 5662468, 
        "occupancyStatus": "Occupied", 
        "Building": "Main/Administration", 
        "Area_SF": 85.480000000000004, 
        "Name": "TOILET", 
        "NCES_Occupancy Status": "", 
        "NCES_Department": "Administration", 
        "Level": "LEVEL 1", 
        "Revit_UniqueId": "dad237cc-6968-4188-9f55-ae8359a05182-00566704"
      }, 
      "type": "Feature"
    }, 
    {
      "geometry": {
        "coordinates": [
          [
            [
              [
                -95.572128801567189, 
                42.756891666436417
              ], 
              [
                -95.572179416048343, 
                42.756891666436417
              ], 
              [
                -95.572179416048343, 
                42.756853945531660
              ], 
              [
                -95.572155095382072, 
                42.756853945531660
              ], 
              [
                -95.572155095382072, 
                42.756873351418108
              ], 
              [
                -95.572131014674412, 
                42.756873351418108
              ], 
              [
                -95.572131014674412, 
                42.756853945531660
              ], 
              [
                -95.572155095382072, 
                42.756853945531660
              ], 
              [
                -95.572155095382072, 
                42.756836317326531
              ], 
              [
                -95.572123890284857, 
                42.756836317326531
              ], 
              [
                -95.572123890284857, 
                42.756782288022507
              ], 
              [
                -95.572123890284857, 
                42.756706304544963
              ], 
              [
                -95.572123890284857, 
                42.756648569606476
              ], 
              [
                -95.572123890284857, 
                42.756615522879841
              ], 
              [
                -95.572123890284857, 
                42.756596988410038
              ], 
              [
                -95.572050052551347, 
                42.756596988410038
              ], 
              [
                -95.572050052551347, 
                42.756612098300145
              ], 
              [
                -95.572050052551347, 
                42.756647583648132
              ], 
              [
                -95.572050052551347, 
                42.756706790539305
              ], 
              [
                -95.572050052551347, 
                42.756735353924178
              ], 
              [
                -95.572050052551347, 
                42.756779309968131
              ], 
              [
                -95.572050052551347, 
                42.756835458126943
              ], 
              [
                -95.572050052551347, 
                42.756846447137931
              ], 
              [
                -95.572050052551347, 
                42.756870409347542
              ], 
              [
                -95.572050052551347, 
                42.756897079003004
              ], 
              [
                -95.572060765464713, 
                42.756904944824697
              ], 
              [
                -95.572066578132279, 
                42.756904944824697
              ], 
              [
                -95.572107287131644, 
                42.756904944824697
              ], 
              [
                -95.572110716969192, 
                42.756904944824697
              ], 
              [
                -95.572128801567189, 
                42.756891666436417
              ]
            ]
          ], 
          [
            [
              [
                -95.572114400792245, 
                42.756647583648132
              ], 
              [
                -95.572114400792245, 
                42.756659453395429
              ], 
              [
                -95.572100369638619, 
                42.756659453395429
              ], 
              [
                -95.572100369638619, 
                42.756647583648132
              ], 
              [
                -95.572114400792245, 
                42.756647583648132
              ]
            ]
          ]
        ], 
        "type": "MultiPolygon"
      }, 
      "properties": {
        "Seat Count": "", 
        "Number": "16", 
        "NCES_Type": "Corridor/Hallway", 
        "Workstations": "", 
        "Element": "Room", 
        "RevitId": 5663513, 
        "occupancyStatus": "Occupied", 
        "Building": "Main/Administration", 
        "Area_SF": 2171.6799999999998, 
        "Name": "CORRIDOR", 
        "NCES_Occupancy Status": "", 
        "NCES_Department": "Administration", 
        "Level": "LEVEL 1", 
        "Revit_UniqueId": "dad237cc-6968-4188-9f55-ae8359a05182-00566b19"
      }, 
      "type": "Feature"
    }, 
    {
      "geometry": {
        "coordinates": [
          [
            [
              -95.572155095382072, 
              42.756873351418108
            ], 
            [
              -95.572155095382072, 
              42.756853945531660
            ], 
            [
              -95.572131014674412, 
              42.756853945531660
            ], 
            [
              -95.572131014674412, 
              42.756873351418108
            ], 
            [
              -95.572155095382072, 
              42.756873351418108
            ]
          ]
        ], 
        "type": "Polygon"
      }, 
      "properties": {
        "Seat Count": "", 
        "Number": "17", 
        "NCES_Type": "Elevator/Lift", 
        "Workstations": "", 
        "Element": "Room", 
        "RevitId": 5665045, 
        "occupancyStatus": "Occupied", 
        "Building": "Main/Administration", 
        "Area_SF": 35.899999999999999, 
        "Name": "ELEVATOR", 
        "NCES_Occupancy Status": "", 
        "NCES_Department": "Administration", 
        "Level": "LEVEL 1", 
        "Revit_UniqueId": "dad237cc-6968-4188-9f55-ae8359a05182-00567115"
      }, 
      "type": "Feature"
    }, 
    {
      "geometry": {
        "coordinates": [
          [
            [
              -95.572123890284857, 
              42.756570889508936
            ], 
            [
              -95.572123890284857, 
              42.756588737165558
            ], 
            [
              -95.572178923587373, 
              42.756588737165558
            ], 
            [
              -95.572178923587373, 
              42.756528764966816
            ], 
            [
              -95.572123890284857, 
              42.756528764966816
            ], 
            [
              -95.572050052551347, 
              42.756528764966816
            ], 
            [
              -95.571995019248817, 
              42.756528764966816
            ], 
            [
              -95.571995019248817, 
              42.756588737165558
            ], 
            [
              -95.571995598111471, 
              42.756588737165558
            ], 
            [
              -95.572050052551347, 
              42.756588737165558
            ], 
            [
              -95.572050052551347, 
              42.756570889508936
            ], 
            [
              -95.572123890284857, 
              42.756570889508936
            ]
          ]
        ], 
        "type": "Polygon"
      }, 
      "properties": {
        "Seat Count": "", 
        "Number": "95", 
        "NCES_Type": "Porch/Balcony", 
        "Workstations": "", 
        "Element": "Room", 
        "RevitId": 5679612, 
        "occupancyStatus": "Occupied", 
        "Building": "Main/Administration", 
        "Area_SF": 824.17999999999995, 
        "Name": "PORTICO", 
        "NCES_Occupancy Status": "", 
        "NCES_Department": "Administration", 
        "Level": "LEVEL 1", 
        "Revit_UniqueId": "1f9d7a8f-f265-4728-a925-62dafe2a6a5e-0056a9fc"
      }, 
      "type": "Feature"
    }, 
    {
      "geometry": {
        "coordinates": [
          [
            [
              -95.571995598111471, 
              42.756588737165558
            ], 
            [
              -95.571995019248817, 
              42.756588737165558
            ], 
            [
              -95.571940549877567, 
              42.756588737165558
            ], 
            [
              -95.571940549877567, 
              42.756647583648132
            ], 
            [
              -95.572014265941021, 
              42.756647583648132
            ], 
            [
              -95.572014265941021, 
              42.756629039692086
            ], 
            [
              -95.571995598111471, 
              42.756629039692086
            ], 
            [
              -95.571995598111471, 
              42.756612098300145
            ], 
            [
              -95.571995598111471, 
              42.756588737165558
            ]
          ]
        ], 
        "type": "Polygon"
      }, 
      "properties": {
        "Seat Count": "", 
        "Number": "053", 
        "NCES_Type": "Private Office - Enclosed", 
        "Workstations": "", 
        "Element": "Room", 
        "RevitId": 5923840, 
        "occupancyStatus": "Occupied", 
        "Building": "Main/Administration", 
        "Area_SF": 293.49000000000001, 
        "Name": "OFFICE", 
        "NCES_Occupancy Status": "", 
        "NCES_Department": "Administration", 
        "Level": "LEVEL 1", 
        "Revit_UniqueId": "db0be3e9-3b45-462b-9900-5806e1fd64a6-005a63dc"
      }, 
      "type": "Feature"
    }, 
    {
      "geometry": {
        "coordinates": [
          [
            [
              -95.572050052551347, 
              42.756588737165558
            ], 
            [
              -95.571995598111471, 
              42.756588737165558
            ], 
            [
              -95.571995598111471, 
              42.756612098300145
            ], 
            [
              -95.572050052551347, 
              42.756612098300145
            ], 
            [
              -95.572050052551347, 
              42.756596988410038
            ], 
            [
              -95.572050052551347, 
              42.756588737165558
            ]
          ]
        ], 
        "type": "Polygon"
      }, 
      "properties": {
        "Seat Count": "", 
        "Number": "056", 
        "NCES_Type": "Break Room", 
        "Workstations": "", 
        "Element": "Room", 
        "RevitId": 5923842, 
        "occupancyStatus": "Occupied", 
        "Building": "Main/Administration", 
        "Area_SF": 98.310000000000002, 
        "Name": "BREAK / \r\nOFFICE", 
        "NCES_Occupancy Status": "", 
        "NCES_Department": "Administration", 
        "Level": "LEVEL 1", 
        "Revit_UniqueId": "db0be3e9-3b45-462b-9900-5806e1fd64a6-005a63e5"
      }, 
      "type": "Feature"
    }, 
    {
      "geometry": {
        "coordinates": [
          [
            [
              -95.572123890284857, 
              42.756596988410038
            ], 
            [
              -95.572123890284857, 
              42.756615522879841
            ], 
            [
              -95.572157409151828, 
              42.756615522879841
            ], 
            [
              -95.572181729818098, 
              42.756615522879841
            ], 
            [
              -95.572181729818098, 
              42.756588737165558
            ], 
            [
              -95.572178923587373, 
              42.756588737165558
            ], 
            [
              -95.572123890284857, 
              42.756588737165558
            ], 
            [
              -95.572123890284857, 
              42.756596988410038
            ]
          ]
        ], 
        "type": "Polygon"
      }, 
      "properties": {
        "Seat Count": "", 
        "Number": "061", 
        "NCES_Type": "Private Office - Enclosed", 
        "Workstations": "", 
        "Element": "Room", 
        "RevitId": 5924428, 
        "occupancyStatus": "Occupied", 
        "Building": "Main/Administration", 
        "Area_SF": 122.90000000000001, 
        "Name": "OFFICE", 
        "NCES_Occupancy Status": "", 
        "NCES_Department": "Administration", 
        "Level": "LEVEL 1", 
        "Revit_UniqueId": "db0be3e9-3b45-462b-9900-5806e1fd64a6-005a664c"
      }, 
      "type": "Feature"
    }, 
    {
      "geometry": {
        "coordinates": [
          [
            [
              -95.572114400792245, 
              42.756659453395429
            ], 
            [
              -95.572114400792245, 
              42.756647583648132
            ], 
            [
              -95.572100369638619, 
              42.756647583648132
            ], 
            [
              -95.572100369638619, 
              42.756659453395429
            ], 
            [
              -95.572114400792245, 
              42.756659453395429
            ]
          ]
        ], 
        "type": "Polygon"
      }, 
      "properties": {
        "Seat Count": "", 
        "Number": "065", 
        "NCES_Type": "Search/Pat Down Room", 
        "Workstations": "", 
        "Element": "Room", 
        "RevitId": 5924691, 
        "occupancyStatus": "Occupied", 
        "Building": "Main/Administration", 
        "Area_SF": 14.039999999999999, 
        "Name": "METAL DETECTOR", 
        "NCES_Occupancy Status": "", 
        "NCES_Department": "Administration", 
        "Level": "LEVEL 1", 
        "Revit_UniqueId": "db0be3e9-3b45-462b-9900-5806e1fd64a6-005a6753"
      }, 
      "type": "Feature"
    }, 
    {
      "geometry": {
        "coordinates": [
          [
            [
              -95.572227531957111, 
              42.756779309968131
            ], 
            [
              -95.572227531957111, 
              42.756758705572530
            ], 
            [
              -95.572167665701670, 
              42.756758705572530
            ], 
            [
              -95.572167665701670, 
              42.756779309968131
            ], 
            [
              -95.572227531957111, 
              42.756779309968131
            ]
          ]
        ], 
        "type": "Polygon"
      }, 
      "properties": {
        "Seat Count": "", 
        "Number": "066", 
        "NCES_Type": "Records Storage - Active", 
        "Workstations": "", 
        "Element": "Room", 
        "RevitId": 5925704, 
        "occupancyStatus": "Occupied", 
        "Building": "Main/Administration", 
        "Area_SF": 108.5, 
        "Name": "RECORDS", 
        "NCES_Occupancy Status": "", 
        "NCES_Department": "Administration", 
        "Level": "LEVEL 1", 
        "Revit_UniqueId": "db0be3e9-3b45-462b-9900-5806e1fd64a6-005a6b48"
      }, 
      "type": "Feature"
    }, 
    {
      "geometry": {
        "coordinates": [
          [
            [
              -95.572179416048343, 
              42.756837004139719
            ], 
            [
              -95.572233144418561, 
              42.756837004139719
            ], 
            [
              -95.572233144418561, 
              42.756782288022507
            ], 
            [
              -95.572179416048343, 
              42.756782288022507
            ], 
            [
              -95.572179416048343, 
              42.756837004139719
            ]
          ]
        ], 
        "type": "Polygon"
      }, 
      "properties": {
        "Seat Count": "", 
        "Number": "069", 
        "NCES_Type": "Private Office - Enclosed", 
        "Workstations": "", 
        "Element": "Room", 
        "RevitId": 5925762, 
        "occupancyStatus": "Occupied", 
        "Building": "Main/Administration", 
        "Area_SF": 241.43000000000001, 
        "Name": "OFFICE", 
        "NCES_Occupancy Status": "", 
        "NCES_Department": "Administration", 
        "Level": "LEVEL 1", 
        "Revit_UniqueId": "db0be3e9-3b45-462b-9900-5806e1fd64a6-005a6b82"
      }, 
      "type": "Feature"
    }, 
    {
      "geometry": {
        "coordinates": [
          [
            [
              -95.572179416048343, 
              42.756853945531660
            ], 
            [
              -95.572179416048343, 
              42.756837004139719
            ], 
            [
              -95.572179416048343, 
              42.756836317326531
            ], 
            [
              -95.572155095382072, 
              42.756836317326531
            ], 
            [
              -95.572155095382072, 
              42.756853945531660
            ], 
            [
              -95.572179416048343, 
              42.756853945531660
            ]
          ]
        ], 
        "type": "Polygon"
      }, 
      "properties": {
        "Seat Count": "", 
        "Number": "070", 
        "NCES_Type": "General Storage", 
        "Workstations": "", 
        "Element": "Room", 
        "RevitId": 5926307, 
        "occupancyStatus": "Occupied", 
        "Building": "Main/Administration", 
        "Area_SF": 27.079999999999998, 
        "Name": "CLOSET", 
        "NCES_Occupancy Status": "", 
        "NCES_Department": "Administration", 
        "Level": "LEVEL 1", 
        "Revit_UniqueId": "db0be3e9-3b45-462b-9900-5806e1fd64a6-005a6da3"
      }, 
      "type": "Feature"
    }, 
    {
      "geometry": {
        "coordinates": [
          [
            [
              -95.572069654264141, 
              42.757416851873977
            ], 
            [
              -95.572105416311160, 
              42.757416851873977
            ], 
            [
              -95.572105416311160, 
              42.757404323414818
            ], 
            [
              -95.572104480900919, 
              42.757404323414818
            ], 
            [
              -95.572104480900919, 
              42.757342618995075
            ], 
            [
              -95.572139958156257, 
              42.757342618995075
            ], 
            [
              -95.572157690645767, 
              42.757342618995075
            ], 
            [
              -95.572175463440360, 
              42.757342618995075
            ], 
            [
              -95.572190952515072, 
              42.757342618995075
            ], 
            [
              -95.572217767608649, 
              42.757342618995075
            ], 
            [
              -95.572245127170135, 
              42.757342618995075
            ], 
            [
              -95.572261652751067, 
              42.757342618995075
            ], 
            [
              -95.572286418135036, 
              42.757342618995075
            ], 
            [
              -95.572302753661035, 
              42.757342618995075
            ], 
            [
              -95.572321461865855, 
              42.757342618995075
            ], 
            [
              -95.572345813260910, 
              42.757342618995075
            ], 
            [
              -95.572372883549008, 
              42.757342618995075
            ], 
            [
              -95.572394393597193, 
              42.757342618995075
            ], 
            [
              -95.572435551647814, 
              42.757342618995075
            ], 
            [
              -95.572435551647814, 
              42.757317539561235
            ], 
            [
              -95.572416843442980, 
              42.757317539561235
            ], 
            [
              -95.572381696260791, 
              42.757317539561235
            ], 
            [
              -95.572358964673725, 
              42.757317539561235
            ], 
            [
              -95.572331837776730, 
              42.757317539561235
            ], 
            [
              -95.572305646289976, 
              42.757317539561235
            ], 
            [
              -95.572283490155826, 
              42.757317539561235
            ], 
            [
              -95.572259316345367, 
              42.757317539561235
            ], 
            [
              -95.572234764819129, 
              42.757317539561235
            ], 
            [
              -95.572208573332375, 
              42.757317539561235
            ], 
            [
              -95.572187172629796, 
              42.757317539561235
            ], 
            [
              -95.572163370575055, 
              42.757317539561235
            ], 
            [
              -95.572104480900919, 
              42.757317539561235
            ], 
            [
              -95.572104480900919, 
              42.757245195238887
            ], 
            [
              -95.572104480900919, 
              42.757210458456541
            ], 
            [
              -95.572104480900919, 
              42.757151736908256
            ], 
            [
              -95.572104480900919, 
              42.757150348903224
            ], 
            [
              -95.572105416311160, 
              42.757150348903224
            ], 
            [
              -95.572105416311160, 
              42.757124115328423
            ], 
            [
              -95.572105416311160, 
              42.757091377233188
            ], 
            [
              -95.572105416311160, 
              42.757054989726647
            ], 
            [
              -95.572105416311160, 
              42.757049458889867
            ], 
            [
              -95.572119342089792, 
              42.757039234062319
            ], 
            [
              -95.572125010444566, 
              42.757035072144227
            ], 
            [
              -95.572161521342508, 
              42.757035072144227
            ], 
            [
              -95.572163411746118, 
              42.757035072144227
            ], 
            [
              -95.572163411746118, 
              42.757035758957414
            ], 
            [
              -95.572237351442993, 
              42.757035758957414
            ], 
            [
              -95.572237351442993, 
              42.757035072144227
            ], 
            [
              -95.572274029402877, 
              42.757035072144227
            ], 
            [
              -95.572274029402877, 
              42.757005617933579
            ], 
            [
              -95.572122973414949, 
              42.757005617933579
            ], 
            [
              -95.572107287131644, 
              42.756994100477655
            ], 
            [
              -95.572107287131644, 
              42.756904944824697
            ], 
            [
              -95.572066578132279, 
              42.756904944824697
            ], 
            [
              -95.572066578132279, 
              42.756994100477655
            ], 
            [
              -95.572050891848960, 
              42.757005617933579
            ], 
            [
              -95.571876377124283, 
              42.757005617933579
            ], 
            [
              -95.571876377124283, 
              42.757035072144227
            ], 
            [
              -95.571936555183143, 
              42.757035072144227
            ], 
            [
              -95.571936555183143, 
              42.757035758957414
            ], 
            [
              -95.572014309158206, 
              42.757035758957414
            ], 
            [
              -95.572049387042256, 
              42.757035758957414
            ], 
            [
              -95.572051147925521, 
              42.757035758957414
            ], 
            [
              -95.572052651991172, 
              42.757036863298666
            ], 
            [
              -95.572068718853899, 
              42.757048660190250
            ], 
            [
              -95.572068718853899, 
              42.757052242473904
            ], 
            [
              -95.572068718853899, 
              42.757091377233188
            ], 
            [
              -95.572068718853899, 
              42.757150348903224
            ], 
            [
              -95.572069654264141, 
              42.757150348903224
            ], 
            [
              -95.572069654264141, 
              42.757151736908256
            ], 
            [
              -95.572069654264141, 
              42.757210458456541
            ], 
            [
              -95.572069654264141, 
              42.757245195238887
            ], 
            [
              -95.572069654264141, 
              42.757301513920211
            ], 
            [
              -95.572069654264141, 
              42.757317539561235
            ], 
            [
              -95.572035202995778, 
              42.757317539561235
            ], 
            [
              -95.572003457518250, 
              42.757317539561235
            ], 
            [
              -95.571956687006193, 
              42.757317539561235
            ], 
            [
              -95.571910883516040, 
              42.757317539561235
            ], 
            [
              -95.571874913342540, 
              42.757317539561235
            ], 
            [
              -95.571841652733539, 
              42.757317539561235
            ], 
            [
              -95.571792540788763, 
              42.757317539561235
            ], 
            [
              -95.571747858454842, 
              42.757317539561235
            ], 
            [
              -95.571747858454842, 
              42.757245195238887
            ], 
            [
              -95.571734054269797, 
              42.757245195238887
            ], 
            [
              -95.571730085660249, 
              42.757248109140463
            ], 
            [
              -95.571729150250007, 
              42.757248795953650
            ], 
            [
              -95.571729150250007, 
              42.757342618995075
            ], 
            [
              -95.571762825018695, 
              42.757342618995075
            ], 
            [
              -95.571792540788763, 
              42.757342618995075
            ], 
            [
              -95.571811872600421, 
              42.757342618995075
            ], 
            [
              -95.571839385190586, 
              42.757342618995075
            ], 
            [
              -95.571888338326545, 
              42.757342618995075
            ], 
            [
              -95.571900714606997, 
              42.757342618995075
            ], 
            [
              -95.571970654427773, 
              42.757342618995075
            ], 
            [
              -95.572030367034017, 
              42.757342618995075
            ], 
            [
              -95.572069654264141, 
              42.757342618995075
            ], 
            [
              -95.572069654264141, 
              42.757360011714184
            ], 
            [
              -95.572069654264141, 
              42.757416851873977
            ]
          ]
        ], 
        "type": "Polygon"
      }, 
      "properties": {
        "Seat Count": "", 
        "Number": "088", 
        "NCES_Type": "Corridor/Hallway", 
        "Workstations": "", 
        "Element": "Room", 
        "RevitId": 5965873, 
        "occupancyStatus": "Occupied", 
        "Building": "Main/Administration", 
        "Area_SF": 4040.7800000000002, 
        "Name": "CORRIDOR", 
        "NCES_Occupancy Status": "", 
        "NCES_Department": "General", 
        "Level": "LEVEL 1", 
        "Revit_UniqueId": "9ab5b8f0-ca7f-4f32-b5ae-3b2d2971185f-005b0831"
      }, 
      "type": "Feature"
    }, 
    {
      "geometry": {
        "coordinates": [
          [
            [
              -95.572123890284857, 
              42.756782288022507
            ], 
            [
              -95.572123890284857, 
              42.756836317326531
            ], 
            [
              -95.572155095382072, 
              42.756836317326531
            ], 
            [
              -95.572179416048343, 
              42.756836317326531
            ], 
            [
              -95.572179416048343, 
              42.756834242508312
            ], 
            [
              -95.572179416048343, 
              42.756782288022507
            ], 
            [
              -95.572123890284857, 
              42.756782288022507
            ]
          ]
        ], 
        "type": "Polygon"
      }, 
      "properties": {
        "Seat Count": "", 
        "Number": "349", 
        "NCES_Type": "", 
        "Workstations": "", 
        "Element": "Room", 
        "RevitId": 6024809, 
        "occupancyStatus": "Occupied", 
        "Building": "Main/Administration", 
        "Area_SF": 254.88999999999999, 
        "Name": "Room", 
        "NCES_Occupancy Status": "", 
        "NCES_Department": "Administration", 
        "Level": "LEVEL 1", 
        "Revit_UniqueId": "eef478cf-42ac-44fb-8ec0-2d083b00022a-005bee69"
      }, 
      "type": "Feature"
    }
  ], 
  "type": "FeatureCollection", 
  "name": "Main/Administration - LEVEL 1"
}