{
  "features": [
    {
      "geometry": {
        "coordinates": [
          [
            [
              -95.572123890284857, 
              42.756588737165558
            ], 
            [
              -95.572123890284857, 
              42.756648569606476
            ], 
            [
              -95.572233144418561, 
              42.756648569606476
            ], 
            [
              -95.572233144418561, 
              42.756588737165558
            ], 
            [
              -95.572123890284857, 
              42.756588737165558
            ]
          ]
        ], 
        "type": "Polygon"
      }, 
      "properties": {
        "Seat Count": "", 
        "Number": "18", 
        "NCES_Type": "Open Office - Workstations", 
        "Workstations": "", 
        "Element": "Room", 
        "RevitId": 5669763, 
        "occupancyStatus": "Occupied", 
        "Building": "Main/Administration", 
        "Area_SF": 549.78999999999996, 
        "Name": "PURCHASING", 
        "NCES_Occupancy Status": "", 
        "NCES_Department": "Administration", 
        "Level": "LEVEL 2", 
        "Revit_UniqueId": "dad237cc-6968-4188-9f55-ae8359a05182-00568383"
      }, 
      "type": "Feature"
    }, 
    {
      "geometry": {
        "coordinates": [
          [
            [
              -95.572050052551347, 
              42.756588737165558
            ], 
            [
              -95.571940549877567, 
              42.756588737165558
            ], 
            [
              -95.571940549877567, 
              42.756647583648132
            ], 
            [
              -95.572050052551347, 
              42.756647583648132
            ], 
            [
              -95.572050052551347, 
              42.756588737165558
            ]
          ]
        ], 
        "type": "Polygon"
      }, 
      "properties": {
        "Seat Count": "", 
        "Number": "19", 
        "NCES_Type": "Open Office - Workstations", 
        "Workstations": "", 
        "Element": "Room", 
        "RevitId": 5669772, 
        "occupancyStatus": "Occupied", 
        "Building": "Main/Administration", 
        "Area_SF": 541.24000000000001, 
        "Name": "BUDGET", 
        "NCES_Occupancy Status": "", 
        "NCES_Department": "Administration", 
        "Level": "LEVEL 2", 
        "Revit_UniqueId": "dad237cc-6968-4188-9f55-ae8359a05182-0056838c"
      }, 
      "type": "Feature"
    }, 
    {
      "geometry": {
        "coordinates": [
          [
            [
              -95.571940549877567, 
              42.756647583648132
            ], 
            [
              -95.571940549877567, 
              42.756690307022815
            ], 
            [
              -95.571966741364321, 
              42.756690307022815
            ], 
            [
              -95.571966741364321, 
              42.756706790539305
            ], 
            [
              -95.572050052551347, 
              42.756706790539305
            ], 
            [
              -95.572050052551347, 
              42.756647583648132
            ], 
            [
              -95.571940549877567, 
              42.756647583648132
            ]
          ]
        ], 
        "type": "Polygon"
      }, 
      "properties": {
        "Seat Count": "", 
        "Number": "20", 
        "NCES_Type": "IT/Telecom Room", 
        "Workstations": "", 
        "Element": "Room", 
        "RevitId": 5669775, 
        "occupancyStatus": "Occupied", 
        "Building": "Main/Administration", 
        "Area_SF": 522.66999999999996, 
        "Name": "IT ADMIN", 
        "NCES_Occupancy Status": "", 
        "NCES_Department": "Administration", 
        "Level": "LEVEL 2", 
        "Revit_UniqueId": "dad237cc-6968-4188-9f55-ae8359a05182-0056838f"
      }, 
      "type": "Feature"
    }, 
    {
      "geometry": {
        "coordinates": [
          [
            [
              -95.572123890284857, 
              42.756648569606476
            ], 
            [
              -95.572123890284857, 
              42.756706304544963
            ], 
            [
              -95.572233144418561, 
              42.756706304544963
            ], 
            [
              -95.572233144418561, 
              42.756648569606476
            ], 
            [
              -95.572123890284857, 
              42.756648569606476
            ]
          ]
        ], 
        "type": "Polygon"
      }, 
      "properties": {
        "Seat Count": "", 
        "Number": "21", 
        "NCES_Type": "Open Office - Workstations", 
        "Workstations": "", 
        "Element": "Room", 
        "RevitId": 5669778, 
        "occupancyStatus": "Occupied", 
        "Building": "Main/Administration", 
        "Area_SF": 535.69000000000005, 
        "Name": "HR / PERSONNEL", 
        "NCES_Occupancy Status": "", 
        "NCES_Department": "Administration", 
        "Level": "LEVEL 2", 
        "Revit_UniqueId": "dad237cc-6968-4188-9f55-ae8359a05182-00568392"
      }, 
      "type": "Feature"
    }, 
    {
      "geometry": {
        "coordinates": [
          [
            [
              -95.572123890284857, 
              42.756706304544963
            ], 
            [
              -95.572123890284857, 
              42.756782288022507
            ], 
            [
              -95.572233144418561, 
              42.756782288022507
            ], 
            [
              -95.572233144418561, 
              42.756755002207669
            ], 
            [
              -95.572233144418561, 
              42.756705445769988
            ], 
            [
              -95.572233144418561, 
              42.756706304544963
            ], 
            [
              -95.572229383194482, 
              42.756706304544963
            ], 
            [
              -95.572123890284857, 
              42.756706304544963
            ]
          ]
        ], 
        "type": "Polygon"
      }, 
      "properties": {
        "Seat Count": "", 
        "Number": "22", 
        "NCES_Type": "Conference Room", 
        "Workstations": "", 
        "Element": "Room", 
        "RevitId": 5669781, 
        "occupancyStatus": "Occupied", 
        "Building": "Main/Administration", 
        "Area_SF": 841.86000000000001, 
        "Name": "J.T. MAY MEETING ROOM", 
        "NCES_Occupancy Status": "", 
        "NCES_Department": "Administration", 
        "Level": "LEVEL 2", 
        "Revit_UniqueId": "dad237cc-6968-4188-9f55-ae8359a05182-00568395"
      }, 
      "type": "Feature"
    }, 
    {
      "geometry": {
        "coordinates": [
          [
            [
              -95.571940408907238, 
              42.756755958319779
            ], 
            [
              -95.571940408907238, 
              42.756779309968131
            ], 
            [
              -95.572050052551347, 
              42.756779309968131
            ], 
            [
              -95.572050052551347, 
              42.756735353924178
            ], 
            [
              -95.571981566957845, 
              42.756735353924178
            ], 
            [
              -95.571959560636273, 
              42.756735353924178
            ], 
            [
              -95.571911542910556, 
              42.756735353924178
            ], 
            [
              -95.571911542910556, 
              42.756741550695345
            ], 
            [
              -95.571931165479995, 
              42.756755958319779
            ], 
            [
              -95.571940408907238, 
              42.756755958319779
            ]
          ]
        ], 
        "type": "Polygon"
      }, 
      "properties": {
        "Seat Count": "", 
        "Number": "23", 
        "NCES_Type": "Open Office - Workstations", 
        "Workstations": "", 
        "Element": "Room", 
        "RevitId": 5669784, 
        "occupancyStatus": "Occupied", 
        "Building": "Main/Administration", 
        "Area_SF": 433.04000000000002, 
        "Name": "MH NURSING ADMIN", 
        "NCES_Occupancy Status": "", 
        "NCES_Department": "Administration", 
        "Level": "LEVEL 2", 
        "Revit_UniqueId": "dad237cc-6968-4188-9f55-ae8359a05182-00568398"
      }, 
      "type": "Feature"
    }, 
    {
      "geometry": {
        "coordinates": [
          [
            [
              -95.571940408907238, 
              42.756836831753311
            ], 
            [
              -95.571992424792981, 
              42.756836831753311
            ], 
            [
              -95.571992424792981, 
              42.756835458126943
            ], 
            [
              -95.571996186017074, 
              42.756835458126943
            ], 
            [
              -95.572032591560173, 
              42.756835458126943
            ], 
            [
              -95.572032591560173, 
              42.756820087536695
            ], 
            [
              -95.572050052551347, 
              42.756820087536695
            ], 
            [
              -95.572050052551347, 
              42.756779309968131
            ], 
            [
              -95.571940408907238, 
              42.756779309968131
            ], 
            [
              -95.571940408907238, 
              42.756836831753311
            ]
          ]
        ], 
        "type": "Polygon"
      }, 
      "properties": {
        "Seat Count": "", 
        "Number": "24", 
        "NCES_Type": "Open Office - Workstations", 
        "Workstations": "", 
        "Element": "Room", 
        "RevitId": 5669787, 
        "occupancyStatus": "Occupied", 
        "Building": "Main/Administration", 
        "Area_SF": 506.10000000000002, 
        "Name": "NURSING UNIT OFFICE", 
        "NCES_Occupancy Status": "", 
        "NCES_Department": "Administration", 
        "Level": "LEVEL 2", 
        "Revit_UniqueId": "dad237cc-6968-4188-9f55-ae8359a05182-0056839b"
      }, 
      "type": "Feature"
    }, 
    {
      "geometry": {
        "coordinates": [
          [
            [
              -95.572179416048343, 
              42.756836317326531
            ], 
            [
              -95.572179416048343, 
              42.756837004139719
            ], 
            [
              -95.572233144418561, 
              42.756837004139719
            ], 
            [
              -95.572233144418561, 
              42.756782288022507
            ], 
            [
              -95.572123890284857, 
              42.756782288022507
            ], 
            [
              -95.572123890284857, 
              42.756836317326531
            ], 
            [
              -95.572179416048343, 
              42.756836317326531
            ]
          ]
        ], 
        "type": "Polygon"
      }, 
      "properties": {
        "Seat Count": "", 
        "Number": "25", 
        "NCES_Type": "Open Office - Workstations", 
        "Workstations": "", 
        "Element": "Room", 
        "RevitId": 5669790, 
        "occupancyStatus": "Occupied", 
        "Building": "Main/Administration", 
        "Area_SF": 505.52999999999997, 
        "Name": "BUSINESS MANAGER", 
        "NCES_Occupancy Status": "", 
        "NCES_Department": "Administration", 
        "Level": "LEVEL 2", 
        "Revit_UniqueId": "dad237cc-6968-4188-9f55-ae8359a05182-0056839e"
      }, 
      "type": "Feature"
    }, 
    {
      "geometry": {
        "coordinates": [
          [
            [
              [
                -95.572128801567189, 
                42.756891666436417
              ], 
              [
                -95.572179416048343, 
                42.756891666436417
              ], 
              [
                -95.572179416048343, 
                42.756837004139719
              ], 
              [
                -95.572179416048343, 
                42.756836317326531
              ], 
              [
                -95.572123890284857, 
                42.756836317326531
              ], 
              [
                -95.572123890284857, 
                42.756782288022507
              ], 
              [
                -95.572123890284857, 
                42.756706304544963
              ], 
              [
                -95.572123890284857, 
                42.756648569606476
              ], 
              [
                -95.572123890284857, 
                42.756588737165558
              ], 
              [
                -95.572123890284857, 
                42.756588050352370
              ], 
              [
                -95.572050052551347, 
                42.756588050352370
              ], 
              [
                -95.572050052551347, 
                42.756588737165558
              ], 
              [
                -95.572050052551347, 
                42.756647583648132
              ], 
              [
                -95.572050052551347, 
                42.756706790539305
              ], 
              [
                -95.572050052551347, 
                42.756735353924178
              ], 
              [
                -95.572050052551347, 
                42.756779309968131
              ], 
              [
                -95.572050052551347, 
                42.756820087536695
              ], 
              [
                -95.572050052551347, 
                42.756835458126943
              ], 
              [
                -95.572050052551347, 
                42.756897079003004
              ], 
              [
                -95.572060765464713, 
                42.756904944824697
              ], 
              [
                -95.572066578132279, 
                42.756904944824697
              ], 
              [
                -95.572107287131644, 
                42.756904944824697
              ], 
              [
                -95.572110716969192, 
                42.756904944824697
              ], 
              [
                -95.572128801567189, 
                42.756891666436417
              ]
            ]
          ], 
          [
            [
              [
                -95.572155095382072, 
                42.756853945531660
              ], 
              [
                -95.572155095382072, 
                42.756873351418108
              ], 
              [
                -95.572131014674412, 
                42.756873351418108
              ], 
              [
                -95.572131014674412, 
                42.756853945531660
              ], 
              [
                -95.572155095382072, 
                42.756853945531660
              ]
            ]
          ]
        ], 
        "type": "MultiPolygon"
      }, 
      "properties": {
        "Seat Count": "", 
        "Number": "26", 
        "NCES_Type": "Corridor/Hallway", 
        "Workstations": "", 
        "Element": "Room", 
        "RevitId": 5669822, 
        "occupancyStatus": "Occupied", 
        "Building": "Main/Administration", 
        "Area_SF": 2279.8099999999999, 
        "Name": "CORRIDOR", 
        "NCES_Occupancy Status": "", 
        "NCES_Department": "Administration", 
        "Level": "LEVEL 2", 
        "Revit_UniqueId": "dad237cc-6968-4188-9f55-ae8359a05182-005683be"
      }, 
      "type": "Feature"
    }, 
    {
      "geometry": {
        "coordinates": [
          [
            [
              -95.571966741364321, 
              42.756706790539305
            ], 
            [
              -95.571959560636273, 
              42.756706790539305
            ], 
            [
              -95.571959560636273, 
              42.756722304473627
            ], 
            [
              -95.571981566957845, 
              42.756722304473627
            ], 
            [
              -95.571981566957845, 
              42.756735353924178
            ], 
            [
              -95.572050052551347, 
              42.756735353924178
            ], 
            [
              -95.572050052551347, 
              42.756706790539305
            ], 
            [
              -95.571966741364321, 
              42.756706790539305
            ]
          ]
        ], 
        "type": "Polygon"
      }, 
      "properties": {
        "Seat Count": "", 
        "Number": "27", 
        "NCES_Type": "Stair", 
        "Workstations": "", 
        "Element": "Room", 
        "RevitId": 5669825, 
        "occupancyStatus": "Occupied", 
        "Building": "Main/Administration", 
        "Area_SF": 185.83000000000001, 
        "Name": "STAIR HALL", 
        "NCES_Occupancy Status": "", 
        "NCES_Department": "Administration", 
        "Level": "LEVEL 2", 
        "Revit_UniqueId": "dad237cc-6968-4188-9f55-ae8359a05182-005683c1"
      }, 
      "type": "Feature"
    }, 
    {
      "geometry": {
        "coordinates": [
          [
            [
              -95.572050052551347, 
              42.756835458126943
            ], 
            [
              -95.572050052551347, 
              42.756820087536695
            ], 
            [
              -95.572032591560173, 
              42.756820087536695
            ], 
            [
              -95.572032591560173, 
              42.756835458126943
            ], 
            [
              -95.572050052551347, 
              42.756835458126943
            ]
          ]
        ], 
        "type": "Polygon"
      }, 
      "properties": {
        "Seat Count": "", 
        "Number": "33", 
        "NCES_Type": "General Storage", 
        "Workstations": "", 
        "Element": "Room", 
        "RevitId": 5669882, 
        "occupancyStatus": "Occupied", 
        "Building": "Main/Administration", 
        "Area_SF": 17.760000000000002, 
        "Name": "CLOSET", 
        "NCES_Occupancy Status": "", 
        "NCES_Department": "Administration", 
        "Level": "LEVEL 2", 
        "Revit_UniqueId": "dad237cc-6968-4188-9f55-ae8359a05182-005683fa"
      }, 
      "type": "Feature"
    }, 
    {
      "geometry": {
        "coordinates": [
          [
            [
              -95.572155095382072, 
              42.756873351418108
            ], 
            [
              -95.572155095382072, 
              42.756853945531660
            ], 
            [
              -95.572131014674412, 
              42.756853945531660
            ], 
            [
              -95.572131014674412, 
              42.756873351418108
            ], 
            [
              -95.572155095382072, 
              42.756873351418108
            ]
          ]
        ], 
        "type": "Polygon"
      }, 
      "properties": {
        "Seat Count": "", 
        "Number": "36", 
        "NCES_Type": "Elevator/Lift", 
        "Workstations": "", 
        "Element": "Room", 
        "RevitId": 5669908, 
        "occupancyStatus": "Occupied", 
        "Building": "Main/Administration", 
        "Area_SF": 35.899999999999999, 
        "Name": "ELEVATOR", 
        "NCES_Occupancy Status": "", 
        "NCES_Department": "Administration", 
        "Level": "LEVEL 2", 
        "Revit_UniqueId": "dad237cc-6968-4188-9f55-ae8359a05182-00568414"
      }, 
      "type": "Feature"
    }, 
    {
      "geometry": {
        "coordinates": [
          [
            [
              -95.572123890284857, 
              42.756588050352370
            ], 
            [
              -95.572123890284857, 
              42.756529225896713
            ], 
            [
              -95.572050052551347, 
              42.756529225896713
            ], 
            [
              -95.572050052551347, 
              42.756588050352370
            ], 
            [
              -95.572123890284857, 
              42.756588050352370
            ]
          ]
        ], 
        "type": "Polygon"
      }, 
      "properties": {
        "Seat Count": "", 
        "Number": "37", 
        "NCES_Type": "Private Office - Enclosed", 
        "Workstations": "", 
        "Element": "Room", 
        "RevitId": 5669917, 
        "occupancyStatus": "Occupied", 
        "Building": "Main/Administration", 
        "Area_SF": 363.07999999999998, 
        "Name": "SUPERINTENDENT OFFICE", 
        "NCES_Occupancy Status": "", 
        "NCES_Department": "Administration", 
        "Level": "LEVEL 2", 
        "Revit_UniqueId": "dad237cc-6968-4188-9f55-ae8359a05182-0056841d"
      }, 
      "type": "Feature"
    }, 
    {
      "geometry": {
        "coordinates": [
          [
            [
              -95.571940549877567, 
              42.756706790539305
            ], 
            [
              -95.571936808236600, 
              42.756706790539305
            ], 
            [
              -95.571936808236600, 
              42.756705416912929
            ], 
            [
              -95.571932693272473, 
              42.756705416912929
            ], 
            [
              -95.571911542910556, 
              42.756720946299744
            ], 
            [
              -95.571911542910556, 
              42.756735353924178
            ], 
            [
              -95.571959560636273, 
              42.756735353924178
            ], 
            [
              -95.571959560636273, 
              42.756722304473627
            ], 
            [
              -95.571959560636273, 
              42.756706790539305
            ], 
            [
              -95.571940549877567, 
              42.756706790539305
            ]
          ]
        ], 
        "type": "Polygon"
      }, 
      "properties": {
        "Seat Count": "", 
        "Number": "38", 
        "NCES_Type": "Restroom - Bath/Shower", 
        "Workstations": "", 
        "Element": "Room", 
        "RevitId": 5670178, 
        "occupancyStatus": "Occupied", 
        "Building": "Main/Administration", 
        "Area_SF": 92.349999999999994, 
        "Name": "BATH", 
        "NCES_Occupancy Status": "", 
        "NCES_Department": "Administration", 
        "Level": "LEVEL 2", 
        "Revit_UniqueId": "dad237cc-6968-4188-9f55-ae8359a05182-00568522"
      }, 
      "type": "Feature"
    }, 
    {
      "geometry": {
        "coordinates": [
          [
            [
              -95.571992424792981, 
              42.756891666436417
            ], 
            [
              -95.572042680866716, 
              42.756891666436417
            ], 
            [
              -95.572050052551347, 
              42.756897079003004
            ], 
            [
              -95.572050052551347, 
              42.756835458126943
            ], 
            [
              -95.572032591560173, 
              42.756835458126943
            ], 
            [
              -95.571992424792981, 
              42.756835458126943
            ], 
            [
              -95.571992424792981, 
              42.756891666436417
            ]
          ]
        ], 
        "type": "Polygon"
      }, 
      "properties": {
        "Seat Count": "", 
        "Number": "344", 
        "NCES_Type": "Single Stall Restroom", 
        "Workstations": "", 
        "Element": "Room", 
        "RevitId": 6023131, 
        "occupancyStatus": "Occupied", 
        "Building": "Main/Administration", 
        "Area_SF": 259.16000000000003, 
        "Name": "STAFF RR'S & AHU", 
        "NCES_Occupancy Status": "", 
        "NCES_Department": "Administration", 
        "Level": "LEVEL 2", 
        "Revit_UniqueId": "568ae92b-a280-451e-8461-f6d387948176-005be7db"
      }, 
      "type": "Feature"
    }, 
    {
      "geometry": {
        "coordinates": [
          [
            [
              -95.572066578132279, 
              42.756994100477655
            ], 
            [
              -95.572050891848960, 
              42.757005617933579
            ], 
            [
              -95.571876377124283, 
              42.757005617933579
            ], 
            [
              -95.571876377124283, 
              42.757035072144227
            ], 
            [
              -95.571936555183143, 
              42.757035072144227
            ], 
            [
              -95.571936555183143, 
              42.757035758957414
            ], 
            [
              -95.572014309158206, 
              42.757035758957414
            ], 
            [
              -95.572049387042256, 
              42.757035758957414
            ], 
            [
              -95.572051147925521, 
              42.757035758957414
            ], 
            [
              -95.572052651991172, 
              42.757036863298666
            ], 
            [
              -95.572068718853899, 
              42.757048660190250
            ], 
            [
              -95.572068718853899, 
              42.757052242473904
            ], 
            [
              -95.572068718853899, 
              42.757112066501307
            ], 
            [
              -95.572068718853899, 
              42.757150348903224
            ], 
            [
              -95.572069654264141, 
              42.757150348903224
            ], 
            [
              -95.572069654264141, 
              42.757151736908256
            ], 
            [
              -95.572069654264141, 
              42.757210458456541
            ], 
            [
              -95.572069654264141, 
              42.757245195238887
            ], 
            [
              -95.572069654264141, 
              42.757264492157333
            ], 
            [
              -95.572069654264141, 
              42.757295856626193
            ], 
            [
              -95.572069654264141, 
              42.757348004733501
            ], 
            [
              -95.572104480900919, 
              42.757348004733501
            ], 
            [
              -95.572104480900919, 
              42.757245195238887
            ], 
            [
              -95.572104480900919, 
              42.757210458456541
            ], 
            [
              -95.572104480900919, 
              42.757151736908256
            ], 
            [
              -95.572104480900919, 
              42.757150348903224
            ], 
            [
              -95.572105416311160, 
              42.757150348903224
            ], 
            [
              -95.572105416311160, 
              42.757049458889867
            ], 
            [
              -95.572125010444566, 
              42.757035072144227
            ], 
            [
              -95.572143856874519, 
              42.757035072144227
            ], 
            [
              -95.572163411746118, 
              42.757035072144227
            ], 
            [
              -95.572237351442993, 
              42.757035072144227
            ], 
            [
              -95.572275649754303, 
              42.757035072144227
            ], 
            [
              -95.572275649754303, 
              42.757005617933579
            ], 
            [
              -95.572122973414949, 
              42.757005617933579
            ], 
            [
              -95.572107287131644, 
              42.756994100477655
            ], 
            [
              -95.572107287131644, 
              42.756904944824697
            ], 
            [
              -95.572066578132279, 
              42.756904944824697
            ], 
            [
              -95.572066578132279, 
              42.756994100477655
            ]
          ]
        ], 
        "type": "Polygon"
      }, 
      "properties": {
        "Seat Count": "", 
        "Number": "57", 
        "NCES_Type": "Corridor/Hallway", 
        "Workstations": "", 
        "Element": "Room", 
        "RevitId": 6034322, 
        "occupancyStatus": "Occupied", 
        "Building": "Main/Administration", 
        "Area_SF": 2286.6399999999999, 
        "Name": "CORRIDOR", 
        "NCES_Occupancy Status": "", 
        "NCES_Department": "General", 
        "Level": "LEVEL 2", 
        "Revit_UniqueId": "2cc3fb41-b675-463a-99e2-3d1988e37f16-005c1392"
      }, 
      "type": "Feature"
    }
  ], 
  "type": "FeatureCollection", 
  "name": "Main/Administration - LEVEL 2"
}