{
  "name": "633004_SarpyMP Courthouse_R26 - BASEMENT Stairs", 
  "features": [
    {
      "geometry": {
        "coordinates": [
          386.25912985701433, 
          -288.00511213307630
        ], 
        "type": "Point"
      }, 
      "properties": {
        "Name": "Stair", 
        "Level": "BASEMENT", 
        "RevitId": 5715845, 
        "Type": "Stair", 
        "Family": "Assembled Stair", 
        "Revit_UniqueId": "b1bb82b6-62c2-4f80-8ffb-291fa59f5906-00573785", 
        "interactive": false, 
        "Element": "Stair", 
        "kind": "stair"
      }, 
      "type": "Feature"
    }, 
    {
      "geometry": {
        "coordinates": [
          174.65871626146253, 
          -300.37179353019752
        ], 
        "type": "Point"
      }, 
      "properties": {
        "Name": "Stair", 
        "Level": "BASEMENT", 
        "RevitId": 5745452, 
        "Type": "Stair", 
        "Family": "Assembled Stair", 
        "Revit_UniqueId": "3580b227-c831-478f-b2ec-6e80d1e4ee75-0057ab2c", 
        "interactive": false, 
        "Element": "Stair", 
        "kind": "stair"
      }, 
      "type": "Feature"
    }, 
    {
      "geometry": {
        "coordinates": [
          331.16590367598462, 
          -263.17435816432038
        ], 
        "type": "Point"
      }, 
      "properties": {
        "Name": "Stair", 
        "Level": "BASEMENT", 
        "RevitId": 5782537, 
        "Type": "Stair", 
        "Family": "Cast-In-Place Stair", 
        "Revit_UniqueId": "ed0426dd-57a9-4be0-9337-75d177aa7e1e-00583c09", 
        "interactive": false, 
        "Element": "Stair", 
        "kind": "stair"
      }, 
      "type": "Feature"
    }, 
    {
      "geometry": {
        "coordinates": [
          302.64949380537314, 
          -303.62180731702426
        ], 
        "type": "Point"
      }, 
      "properties": {
        "Name": "Stair", 
        "Level": "BASEMENT", 
        "RevitId": 5783155, 
        "Type": "Stair", 
        "Family": "Cast-In-Place Stair", 
        "Revit_UniqueId": "ed0426dd-57a9-4be0-9337-75d177aa7e1e-00583e73", 
        "interactive": false, 
        "Element": "Stair", 
        "kind": "stair"
      }, 
      "type": "Feature"
    }, 
    {
      "geometry": {
        "coordinates": [
          134.18201355449969, 
          -87.830126863530836
        ], 
        "type": "Point"
      }, 
      "properties": {
        "Name": "Stair", 
        "Level": "BASEMENT", 
        "RevitId": 5805014, 
        "Type": "Stair", 
        "Family": "Assembled Stair", 
        "Revit_UniqueId": "87ff5161-91e2-445e-982c-4ced2c71f024-005893d6", 
        "interactive": false, 
        "Element": "Stair", 
        "kind": "stair"
      }, 
      "type": "Feature"
    }, 
    {
      "geometry": {
        "coordinates": [
          23.554715664028436, 
          -80.945788117546613
        ], 
        "type": "Point"
      }, 
      "properties": {
        "Name": "Stair", 
        "Level": "BASEMENT", 
        "RevitId": 5805680, 
        "Type": "Stair", 
        "Family": "Assembled Stair", 
        "Revit_UniqueId": "87ff5161-91e2-445e-982c-4ced2c71f024-00589670", 
        "interactive": false, 
        "Element": "Stair", 
        "kind": "stair"
      }, 
      "type": "Feature"
    }, 
    {
      "geometry": {
        "coordinates": [
          91.820268248388970, 
          -56.862454784213185
        ], 
        "type": "Point"
      }, 
      "properties": {
        "Name": "Stair", 
        "Level": "BASEMENT", 
        "RevitId": 5839744, 
        "Type": "Stair", 
        "Family": "Assembled Stair", 
        "Revit_UniqueId": "f5b64948-bc66-46c9-bd2a-91d13474d2aa-00591b80", 
        "interactive": false, 
        "Element": "Stair", 
        "kind": "stair"
      }, 
      "type": "Feature"
    }, 
    {
      "geometry": {
        "coordinates": [
          386.22736115801729, 
          -287.96856642541161
        ], 
        "type": "Point"
      }, 
      "properties": {
        "Name": "Stair", 
        "Level": "BASEMENT", 
        "RevitId": 5715937, 
        "Type": "Stair", 
        "Family": "Non-Monolithic Run", 
        "Revit_UniqueId": "b1bb82b6-62c2-4f80-8ffb-291fa59f5906-005737e1", 
        "interactive": false, 
        "Element": "Stair", 
        "kind": "stair"
      }, 
      "type": "Feature"
    }, 
    {
      "geometry": {
        "coordinates": [
          394.86547170639233, 
          -297.90557589834475
        ], 
        "type": "Point"
      }, 
      "properties": {
        "Name": "Stair", 
        "Level": "BASEMENT", 
        "RevitId": 5716564, 
        "Type": "Stair", 
        "Family": "Non-Monolithic Run", 
        "Revit_UniqueId": "ab355745-5367-4068-b352-6b662272ec02-00573a54", 
        "interactive": false, 
        "Element": "Stair", 
        "kind": "stair"
      }, 
      "type": "Feature"
    }, 
    {
      "geometry": {
        "coordinates": [
          174.70713979896937, 
          -300.37179353019752
        ], 
        "type": "Point"
      }, 
      "properties": {
        "Name": "Stair", 
        "Level": "BASEMENT", 
        "RevitId": 5745488, 
        "Type": "Stair", 
        "Family": "Non-Monolithic Run", 
        "Revit_UniqueId": "3580b227-c831-478f-b2ec-6e80d1e4ee75-0057ab50", 
        "interactive": false, 
        "Element": "Stair", 
        "kind": "stair"
      }, 
      "type": "Feature"
    }, 
    {
      "geometry": {
        "coordinates": [
          173.89463979896937, 
          -305.78846019686421
        ], 
        "type": "Point"
      }, 
      "properties": {
        "Name": "Stair", 
        "Level": "BASEMENT", 
        "RevitId": 5745545, 
        "Type": "Stair", 
        "Family": "Non-Monolithic Run", 
        "Revit_UniqueId": "3580b227-c831-478f-b2ec-6e80d1e4ee75-0057ab89", 
        "interactive": false, 
        "Element": "Stair", 
        "kind": "stair"
      }, 
      "type": "Feature"
    }, 
    {
      "geometry": {
        "coordinates": [
          331.16590367598462, 
          -263.14310816432038
        ], 
        "type": "Point"
      }, 
      "properties": {
        "Name": "Stair", 
        "Level": "BASEMENT", 
        "RevitId": 5782608, 
        "Type": "Stair", 
        "Family": "Monolithic Run", 
        "Revit_UniqueId": "ed0426dd-57a9-4be0-9337-75d177aa7e1e-00583c50", 
        "interactive": false, 
        "Element": "Stair", 
        "kind": "stair"
      }, 
      "type": "Feature"
    }, 
    {
      "geometry": {
        "coordinates": [
          300.64949380537314, 
          -303.26765443718398
        ], 
        "type": "Point"
      }, 
      "properties": {
        "Name": "Stair", 
        "Level": "BASEMENT", 
        "RevitId": 5783229, 
        "Type": "Stair", 
        "Family": "Monolithic Run", 
        "Revit_UniqueId": "ed0426dd-57a9-4be0-9337-75d177aa7e1e-00583ebd", 
        "interactive": false, 
        "Element": "Stair", 
        "kind": "stair"
      }, 
      "type": "Feature"
    }, 
    {
      "geometry": {
        "coordinates": [
          134.23409688783303, 
          -87.830126863530836
        ], 
        "type": "Point"
      }, 
      "properties": {
        "Name": "Stair", 
        "Level": "BASEMENT", 
        "RevitId": 5805015, 
        "Type": "Stair", 
        "Family": "Non-Monolithic Run", 
        "Revit_UniqueId": "87ff5161-91e2-445e-982c-4ced2c71f024-005893d7", 
        "interactive": false, 
        "Element": "Stair", 
        "kind": "stair"
      }, 
      "type": "Feature"
    }, 
    {
      "geometry": {
        "coordinates": [
          134.12993022116632, 
          -92.330126863530722
        ], 
        "type": "Point"
      }, 
      "properties": {
        "Name": "Stair", 
        "Level": "BASEMENT", 
        "RevitId": 5805018, 
        "Type": "Stair", 
        "Family": "Non-Monolithic Run", 
        "Revit_UniqueId": "87ff5161-91e2-445e-982c-4ced2c71f024-005893da", 
        "interactive": false, 
        "Element": "Stair", 
        "kind": "stair"
      }, 
      "type": "Feature"
    }, 
    {
      "geometry": {
        "coordinates": [
          23.504123934415929, 
          -80.945788117546613
        ], 
        "type": "Point"
      }, 
      "properties": {
        "Name": "Stair", 
        "Level": "BASEMENT", 
        "RevitId": 5805742, 
        "Type": "Stair", 
        "Family": "Non-Monolithic Run", 
        "Revit_UniqueId": "87ff5161-91e2-445e-982c-4ced2c71f024-005896ae", 
        "interactive": false, 
        "Element": "Stair", 
        "kind": "stair"
      }, 
      "type": "Feature"
    }, 
    {
      "geometry": {
        "coordinates": [
          23.608290601082615, 
          -85.276235507489901
        ], 
        "type": "Point"
      }, 
      "properties": {
        "Name": "Stair", 
        "Level": "BASEMENT", 
        "RevitId": 5806002, 
        "Type": "Stair", 
        "Family": "Non-Monolithic Run", 
        "Revit_UniqueId": "87ff5161-91e2-445e-982c-4ced2c71f024-005897b2", 
        "interactive": false, 
        "Element": "Stair", 
        "kind": "stair"
      }, 
      "type": "Feature"
    }, 
    {
      "geometry": {
        "coordinates": [
          91.820268248388970, 
          -56.914538117546499
        ], 
        "type": "Point"
      }, 
      "properties": {
        "Name": "Stair", 
        "Level": "BASEMENT", 
        "RevitId": 5839788, 
        "Type": "Stair", 
        "Family": "Non-Monolithic Run", 
        "Revit_UniqueId": "f5b64948-bc66-46c9-bd2a-91d13474d2aa-00591bac", 
        "interactive": false, 
        "Element": "Stair", 
        "kind": "stair"
      }, 
      "type": "Feature"
    }, 
    {
      "geometry": {
        "coordinates": [
          390.53958248398618, 
          -292.92920960375091
        ], 
        "type": "Point"
      }, 
      "properties": {
        "Name": "Stair", 
        "Level": "BASEMENT", 
        "RevitId": 5716566, 
        "Type": "Stair", 
        "Family": "Non-Monolithic Landing", 
        "Revit_UniqueId": "ab355745-5367-4068-b352-6b662272ec02-00573a56", 
        "interactive": false, 
        "Element": "Stair", 
        "kind": "stair"
      }, 
      "type": "Feature"
    }, 
    {
      "geometry": {
        "coordinates": [
          168.38422313230271, 
          -303.08012686353084
        ], 
        "type": "Point"
      }, 
      "properties": {
        "Name": "Stair", 
        "Level": "BASEMENT", 
        "RevitId": 5745547, 
        "Type": "Stair", 
        "Family": "Non-Monolithic Landing", 
        "Revit_UniqueId": "3580b227-c831-478f-b2ec-6e80d1e4ee75-0057ab8b", 
        "interactive": false, 
        "Element": "Stair", 
        "kind": "stair"
      }, 
      "type": "Feature"
    }, 
    {
      "geometry": {
        "coordinates": [
          336.03609977671340, 
          -257.74182584725918
        ], 
        "type": "Point"
      }, 
      "properties": {
        "Name": "Stair", 
        "Level": "BASEMENT", 
        "RevitId": 5782712, 
        "Type": "Stair", 
        "Family": "Monolithic Landing", 
        "Revit_UniqueId": "ed0426dd-57a9-4be0-9337-75d177aa7e1e-00583cb8", 
        "interactive": false, 
        "Element": "Stair", 
        "kind": "stair"
      }, 
      "type": "Feature"
    }, 
    {
      "geometry": {
        "coordinates": [
          300.64949380537314, 
          -308.03846019686455
        ], 
        "type": "Point"
      }, 
      "properties": {
        "Name": "Stair", 
        "Level": "BASEMENT", 
        "RevitId": 5783347, 
        "Type": "Stair", 
        "Family": "Monolithic Landing", 
        "Revit_UniqueId": "ed0426dd-57a9-4be0-9337-75d177aa7e1e-00583f33", 
        "interactive": false, 
        "Element": "Stair", 
        "kind": "stair"
      }, 
      "type": "Feature"
    }, 
    {
      "geometry": {
        "coordinates": [
          141.58769162283386, 
          -90.080126863530779
        ], 
        "type": "Point"
      }, 
      "properties": {
        "Name": "Stair", 
        "Level": "BASEMENT", 
        "RevitId": 5805020, 
        "Type": "Stair", 
        "Family": "Non-Monolithic Landing", 
        "Revit_UniqueId": "87ff5161-91e2-445e-982c-4ced2c71f024-005893dc", 
        "interactive": false, 
        "Element": "Stair", 
        "kind": "stair"
      }, 
      "type": "Feature"
    }, 
    {
      "geometry": {
        "coordinates": [
          16.129123934415929, 
          -83.111011812518257
        ], 
        "type": "Point"
      }, 
      "properties": {
        "Name": "Stair", 
        "Level": "BASEMENT", 
        "RevitId": 5806004, 
        "Type": "Stair", 
        "Family": "Non-Monolithic Landing", 
        "Revit_UniqueId": "87ff5161-91e2-445e-982c-4ced2c71f024-005897b4", 
        "interactive": false, 
        "Element": "Stair", 
        "kind": "stair"
      }, 
      "type": "Feature"
    }
  ], 
  "type": "FeatureCollection"
}