{
  "type": "FeatureCollection", 
  "features": [
    {
      "type": "Feature", 
      "geometry": {
        "type": "Point", 
        "coordinates": [
          -95.576052206781668, 
          42.758619397060130
        ]
      }, 
      "properties": {
        "bearing_deg": 270.0, 
        "RevitId": 5494566, 
        "Revit_UniqueId": "044bd380-87e3-47df-8ffd-b8d0610e1568-0053d726", 
        "Name": "Door", 
        "kind": "door", 
        "Type": "Door", 
        "Family": "Door-Single(CE)", 
        "Level": "LEVEL 1", 
        "interactive": false, 
        "Element": "Door"
      }
    }, 
    {
      "type": "Feature", 
      "geometry": {
        "type": "Point", 
        "coordinates": [
          -95.576005504411128, 
          42.758618710246942
        ]
      }, 
      "properties": {
        "bearing_deg": 270.0, 
        "RevitId": 5494567, 
        "Revit_UniqueId": "044bd380-87e3-47df-8ffd-b8d0610e1568-0053d727", 
        "Name": "Door", 
        "kind": "door", 
        "Type": "Door", 
        "Family": "Door-Single(CE)", 
        "Level": "LEVEL 1", 
        "interactive": false, 
        "Element": "Door"
      }
    }, 
    {
      "type": "Feature", 
      "geometry": {
        "type": "Point", 
        "coordinates": [
          -95.575406518880413, 
          42.758619048239218
        ]
      }, 
      "properties": {
        "bearing_deg": 90.0, 
        "RevitId": 5494570, 
        "Revit_UniqueId": "044bd380-87e3-47df-8ffd-b8d0610e1568-0053d72a", 
        "Name": "Door", 
        "kind": "door", 
        "Type": "Door", 
        "Family": "Door-Single(CE)", 
        "Level": "LEVEL 1", 
        "interactive": false, 
        "Element": "Door"
      }
    }, 
    {
      "type": "Feature", 
      "geometry": {
        "type": "Point", 
        "coordinates": [
          -95.575360215209756, 
          42.758619048239218
        ]
      }, 
      "properties": {
        "bearing_deg": 90.0, 
        "RevitId": 5494571, 
        "Revit_UniqueId": "044bd380-87e3-47df-8ffd-b8d0610e1568-0053d72b", 
        "Name": "Door", 
        "kind": "door", 
        "Type": "Door", 
        "Family": "Door-Single(CE)", 
        "Level": "LEVEL 1", 
        "interactive": false, 
        "Element": "Door"
      }
    }, 
    {
      "type": "Feature", 
      "geometry": {
        "type": "Point", 
        "coordinates": [
          -95.575461519924076, 
          42.758563447256790
        ]
      }, 
      "properties": {
        "bearing_deg": 180.0, 
        "RevitId": 5497684, 
        "Revit_UniqueId": "044bd380-87e3-47df-8ffd-b8d0610e1568-0053e354", 
        "Name": "Door", 
        "kind": "door", 
        "Type": "Door", 
        "Family": "Door-Single(CE)", 
        "Level": "LEVEL 1", 
        "interactive": false, 
        "Element": "Door"
      }
    }, 
    {
      "type": "Feature", 
      "geometry": {
        "type": "Point", 
        "coordinates": [
          -95.575708895881149, 
          42.758440701351965
        ]
      }, 
      "properties": {
        "bearing_deg": 180.0, 
        "RevitId": 5516766, 
        "Revit_UniqueId": "044bd380-87e3-47df-8ffd-b8d0610e1568-00542dde", 
        "Name": "Door", 
        "kind": "door", 
        "Type": "Door", 
        "Family": "Door-Single(CE)", 
        "Level": "LEVEL 1", 
        "interactive": false, 
        "Element": "Door"
      }
    }, 
    {
      "type": "Feature", 
      "geometry": {
        "type": "Point", 
        "coordinates": [
          -95.575464476421018, 
          42.758491904216498
        ]
      }, 
      "properties": {
        "bearing_deg": 180.0, 
        "RevitId": 5520788, 
        "Revit_UniqueId": "044bd380-87e3-47df-8ffd-b8d0610e1568-00543d94", 
        "Name": "Door", 
        "kind": "door", 
        "Type": "Door", 
        "Family": "Door-Double(CE)", 
        "Level": "LEVEL 1", 
        "interactive": false, 
        "Element": "Door"
      }
    }, 
    {
      "type": "Feature", 
      "geometry": {
        "type": "Point", 
        "coordinates": [
          -95.575591475285421, 
          42.758633113007690
        ]
      }, 
      "properties": {
        "bearing_deg": 180.0, 
        "RevitId": 5520829, 
        "Revit_UniqueId": "044bd380-87e3-47df-8ffd-b8d0610e1568-00543dbd", 
        "Name": "Door", 
        "kind": "door", 
        "Type": "Door", 
        "Family": "Door-Double(CE)", 
        "Level": "LEVEL 1", 
        "interactive": false, 
        "Element": "Door"
      }
    }, 
    {
      "type": "Feature", 
      "geometry": {
        "type": "Point", 
        "coordinates": [
          -95.575452978455672, 
          42.758607381479145
        ]
      }, 
      "properties": {
        "bearing_deg": 180.0, 
        "RevitId": 5521031, 
        "Revit_UniqueId": "044bd380-87e3-47df-8ffd-b8d0610e1568-00543e87", 
        "Name": "Door", 
        "kind": "door", 
        "Type": "Door", 
        "Family": "Door-Single(CE)", 
        "Level": "LEVEL 1", 
        "interactive": false, 
        "Element": "Door"
      }
    }, 
    {
      "type": "Feature", 
      "geometry": {
        "type": "Point", 
        "coordinates": [
          -95.575436140757247, 
          42.758597184686103
        ]
      }, 
      "properties": {
        "bearing_deg": 0.0, 
        "RevitId": 5521233, 
        "Revit_UniqueId": "044bd380-87e3-47df-8ffd-b8d0610e1568-00543f51", 
        "Name": "Door", 
        "kind": "door", 
        "Type": "Door", 
        "Family": "Door-Single(CE)", 
        "Level": "LEVEL 1", 
        "interactive": false, 
        "Element": "Door"
      }
    }, 
    {
      "type": "Feature", 
      "geometry": {
        "type": "Point", 
        "coordinates": [
          -95.575395293748130, 
          42.758610119667786
        ]
      }, 
      "properties": {
        "bearing_deg": 180.0, 
        "RevitId": 5521267, 
        "Revit_UniqueId": "044bd380-87e3-47df-8ffd-b8d0610e1568-00543f73", 
        "Name": "Door", 
        "kind": "door", 
        "Type": "Door", 
        "Family": "Door-Single(CE)", 
        "Level": "LEVEL 1", 
        "interactive": false, 
        "Element": "Door"
      }
    }, 
    {
      "type": "Feature", 
      "geometry": {
        "type": "Point", 
        "coordinates": [
          -95.575395293748130, 
          42.758625916371081
        ]
      }, 
      "properties": {
        "bearing_deg": 0.0, 
        "RevitId": 5521331, 
        "Revit_UniqueId": "044bd380-87e3-47df-8ffd-b8d0610e1568-00543fb3", 
        "Name": "Door", 
        "kind": "door", 
        "Type": "Door", 
        "Family": "Door-Single(CE)", 
        "Level": "LEVEL 1", 
        "interactive": false, 
        "Element": "Door"
      }
    }, 
    {
      "type": "Feature", 
      "geometry": {
        "type": "Point", 
        "coordinates": [
          -95.575332499773126, 
          42.758566194509541
        ]
      }, 
      "properties": {
        "bearing_deg": 180.0, 
        "RevitId": 5521373, 
        "Revit_UniqueId": "044bd380-87e3-47df-8ffd-b8d0610e1568-00543fdd", 
        "Name": "Door", 
        "kind": "door", 
        "Type": "Door", 
        "Family": "Door-Single(CE)", 
        "Level": "LEVEL 1", 
        "interactive": false, 
        "Element": "Door"
      }
    }, 
    {
      "type": "Feature", 
      "geometry": {
        "type": "Point", 
        "coordinates": [
          -95.575451419409518, 
          42.758640439015018
        ]
      }, 
      "properties": {
        "bearing_deg": 180.0, 
        "RevitId": 5522132, 
        "Revit_UniqueId": "044bd380-87e3-47df-8ffd-b8d0610e1568-005442d4", 
        "Name": "Door", 
        "kind": "door", 
        "Type": "Door", 
        "Family": "Door-Single(CE)", 
        "Level": "LEVEL 1", 
        "interactive": false, 
        "Element": "Door"
      }
    }, 
    {
      "type": "Feature", 
      "geometry": {
        "type": "Point", 
        "coordinates": [
          -95.575436140757247, 
          42.758640439015018
        ]
      }, 
      "properties": {
        "bearing_deg": 180.0, 
        "RevitId": 5522226, 
        "Revit_UniqueId": "044bd380-87e3-47df-8ffd-b8d0610e1568-00544332", 
        "Name": "Door", 
        "kind": "door", 
        "Type": "Door", 
        "Family": "Door-Single(CE)", 
        "Level": "LEVEL 1", 
        "interactive": false, 
        "Element": "Door"
      }
    }, 
    {
      "type": "Feature", 
      "geometry": {
        "type": "Point", 
        "coordinates": [
          -95.575726357198022, 
          42.758504438557161
        ]
      }, 
      "properties": {
        "bearing_deg": 270.0, 
        "RevitId": 5523392, 
        "Revit_UniqueId": "044bd380-87e3-47df-8ffd-b8d0610e1568-005447c0", 
        "Name": "Door", 
        "kind": "door", 
        "Type": "Door", 
        "Family": "Door-Double(CE)", 
        "Level": "LEVEL 1", 
        "interactive": false, 
        "Element": "Door"
      }
    }, 
    {
      "type": "Feature", 
      "geometry": {
        "type": "Point", 
        "coordinates": [
          -95.575726357198022, 
          42.758488584619428
        ]
      }, 
      "properties": {
        "bearing_deg": 270.0, 
        "RevitId": 5523500, 
        "Revit_UniqueId": "044bd380-87e3-47df-8ffd-b8d0610e1568-0054482c", 
        "Name": "Door", 
        "kind": "door", 
        "Type": "Door", 
        "Family": "Door-Double(CE)", 
        "Level": "LEVEL 1", 
        "interactive": false, 
        "Element": "Door"
      }
    }, 
    {
      "type": "Feature", 
      "geometry": {
        "type": "Point", 
        "coordinates": [
          -95.575727136721099, 
          42.758449962353829
        ]
      }, 
      "properties": {
        "bearing_deg": 270.0, 
        "RevitId": 5523570, 
        "Revit_UniqueId": "044bd380-87e3-47df-8ffd-b8d0610e1568-00544872", 
        "Name": "Door", 
        "kind": "door", 
        "Type": "Door", 
        "Family": "Door-Double(CE)", 
        "Level": "LEVEL 1", 
        "interactive": false, 
        "Element": "Door"
      }
    }, 
    {
      "type": "Feature", 
      "geometry": {
        "type": "Point", 
        "coordinates": [
          -95.575684107047366, 
          42.758484542927057
        ]
      }, 
      "properties": {
        "bearing_deg": 90.0, 
        "RevitId": 5523646, 
        "Revit_UniqueId": "044bd380-87e3-47df-8ffd-b8d0610e1568-005448be", 
        "Name": "Door", 
        "kind": "door", 
        "Type": "Door", 
        "Family": "Door-Double(CE)", 
        "Level": "LEVEL 1", 
        "interactive": false, 
        "Element": "Door"
      }
    }, 
    {
      "type": "Feature", 
      "geometry": {
        "type": "Point", 
        "coordinates": [
          -95.575684107047366, 
          42.758497536987768
        ]
      }, 
      "properties": {
        "bearing_deg": 90.0, 
        "RevitId": 5523748, 
        "Revit_UniqueId": "044bd380-87e3-47df-8ffd-b8d0610e1568-00544924", 
        "Name": "Door", 
        "kind": "door", 
        "Type": "Door", 
        "Family": "Door-Double(CE)", 
        "Level": "LEVEL 1", 
        "interactive": false, 
        "Element": "Door"
      }
    }, 
    {
      "type": "Feature", 
      "geometry": {
        "type": "Point", 
        "coordinates": [
          -95.575533723820442, 
          42.758630251286078
        ]
      }, 
      "properties": {
        "bearing_deg": 180.0, 
        "RevitId": 5523918, 
        "Revit_UniqueId": "044bd380-87e3-47df-8ffd-b8d0610e1568-005449ce", 
        "Name": "Door", 
        "kind": "door", 
        "Type": "Door", 
        "Family": "Door-Single(CE)", 
        "Level": "LEVEL 1", 
        "interactive": false, 
        "Element": "Door"
      }
    }, 
    {
      "type": "Feature", 
      "geometry": {
        "type": "Point", 
        "coordinates": [
          -95.575569764742312, 
          42.758630251286078
        ]
      }, 
      "properties": {
        "bearing_deg": 180.0, 
        "RevitId": 5524008, 
        "Revit_UniqueId": "044bd380-87e3-47df-8ffd-b8d0610e1568-00544a28", 
        "Name": "Door", 
        "kind": "door", 
        "Type": "Door", 
        "Family": "Door-Single(CE)", 
        "Level": "LEVEL 1", 
        "interactive": false, 
        "Element": "Door"
      }
    }, 
    {
      "type": "Feature", 
      "geometry": {
        "type": "Point", 
        "coordinates": [
          -95.575550886553870, 
          42.758607029008445
        ]
      }, 
      "properties": {
        "bearing_deg": 0.0, 
        "RevitId": 5524074, 
        "Revit_UniqueId": "044bd380-87e3-47df-8ffd-b8d0610e1568-00544a6a", 
        "Name": "Door", 
        "kind": "door", 
        "Type": "Door", 
        "Family": "Door-Single(CE)", 
        "Level": "LEVEL 1", 
        "interactive": false, 
        "Element": "Door"
      }
    }, 
    {
      "type": "Feature", 
      "geometry": {
        "type": "Point", 
        "coordinates": [
          -95.575510039544753, 
          42.758597184686103
        ]
      }, 
      "properties": {
        "bearing_deg": 0.0, 
        "RevitId": 5524264, 
        "Revit_UniqueId": "044bd380-87e3-47df-8ffd-b8d0610e1568-00544b28", 
        "Name": "Door", 
        "kind": "door", 
        "Type": "Door", 
        "Family": "Door-Single(CE)", 
        "Level": "LEVEL 1", 
        "interactive": false, 
        "Element": "Door"
      }
    }, 
    {
      "type": "Feature", 
      "geometry": {
        "type": "Point", 
        "coordinates": [
          -95.575510071908013, 
          42.758640439015018
        ]
      }, 
      "properties": {
        "bearing_deg": 180.0, 
        "RevitId": 5524322, 
        "Revit_UniqueId": "044bd380-87e3-47df-8ffd-b8d0610e1568-00544b62", 
        "Name": "Door", 
        "kind": "door", 
        "Type": "Door", 
        "Family": "Door-Single(CE)", 
        "Level": "LEVEL 1", 
        "interactive": false, 
        "Element": "Door"
      }
    }, 
    {
      "type": "Feature", 
      "geometry": {
        "type": "Point", 
        "coordinates": [
          -95.575596600347112, 
          42.758593979557894
        ]
      }, 
      "properties": {
        "bearing_deg": 0.0, 
        "RevitId": 5524364, 
        "Revit_UniqueId": "044bd380-87e3-47df-8ffd-b8d0610e1568-00544b8c", 
        "Name": "Door", 
        "kind": "door", 
        "Type": "Door", 
        "Family": "Door-Single(CE)", 
        "Level": "LEVEL 1", 
        "interactive": false, 
        "Element": "Door"
      }
    }, 
    {
      "type": "Feature", 
      "geometry": {
        "type": "Point", 
        "coordinates": [
          -95.575631660968128, 
          42.758616812836884
        ]
      }, 
      "properties": {
        "bearing_deg": 180.0, 
        "RevitId": 5524494, 
        "Revit_UniqueId": "044bd380-87e3-47df-8ffd-b8d0610e1568-00544c0e", 
        "Name": "Door", 
        "kind": "door", 
        "Type": "Door", 
        "Family": "Door-Single(CE)", 
        "Level": "LEVEL 1", 
        "interactive": false, 
        "Element": "Door"
      }
    }, 
    {
      "type": "Feature", 
      "geometry": {
        "type": "Point", 
        "coordinates": [
          -95.575616678301387, 
          42.758602824546173
        ]
      }, 
      "properties": {
        "bearing_deg": 270.0, 
        "RevitId": 5524687, 
        "Revit_UniqueId": "044bd380-87e3-47df-8ffd-b8d0610e1568-00544ccf", 
        "Name": "Door", 
        "kind": "door", 
        "Type": "Door", 
        "Family": "Door-Single(CE)", 
        "Level": "LEVEL 1", 
        "interactive": false, 
        "Element": "Door"
      }
    }, 
    {
      "type": "Feature", 
      "geometry": {
        "type": "Point", 
        "coordinates": [
          -95.575688213186069, 
          42.758626679467802
        ]
      }, 
      "properties": {
        "bearing_deg": 270.0, 
        "RevitId": 5524822, 
        "Revit_UniqueId": "044bd380-87e3-47df-8ffd-b8d0610e1568-00544d56", 
        "Name": "Door", 
        "kind": "door", 
        "Type": "Door", 
        "Family": "Door-Single(CE)", 
        "Level": "LEVEL 1", 
        "interactive": false, 
        "Element": "Door"
      }
    }, 
    {
      "type": "Feature", 
      "geometry": {
        "type": "Point", 
        "coordinates": [
          -95.575721249644786, 
          42.758626679467802
        ]
      }, 
      "properties": {
        "bearing_deg": 90.0, 
        "RevitId": 5524940, 
        "Revit_UniqueId": "044bd380-87e3-47df-8ffd-b8d0610e1568-00544dcc", 
        "Name": "Door", 
        "kind": "door", 
        "Type": "Door", 
        "Family": "Door-Single(CE)", 
        "Level": "LEVEL 1", 
        "interactive": false, 
        "Element": "Door"
      }
    }, 
    {
      "type": "Feature", 
      "geometry": {
        "type": "Point", 
        "coordinates": [
          -95.575650681331155, 
          42.758634119943991
        ]
      }, 
      "properties": {
        "bearing_deg": 0.0, 
        "RevitId": 5525030, 
        "Revit_UniqueId": "044bd380-87e3-47df-8ffd-b8d0610e1568-00544e26", 
        "Name": "Door", 
        "kind": "door", 
        "Type": "Door", 
        "Family": "Door-Single(CE)", 
        "Level": "LEVEL 1", 
        "interactive": false, 
        "Element": "Door"
      }
    }, 
    {
      "type": "Feature", 
      "geometry": {
        "type": "Point", 
        "coordinates": [
          -95.575780378147115, 
          42.758616812836884
        ]
      }, 
      "properties": {
        "bearing_deg": 180.0, 
        "RevitId": 5525233, 
        "Revit_UniqueId": "044bd380-87e3-47df-8ffd-b8d0610e1568-00544ef1", 
        "Name": "Door", 
        "kind": "door", 
        "Type": "Door", 
        "Family": "Door-Single(CE)", 
        "Level": "LEVEL 1", 
        "interactive": false, 
        "Element": "Door"
      }
    }, 
    {
      "type": "Feature", 
      "geometry": {
        "type": "Point", 
        "coordinates": [
          -95.575793162325539, 
          42.758602926001281
        ]
      }, 
      "properties": {
        "bearing_deg": 90.0, 
        "RevitId": 5525348, 
        "Revit_UniqueId": "044bd380-87e3-47df-8ffd-b8d0610e1568-00544f64", 
        "Name": "Door", 
        "kind": "door", 
        "Type": "Door", 
        "Family": "Door-Single(CE)", 
        "Level": "LEVEL 1", 
        "interactive": false, 
        "Element": "Door"
      }
    }, 
    {
      "type": "Feature", 
      "geometry": {
        "type": "Point", 
        "coordinates": [
          -95.575758161739472, 
          42.758634119943991
        ]
      }, 
      "properties": {
        "bearing_deg": 0.0, 
        "RevitId": 5525453, 
        "Revit_UniqueId": "044bd380-87e3-47df-8ffd-b8d0610e1568-00544fcd", 
        "Name": "Door", 
        "kind": "door", 
        "Type": "Door", 
        "Family": "Door-Single(CE)", 
        "Level": "LEVEL 1", 
        "interactive": false, 
        "Element": "Door"
      }
    }, 
    {
      "type": "Feature", 
      "geometry": {
        "type": "Point", 
        "coordinates": [
          -95.575704731415428, 
          42.758650260053884
        ]
      }, 
      "properties": {
        "bearing_deg": 0.0, 
        "RevitId": 5525515, 
        "Revit_UniqueId": "044bd380-87e3-47df-8ffd-b8d0610e1568-0054500b", 
        "Name": "Door", 
        "kind": "door", 
        "Type": "Door", 
        "Family": "Door-Double(CE)", 
        "Level": "LEVEL 1", 
        "interactive": false, 
        "Element": "Door"
      }
    }, 
    {
      "type": "Feature", 
      "geometry": {
        "type": "Point", 
        "coordinates": [
          -95.575704731415428, 
          42.758684784253127
        ]
      }, 
      "properties": {
        "bearing_deg": 0.0, 
        "RevitId": 5525569, 
        "Revit_UniqueId": "044bd380-87e3-47df-8ffd-b8d0610e1568-00545041", 
        "Name": "Door", 
        "kind": "door", 
        "Type": "Door", 
        "Family": "Door-Double(CE)", 
        "Level": "LEVEL 1", 
        "interactive": false, 
        "Element": "Door"
      }
    }, 
    {
      "type": "Feature", 
      "geometry": {
        "type": "Point", 
        "coordinates": [
          -95.575692248316955, 
          42.758560356597449
        ]
      }, 
      "properties": {
        "bearing_deg": 90.0, 
        "RevitId": 5525625, 
        "Revit_UniqueId": "044bd380-87e3-47df-8ffd-b8d0610e1568-00545079", 
        "Name": "Door", 
        "kind": "door", 
        "Type": "Door", 
        "Family": "Door-Single(CE)", 
        "Level": "LEVEL 1", 
        "interactive": false, 
        "Element": "Door"
      }
    }, 
    {
      "type": "Feature", 
      "geometry": {
        "type": "Point", 
        "coordinates": [
          -95.575757267478664, 
          42.758559440846540
        ]
      }, 
      "properties": {
        "bearing_deg": 270.0, 
        "RevitId": 5525693, 
        "Revit_UniqueId": "044bd380-87e3-47df-8ffd-b8d0610e1568-005450bd", 
        "Name": "Door", 
        "kind": "door", 
        "Type": "Door", 
        "Family": "Door-Single(CE)", 
        "Level": "LEVEL 1", 
        "interactive": false, 
        "Element": "Door"
      }
    }, 
    {
      "type": "Feature", 
      "geometry": {
        "type": "Point", 
        "coordinates": [
          -95.575621620965336, 
          42.758557867307822
        ]
      }, 
      "properties": {
        "bearing_deg": 135.0, 
        "RevitId": 5525957, 
        "Revit_UniqueId": "044bd380-87e3-47df-8ffd-b8d0610e1568-005451c5", 
        "Name": "Door", 
        "kind": "door", 
        "Type": "Door", 
        "Family": "Door-Single(CE)", 
        "Level": "LEVEL 1", 
        "interactive": false, 
        "Element": "Door"
      }
    }, 
    {
      "type": "Feature", 
      "geometry": {
        "type": "Point", 
        "coordinates": [
          -95.575818724707958, 
          42.758633362261591
        ]
      }, 
      "properties": {
        "bearing_deg": 180.0, 
        "RevitId": 5526134, 
        "Revit_UniqueId": "044bd380-87e3-47df-8ffd-b8d0610e1568-00545276", 
        "Name": "Door", 
        "kind": "door", 
        "Type": "Door", 
        "Family": "Door-Double(CE)", 
        "Level": "LEVEL 1", 
        "interactive": false, 
        "Element": "Door"
      }
    }, 
    {
      "type": "Feature", 
      "geometry": {
        "type": "Point", 
        "coordinates": [
          -95.575815054203247, 
          42.758593752683140
        ]
      }, 
      "properties": {
        "bearing_deg": 0.0, 
        "RevitId": 5526196, 
        "Revit_UniqueId": "044bd380-87e3-47df-8ffd-b8d0610e1568-005452b4", 
        "Name": "Door", 
        "kind": "door", 
        "Type": "Door", 
        "Family": "Door-Single(CE)", 
        "Level": "LEVEL 1", 
        "interactive": false, 
        "Element": "Door"
      }
    }, 
    {
      "type": "Feature", 
      "geometry": {
        "type": "Point", 
        "coordinates": [
          -95.575861184581996, 
          42.758607031071413
        ]
      }, 
      "properties": {
        "bearing_deg": 0.0, 
        "RevitId": 5526318, 
        "Revit_UniqueId": "044bd380-87e3-47df-8ffd-b8d0610e1568-0054532e", 
        "Name": "Door", 
        "kind": "door", 
        "Type": "Door", 
        "Family": "Door-Single(CE)", 
        "Level": "LEVEL 1", 
        "interactive": false, 
        "Element": "Door"
      }
    }, 
    {
      "type": "Feature", 
      "geometry": {
        "type": "Point", 
        "coordinates": [
          -95.575879199001434, 
          42.758630271602250
        ]
      }, 
      "properties": {
        "bearing_deg": 180.0, 
        "RevitId": 5526385, 
        "Revit_UniqueId": "044bd380-87e3-47df-8ffd-b8d0610e1568-00545371", 
        "Name": "Door", 
        "kind": "door", 
        "Type": "Door", 
        "Family": "Door-Single(CE)", 
        "Level": "LEVEL 1", 
        "interactive": false, 
        "Element": "Door"
      }
    }, 
    {
      "type": "Feature", 
      "geometry": {
        "type": "Point", 
        "coordinates": [
          -95.575844526921728, 
          42.758630271602250
        ]
      }, 
      "properties": {
        "bearing_deg": 180.0, 
        "RevitId": 5526439, 
        "Revit_UniqueId": "044bd380-87e3-47df-8ffd-b8d0610e1568-005453a7", 
        "Name": "Door", 
        "kind": "door", 
        "Type": "Door", 
        "Family": "Door-Single(CE)", 
        "Level": "LEVEL 1", 
        "interactive": false, 
        "Element": "Door"
      }
    }, 
    {
      "type": "Feature", 
      "geometry": {
        "type": "Point", 
        "coordinates": [
          -95.575902031591113, 
          42.758597358452370
        ]
      }, 
      "properties": {
        "bearing_deg": 0.0, 
        "RevitId": 5526505, 
        "Revit_UniqueId": "044bd380-87e3-47df-8ffd-b8d0610e1568-005453e9", 
        "Name": "Door", 
        "kind": "door", 
        "Type": "Door", 
        "Family": "Door-Single(CE)", 
        "Level": "LEVEL 1", 
        "interactive": false, 
        "Element": "Door"
      }
    }, 
    {
      "type": "Feature", 
      "geometry": {
        "type": "Point", 
        "coordinates": [
          -95.575960593243863, 
          42.758597186749071
        ]
      }, 
      "properties": {
        "bearing_deg": 0.0, 
        "RevitId": 5526579, 
        "Revit_UniqueId": "044bd380-87e3-47df-8ffd-b8d0610e1568-00545433", 
        "Name": "Door", 
        "kind": "door", 
        "Type": "Door", 
        "Family": "Door-Single(CE)", 
        "Level": "LEVEL 1", 
        "interactive": false, 
        "Element": "Door"
      }
    }, 
    {
      "type": "Feature", 
      "geometry": {
        "type": "Point", 
        "coordinates": [
          -95.575975982924646, 
          42.758597186749071
        ]
      }, 
      "properties": {
        "bearing_deg": 0.0, 
        "RevitId": 5526667, 
        "Revit_UniqueId": "044bd380-87e3-47df-8ffd-b8d0610e1568-0054548b", 
        "Name": "Door", 
        "kind": "door", 
        "Type": "Door", 
        "Family": "Door-Single(CE)", 
        "Level": "LEVEL 1", 
        "interactive": false, 
        "Element": "Door"
      }
    }, 
    {
      "type": "Feature", 
      "geometry": {
        "type": "Point", 
        "coordinates": [
          -95.575960525929702, 
          42.758640344862329
        ]
      }, 
      "properties": {
        "bearing_deg": 180.0, 
        "RevitId": 5526721, 
        "Revit_UniqueId": "044bd380-87e3-47df-8ffd-b8d0610e1568-005454c1", 
        "Name": "Door", 
        "kind": "door", 
        "Type": "Door", 
        "Family": "Door-Single(CE)", 
        "Level": "LEVEL 1", 
        "interactive": false, 
        "Element": "Door"
      }
    }, 
    {
      "type": "Feature", 
      "geometry": {
        "type": "Point", 
        "coordinates": [
          -95.575975960486588, 
          42.758640344862329
        ]
      }, 
      "properties": {
        "bearing_deg": 180.0, 
        "RevitId": 5526809, 
        "Revit_UniqueId": "044bd380-87e3-47df-8ffd-b8d0610e1568-00545519", 
        "Name": "Door", 
        "kind": "door", 
        "Type": "Door", 
        "Family": "Door-Single(CE)", 
        "Level": "LEVEL 1", 
        "interactive": false, 
        "Element": "Door"
      }
    }, 
    {
      "type": "Feature", 
      "geometry": {
        "type": "Point", 
        "coordinates": [
          -95.576016729543412, 
          42.758625807316541
        ]
      }, 
      "properties": {
        "bearing_deg": 0.0, 
        "RevitId": 5526855, 
        "Revit_UniqueId": "044bd380-87e3-47df-8ffd-b8d0610e1568-00545547", 
        "Name": "Door", 
        "kind": "door", 
        "Type": "Door", 
        "Family": "Door-Single(CE)", 
        "Level": "LEVEL 1", 
        "interactive": false, 
        "Element": "Door"
      }
    }, 
    {
      "type": "Feature", 
      "geometry": {
        "type": "Point", 
        "coordinates": [
          -95.576017041352642, 
          42.758610007261893
        ]
      }, 
      "properties": {
        "bearing_deg": 180.0, 
        "RevitId": 5526949, 
        "Revit_UniqueId": "044bd380-87e3-47df-8ffd-b8d0610e1568-005455a5", 
        "Name": "Door", 
        "kind": "door", 
        "Type": "Door", 
        "Family": "Door-Single(CE)", 
        "Level": "LEVEL 1", 
        "interactive": false, 
        "Element": "Door"
      }
    }, 
    {
      "type": "Feature", 
      "geometry": {
        "type": "Point", 
        "coordinates": [
          -95.576079645993900, 
          42.758566165686801
        ]
      }, 
      "properties": {
        "bearing_deg": 180.0, 
        "RevitId": 5527102, 
        "Revit_UniqueId": "044bd380-87e3-47df-8ffd-b8d0610e1568-0054563e", 
        "Name": "Door", 
        "kind": "door", 
        "Type": "Door", 
        "Family": "Door-Single(CE)", 
        "Level": "LEVEL 1", 
        "interactive": false, 
        "Element": "Door"
      }
    }, 
    {
      "type": "Feature", 
      "geometry": {
        "type": "Point", 
        "coordinates": [
          -95.575902019735722, 
          42.758640344862329
        ]
      }, 
      "properties": {
        "bearing_deg": 180.0, 
        "RevitId": 5527184, 
        "Revit_UniqueId": "044bd380-87e3-47df-8ffd-b8d0610e1568-00545690", 
        "Name": "Door", 
        "kind": "door", 
        "Type": "Door", 
        "Family": "Door-Single(CE)", 
        "Level": "LEVEL 1", 
        "interactive": false, 
        "Element": "Door"
      }
    }, 
    {
      "type": "Feature", 
      "geometry": {
        "type": "Point", 
        "coordinates": [
          -95.575708272262688, 
          42.758552343776941
        ]
      }, 
      "properties": {
        "bearing_deg": 0.0, 
        "RevitId": 5527262, 
        "Revit_UniqueId": "044bd380-87e3-47df-8ffd-b8d0610e1568-005456de", 
        "Name": "Door", 
        "kind": "door", 
        "Type": "Door", 
        "Family": "Door-Single(CE)", 
        "Level": "LEVEL 1", 
        "interactive": false, 
        "Element": "Door"
      }
    }, 
    {
      "type": "Feature", 
      "geometry": {
        "type": "Point", 
        "coordinates": [
          -95.575719341490341, 
          42.758534772806243
        ]
      }, 
      "properties": {
        "bearing_deg": 270.0, 
        "RevitId": 5527367, 
        "Revit_UniqueId": "044bd380-87e3-47df-8ffd-b8d0610e1568-00545747", 
        "Name": "Door", 
        "kind": "door", 
        "Type": "Door", 
        "Family": "Door-Single(CE)", 
        "Level": "LEVEL 1", 
        "interactive": false, 
        "Element": "Door"
      }
    }, 
    {
      "type": "Feature", 
      "geometry": {
        "type": "Point", 
        "coordinates": [
          -95.575688472376584, 
          42.758538400527790
        ]
      }, 
      "properties": {
        "bearing_deg": 270.0, 
        "RevitId": 5527453, 
        "Revit_UniqueId": "044bd380-87e3-47df-8ffd-b8d0610e1568-0054579d", 
        "Name": "Door", 
        "kind": "door", 
        "Type": "Door", 
        "Family": "Door-Double(CE)", 
        "Level": "LEVEL 1", 
        "interactive": false, 
        "Element": "Door"
      }
    }, 
    {
      "type": "Feature", 
      "geometry": {
        "type": "Point", 
        "coordinates": [
          -95.575733061096471, 
          42.758518232055330
        ]
      }, 
      "properties": {
        "bearing_deg": 90.0, 
        "RevitId": 5527545, 
        "Revit_UniqueId": "044bd380-87e3-47df-8ffd-b8d0610e1568-005457f9", 
        "Name": "Door", 
        "kind": "door", 
        "Type": "Door", 
        "Family": "Door-Single(CE)", 
        "Level": "LEVEL 1", 
        "interactive": false, 
        "Element": "Door"
      }
    }, 
    {
      "type": "Feature", 
      "geometry": {
        "type": "Point", 
        "coordinates": [
          -95.575692214087340, 
          42.758512445635070
        ]
      }, 
      "properties": {
        "bearing_deg": 90.0, 
        "RevitId": 5527589, 
        "Revit_UniqueId": "044bd380-87e3-47df-8ffd-b8d0610e1568-00545825", 
        "Name": "Door", 
        "kind": "door", 
        "Type": "Door", 
        "Family": "Door-Single(CE)", 
        "Level": "LEVEL 1", 
        "interactive": false, 
        "Element": "Door"
      }
    }, 
    {
      "type": "Feature", 
      "geometry": {
        "type": "Point", 
        "coordinates": [
          -95.575733061096471, 
          42.758475048676210
        ]
      }, 
      "properties": {
        "bearing_deg": 90.0, 
        "RevitId": 5527663, 
        "Revit_UniqueId": "044bd380-87e3-47df-8ffd-b8d0610e1568-0054586f", 
        "Name": "Door", 
        "kind": "door", 
        "Type": "Door", 
        "Family": "Door-Single(CE)", 
        "Level": "LEVEL 1", 
        "interactive": false, 
        "Element": "Door"
      }
    }, 
    {
      "type": "Feature", 
      "geometry": {
        "type": "Point", 
        "coordinates": [
          -95.575733061096471, 
          42.758463802110271
        ]
      }, 
      "properties": {
        "bearing_deg": 90.0, 
        "RevitId": 5527765, 
        "Revit_UniqueId": "044bd380-87e3-47df-8ffd-b8d0610e1568-005458d5", 
        "Name": "Door", 
        "kind": "door", 
        "Type": "Door", 
        "Family": "Door-Single(CE)", 
        "Level": "LEVEL 1", 
        "interactive": false, 
        "Element": "Door"
      }
    }, 
    {
      "type": "Feature", 
      "geometry": {
        "type": "Point", 
        "coordinates": [
          -95.575678338576608, 
          42.758471035601048
        ]
      }, 
      "properties": {
        "bearing_deg": 270.0, 
        "RevitId": 5527853, 
        "Revit_UniqueId": "044bd380-87e3-47df-8ffd-b8d0610e1568-0054592d", 
        "Name": "Door", 
        "kind": "door", 
        "Type": "Door", 
        "Family": "Door-Single(CE)", 
        "Level": "LEVEL 1", 
        "interactive": false, 
        "Element": "Door"
      }
    }, 
    {
      "type": "Feature", 
      "geometry": {
        "type": "Point", 
        "coordinates": [
          -95.576044411550910, 
          42.758662777408411
        ]
      }, 
      "properties": {
        "bearing_deg": 180.0, 
        "RevitId": 5527989, 
        "Revit_UniqueId": "6e016caa-f1cc-4e85-9653-b3ef87e8a3ff-005459b5", 
        "Name": "Door", 
        "kind": "door", 
        "Type": "Door", 
        "Family": "Door-Single(CE)", 
        "Level": "LEVEL 1", 
        "interactive": false, 
        "Element": "Door"
      }
    }, 
    {
      "type": "Feature", 
      "geometry": {
        "type": "Point", 
        "coordinates": [
          -95.576034433655551, 
          42.758662777408411
        ]
      }, 
      "properties": {
        "bearing_deg": 180.0, 
        "RevitId": 5528109, 
        "Revit_UniqueId": "6e016caa-f1cc-4e85-9653-b3ef87e8a3ff-00545a2d", 
        "Name": "Door", 
        "kind": "door", 
        "Type": "Door", 
        "Family": "Door-Single(CE)", 
        "Level": "LEVEL 1", 
        "interactive": false, 
        "Element": "Door"
      }
    }, 
    {
      "type": "Feature", 
      "geometry": {
        "type": "Point", 
        "coordinates": [
          -95.576024524774155, 
          42.758662777408411
        ]
      }, 
      "properties": {
        "bearing_deg": 180.0, 
        "RevitId": 5528195, 
        "Revit_UniqueId": "6e016caa-f1cc-4e85-9653-b3ef87e8a3ff-00545a83", 
        "Name": "Door", 
        "kind": "door", 
        "Type": "Door", 
        "Family": "Door-Single(CE)", 
        "Level": "LEVEL 1", 
        "interactive": false, 
        "Element": "Door"
      }
    }, 
    {
      "type": "Feature", 
      "geometry": {
        "type": "Point", 
        "coordinates": [
          -95.576014546878795, 
          42.758662777408411
        ]
      }, 
      "properties": {
        "bearing_deg": 180.0, 
        "RevitId": 5528299, 
        "Revit_UniqueId": "6e016caa-f1cc-4e85-9653-b3ef87e8a3ff-00545aeb", 
        "Name": "Door", 
        "kind": "door", 
        "Type": "Door", 
        "Family": "Door-Single(CE)", 
        "Level": "LEVEL 1", 
        "interactive": false, 
        "Element": "Door"
      }
    }, 
    {
      "type": "Feature", 
      "geometry": {
        "type": "Point", 
        "coordinates": [
          -95.575367698631283, 
          42.758662920700019
        ]
      }, 
      "properties": {
        "bearing_deg": 180.0, 
        "RevitId": 5528373, 
        "Revit_UniqueId": "6e016caa-f1cc-4e85-9653-b3ef87e8a3ff-00545b35", 
        "Name": "Door", 
        "kind": "door", 
        "Type": "Door", 
        "Family": "Door-Single(CE)", 
        "Level": "LEVEL 1", 
        "interactive": false, 
        "Element": "Door"
      }
    }, 
    {
      "type": "Feature", 
      "geometry": {
        "type": "Point", 
        "coordinates": [
          -95.575377832431258, 
          42.758662920700019
        ]
      }, 
      "properties": {
        "bearing_deg": 180.0, 
        "RevitId": 5528549, 
        "Revit_UniqueId": "6e016caa-f1cc-4e85-9653-b3ef87e8a3ff-00545be5", 
        "Name": "Door", 
        "kind": "door", 
        "Type": "Door", 
        "Family": "Door-Single(CE)", 
        "Level": "LEVEL 1", 
        "interactive": false, 
        "Element": "Door"
      }
    }, 
    {
      "type": "Feature", 
      "geometry": {
        "type": "Point", 
        "coordinates": [
          -95.575387810326603, 
          42.758662920700019
        ]
      }, 
      "properties": {
        "bearing_deg": 180.0, 
        "RevitId": 5528611, 
        "Revit_UniqueId": "6e016caa-f1cc-4e85-9653-b3ef87e8a3ff-00545c23", 
        "Name": "Door", 
        "kind": "door", 
        "Type": "Door", 
        "Family": "Door-Single(CE)", 
        "Level": "LEVEL 1", 
        "interactive": false, 
        "Element": "Door"
      }
    }, 
    {
      "type": "Feature", 
      "geometry": {
        "type": "Point", 
        "coordinates": [
          -95.575398100031194, 
          42.758662920700019
        ]
      }, 
      "properties": {
        "bearing_deg": 180.0, 
        "RevitId": 5528689, 
        "Revit_UniqueId": "6e016caa-f1cc-4e85-9653-b3ef87e8a3ff-00545c71", 
        "Name": "Door", 
        "kind": "door", 
        "Type": "Door", 
        "Family": "Door-Single(CE)", 
        "Level": "LEVEL 1", 
        "interactive": false, 
        "Element": "Door"
      }
    }, 
    {
      "type": "Feature", 
      "geometry": {
        "type": "Point", 
        "coordinates": [
          -95.575684107047366, 
          42.758448199062585
        ]
      }, 
      "properties": {
        "bearing_deg": 90.0, 
        "RevitId": 5529587, 
        "Revit_UniqueId": "6e016caa-f1cc-4e85-9653-b3ef87e8a3ff-00545ff3", 
        "Name": "Door", 
        "kind": "door", 
        "Type": "Door", 
        "Family": "Door-Single(CE)", 
        "Level": "LEVEL 1", 
        "interactive": false, 
        "Element": "Door"
      }
    }, 
    {
      "type": "Feature", 
      "geometry": {
        "type": "Point", 
        "coordinates": [
          -95.575717626539586, 
          42.758434301456070
        ]
      }, 
      "properties": {
        "bearing_deg": 270.0, 
        "RevitId": 5529695, 
        "Revit_UniqueId": "6e016caa-f1cc-4e85-9653-b3ef87e8a3ff-0054605f", 
        "Name": "Door", 
        "kind": "door", 
        "Type": "Door", 
        "Family": "Door-Single(CE)", 
        "Level": "LEVEL 1", 
        "interactive": false, 
        "Element": "Door"
      }
    }, 
    {
      "type": "Feature", 
      "geometry": {
        "type": "Point", 
        "coordinates": [
          -95.575699385699636, 
          42.758434062157825
        ]
      }, 
      "properties": {
        "bearing_deg": 90.0, 
        "RevitId": 5529781, 
        "Revit_UniqueId": "6e016caa-f1cc-4e85-9653-b3ef87e8a3ff-005460b5", 
        "Name": "Door", 
        "kind": "door", 
        "Type": "Door", 
        "Family": "Door-Single(CE)", 
        "Level": "LEVEL 1", 
        "interactive": false, 
        "Element": "Door"
      }
    }, 
    {
      "type": "Feature", 
      "geometry": {
        "type": "Point", 
        "coordinates": [
          -95.575662904019723, 
          42.758434062157825
        ]
      }, 
      "properties": {
        "bearing_deg": 90.0, 
        "RevitId": 5529829, 
        "Revit_UniqueId": "6e016caa-f1cc-4e85-9653-b3ef87e8a3ff-005460e5", 
        "Name": "Door", 
        "kind": "door", 
        "Type": "Door", 
        "Family": "Door-Single(CE)", 
        "Level": "LEVEL 1", 
        "interactive": false, 
        "Element": "Door"
      }
    }, 
    {
      "type": "Feature", 
      "geometry": {
        "type": "Point", 
        "coordinates": [
          -95.575690343231969, 
          42.758425612182883
        ]
      }, 
      "properties": {
        "bearing_deg": 180.0, 
        "RevitId": 5529873, 
        "Revit_UniqueId": "6e016caa-f1cc-4e85-9653-b3ef87e8a3ff-00546111", 
        "Name": "Door", 
        "kind": "door", 
        "Type": "Door", 
        "Family": "Door-Single(CE)", 
        "Level": "LEVEL 1", 
        "interactive": false, 
        "Element": "Door"
      }
    }, 
    {
      "type": "Feature", 
      "geometry": {
        "type": "Point", 
        "coordinates": [
          -95.575717626539586, 
          42.758404815362951
        ]
      }, 
      "properties": {
        "bearing_deg": 270.0, 
        "RevitId": 5529909, 
        "Revit_UniqueId": "6e016caa-f1cc-4e85-9653-b3ef87e8a3ff-00546135", 
        "Name": "Door", 
        "kind": "door", 
        "Type": "Door", 
        "Family": "Door-Single(CE)", 
        "Level": "LEVEL 1", 
        "interactive": false, 
        "Element": "Door"
      }
    }, 
    {
      "type": "Feature", 
      "geometry": {
        "type": "Point", 
        "coordinates": [
          -95.575724642247252, 
          42.758400007670645
        ]
      }, 
      "properties": {
        "bearing_deg": 0.0, 
        "RevitId": 5530200, 
        "Revit_UniqueId": "6e016caa-f1cc-4e85-9653-b3ef87e8a3ff-00546258", 
        "Name": "Door", 
        "kind": "door", 
        "Type": "Door", 
        "Family": "Door-Single(CE)", 
        "Level": "LEVEL 1", 
        "interactive": false, 
        "Element": "Door"
      }
    }, 
    {
      "type": "Feature", 
      "geometry": {
        "type": "Point", 
        "coordinates": [
          -95.575707804548841, 
          42.758382608403245
        ]
      }, 
      "properties": {
        "bearing_deg": 180.0, 
        "RevitId": 5530318, 
        "Revit_UniqueId": "6e016caa-f1cc-4e85-9653-b3ef87e8a3ff-005462ce", 
        "Name": "Door", 
        "kind": "door", 
        "Type": "Door", 
        "Family": "Door-Single(CE)", 
        "Level": "LEVEL 1", 
        "interactive": false, 
        "Element": "Door"
      }
    }, 
    {
      "type": "Feature", 
      "geometry": {
        "type": "Point", 
        "coordinates": [
          -95.575699385699636, 
          42.758389247597385
        ]
      }, 
      "properties": {
        "bearing_deg": 90.0, 
        "RevitId": 5530418, 
        "Revit_UniqueId": "6e016caa-f1cc-4e85-9653-b3ef87e8a3ff-00546332", 
        "Name": "Door", 
        "kind": "door", 
        "Type": "Door", 
        "Family": "Door-Single(CE)", 
        "Level": "LEVEL 1", 
        "interactive": false, 
        "Element": "Door"
      }
    }, 
    {
      "type": "Feature", 
      "geometry": {
        "type": "Point", 
        "coordinates": [
          -95.575698661832647, 
          42.758374137707278
        ]
      }, 
      "properties": {
        "bearing_deg": 90.0, 
        "RevitId": 5530466, 
        "Revit_UniqueId": "6e016caa-f1cc-4e85-9653-b3ef87e8a3ff-00546362", 
        "Name": "Door", 
        "kind": "door", 
        "Type": "Door", 
        "Family": "Door-Single(CE)", 
        "Level": "LEVEL 1", 
        "interactive": false, 
        "Element": "Door"
      }
    }, 
    {
      "type": "Feature", 
      "geometry": {
        "type": "Point", 
        "coordinates": [
          -95.575758514715588, 
          42.758347429948451
        ]
      }, 
      "properties": {
        "bearing_deg": 180.0, 
        "RevitId": 5530524, 
        "Revit_UniqueId": "6e016caa-f1cc-4e85-9653-b3ef87e8a3ff-0054639c", 
        "Name": "Door", 
        "kind": "door", 
        "Type": "Door", 
        "Family": "Door-Single(CE)", 
        "Level": "LEVEL 1", 
        "interactive": false, 
        "Element": "Door"
      }
    }, 
    {
      "type": "Feature", 
      "geometry": {
        "type": "Point", 
        "coordinates": [
          -95.575725109961098, 
          42.758428931779946
        ]
      }, 
      "properties": {
        "bearing_deg": 0.0, 
        "RevitId": 5530625, 
        "Revit_UniqueId": "6e016caa-f1cc-4e85-9653-b3ef87e8a3ff-00546401", 
        "Name": "Door", 
        "kind": "door", 
        "Type": "Door", 
        "Family": "Door-Single(CE)", 
        "Level": "LEVEL 1", 
        "interactive": false, 
        "Element": "Door"
      }
    }, 
    {
      "type": "Feature", 
      "geometry": {
        "type": "Point", 
        "coordinates": [
          -95.575461942971032, 
          42.758538836450931
        ]
      }, 
      "properties": {
        "bearing_deg": 180.0, 
        "RevitId": 5555855, 
        "Revit_UniqueId": "6e016caa-f1cc-4e85-9653-b3ef87e8a3ff-0054c68f", 
        "Name": "Door", 
        "kind": "door", 
        "Type": "Door", 
        "Family": "Door-Elevator", 
        "Level": "LEVEL 1", 
        "interactive": false, 
        "Element": "Door"
      }
    }, 
    {
      "type": "Feature", 
      "geometry": {
        "type": "Point", 
        "coordinates": [
          -95.575461942971032, 
          42.758511011626958
        ]
      }, 
      "properties": {
        "bearing_deg": 0.0, 
        "RevitId": 5555992, 
        "Revit_UniqueId": "6e016caa-f1cc-4e85-9653-b3ef87e8a3ff-0054c718", 
        "Name": "Door", 
        "kind": "door", 
        "Type": "Door", 
        "Family": "Door-Elevator", 
        "Level": "LEVEL 1", 
        "interactive": false, 
        "Element": "Door"
      }
    }, 
    {
      "type": "Feature", 
      "geometry": {
        "type": "Point", 
        "coordinates": [
          -95.575709207690380, 
          42.758524127201845
        ]
      }, 
      "properties": {
        "bearing_deg": 0.0, 
        "RevitId": 5567037, 
        "Revit_UniqueId": "8964a51c-fd58-4aa9-bd81-d92a9e3f79ef-0054f23d", 
        "Name": "Door", 
        "kind": "door", 
        "Type": "Door", 
        "Family": "Door-Single(CE)", 
        "Level": "LEVEL 1", 
        "interactive": false, 
        "Element": "Door"
      }
    }
  ], 
  "name": "738001_Cherokee MH_Voldeng Building - LEVEL 1 Doors"
}