{"name":"633004_SarpyMP Courthouse Addition_R26 - LEVEL 1","features":[{"properties":{"NCES_Type":"Mechanical Room","Number":"283","Name":"MECH.","NCES_Department":"Courthouse Update","Seat Count":"","Revit_UniqueId":"d3df6c84-11bb-420c-9355-7629cdf08756-0052ddfc","Workstations":"","Element":"Room","NCES_Occupancy Status":"","occupancyStatus":"Occupied","Level":"LEVEL 1","RevitId":5430780,"Area_SF":66},"geometry":{"coordinates":[[[-96.040685,41.142543],[-96.040685,41.142491],[-96.040669,41.142491],[-96.040669,41.14251],[-96.040669,41.142519],[-96.040669,41.142543],[-96.040685,41.142543]]],"type":"Polygon"},"type":"Feature"},{"properties":{"NCES_Type":"Break Room","Number":"284","Name":"BREAK ROOM","NCES_Department":"Courthouse Update","Seat Count":"","Revit_UniqueId":"d3df6c84-11bb-420c-9355-7629cdf08756-0052ddff","Workstations":"","Element":"Room","NCES_Occupancy Status":"","occupancyStatus":"Occupied","Level":"LEVEL 1","RevitId":5430783,"Area_SF":100.61},"geometry":{"coordinates":[[[-96.040621,41.142543],[-96.040669,41.142543],[-96.040669,41.142519],[-96.040634,41.142519],[-96.040621,41.142519],[-96.040621,41.142543]]],"type":"Polygon"},"type":"Feature"},{"properties":{"NCES_Type":"Private Office - Enclosed","Number":"285","Name":"OFFICE","NCES_Department":"Courthouse Update","Seat Count":"","Revit_UniqueId":"d3df6c84-11bb-420c-9355-7629cdf08756-0052de02","Workstations":"1","Element":"Room","NCES_Occupancy Status":"","occupancyStatus":"Occupied","Level":"LEVEL 1","RevitId":5430786,"Area_SF":150.76},"geometry":{"coordinates":[[[-96.040575,41.142543],[-96.040621,41.142543],[-96.040621,41.142519],[-96.040621,41.142508],[-96.040604,41.142508],[-96.040604,41.142505],[-96.040588,41.142505],[-96.040588,41.142508],[-96.040575,41.142508],[-96.040575,41.142543]]],"type":"Polygon"},"type":"Feature"},{"properties":{"NCES_Type":"Office/Storage","Number":"286","Name":"CLOSET","NCES_Department":"Courthouse Update","Seat Count":"","Revit_UniqueId":"d3df6c84-11bb-420c-9355-7629cdf08756-0052de05","Workstations":"","Element":"Room","NCES_Occupancy Status":"","occupancyStatus":"Occupied","Level":"LEVEL 1","RevitId":5430789,"Area_SF":5.25},"geometry":{"coordinates":[[[-96.040575,41.142502],[-96.040575,41.142508],[-96.040588,41.142508],[-96.040588,41.142505],[-96.040588,41.142502],[-96.040575,41.142502]]],"type":"Polygon"},"type":"Feature"},{"properties":{"NCES_Type":"Copy/Print/Mail Area","Number":"288","Name":"COPY/WORKROOM","NCES_Department":"Courthouse Update","Seat Count":"2","Revit_UniqueId":"d3df6c84-11bb-420c-9355-7629cdf08756-0052de0b","Workstations":"","Element":"Room","NCES_Occupancy Status":"","occupancyStatus":"Occupied","Level":"LEVEL 1","RevitId":5430795,"Area_SF":52.14},"geometry":{"coordinates":[[[-96.040604,41.142492],[-96.040604,41.142472],[-96.040575,41.142472],[-96.040575,41.142492],[-96.040604,41.142492]]],"type":"Polygon"},"type":"Feature"},{"properties":{"NCES_Type":"Private Office - Enclosed","Number":"289","Name":"OFFICE","NCES_Department":"Courthouse Update","Seat Count":"","Revit_UniqueId":"d3df6c84-11bb-420c-9355-7629cdf08756-0052de0e","Workstations":"1","Element":"Room","NCES_Occupancy Status":"","occupancyStatus":"Occupied","Level":"LEVEL 1","RevitId":5430798,"Area_SF":69.74},"geometry":{"coordinates":[[[-96.040604,41.142472],[-96.040604,41.142445],[-96.040575,41.142445],[-96.040575,41.142472],[-96.040604,41.142472]]],"type":"Polygon"},"type":"Feature"},{"properties":{"NCES_Type":"Private Office - Enclosed","Number":"290","Name":"OFFICE","NCES_Department":"Courthouse Update","Seat Count":"","Revit_UniqueId":"d3df6c84-11bb-420c-9355-7629cdf08756-0052de11","Workstations":"1","Element":"Room","NCES_Occupancy Status":"","occupancyStatus":"Occupied","Level":"LEVEL 1","RevitId":5430801,"Area_SF":113},"geometry":{"coordinates":[[[-96.040621,41.142417],[-96.040575,41.142417],[-96.040575,41.142445],[-96.040604,41.142445],[-96.040621,41.142445],[-96.040621,41.142417]]],"type":"Polygon"},"type":"Feature"},{"properties":{"NCES_Type":"Lobby/Reception","Number":"291","Name":"LOBBY","NCES_Department":"Courthouse Update","Seat Count":"","Revit_UniqueId":"d3df6c84-11bb-420c-9355-7629cdf08756-0052de14","Workstations":"2","Element":"Room","NCES_Occupancy Status":"","occupancyStatus":"Occupied","Level":"LEVEL 1","RevitId":5430804,"Area_SF":208.63},"geometry":{"coordinates":[[[-96.040652,41.142417],[-96.040621,41.142417],[-96.040621,41.142445],[-96.040621,41.142497],[-96.040634,41.142497],[-96.040634,41.142491],[-96.04065,41.142491],[-96.040652,41.142491],[-96.040652,41.142447],[-96.040652,41.142446],[-96.040652,41.142417]]],"type":"Polygon"},"type":"Feature"},{"properties":{"NCES_Type":"","Number":"292","Name":"HALL","NCES_Department":"","Seat Count":"","Revit_UniqueId":"d3df6c84-11bb-420c-9355-7629cdf08756-0052de17","Workstations":"","Element":"Room","NCES_Occupancy Status":"","occupancyStatus":"Occupied","Level":"LEVEL 1","RevitId":5430807,"Area_SF":115.59},"geometry":{"coordinates":[[[-96.040634,41.142519],[-96.040634,41.142497],[-96.040621,41.142497],[-96.040621,41.142445],[-96.040604,41.142445],[-96.040604,41.142472],[-96.040604,41.142492],[-96.040604,41.142505],[-96.040604,41.142508],[-96.040621,41.142508],[-96.040621,41.142519],[-96.040634,41.142519]]],"type":"Polygon"},"type":"Feature"},{"properties":{"NCES_Type":"Single Stall Restroom","Number":"293","Name":"RR","NCES_Department":"Courthouse Update","Seat Count":"","Revit_UniqueId":"d3df6c84-11bb-420c-9355-7629cdf08756-0052de1a","Workstations":"","Element":"Room","NCES_Occupancy Status":"","occupancyStatus":"Occupied","Level":"LEVEL 1","RevitId":5430810,"Area_SF":55.33},"geometry":{"coordinates":[[[-96.040669,41.142519],[-96.040669,41.14251],[-96.040651,41.14251],[-96.040651,41.142491],[-96.040634,41.142491],[-96.040634,41.142497],[-96.040634,41.142519],[-96.040669,41.142519]]],"type":"Polygon"},"type":"Feature"},{"properties":{"NCES_Type":"Single Stall Restroom","Number":"294","Name":"RR","NCES_Department":"Courthouse Update","Seat Count":"","Revit_UniqueId":"d3df6c84-11bb-420c-9355-7629cdf08756-0052de1d","Workstations":"","Element":"Room","NCES_Occupancy Status":"","occupancyStatus":"Occupied","Level":"LEVEL 1","RevitId":5430813,"Area_SF":25},"geometry":{"coordinates":[[[-96.040652,41.142491],[-96.040651,41.142491],[-96.040651,41.142491],[-96.040651,41.14251],[-96.040669,41.14251],[-96.040669,41.142491],[-96.040652,41.142491]]],"type":"Polygon"},"type":"Feature"},{"properties":{"NCES_Type":"","Number":"295","Name":"VESTIBULE","NCES_Department":"Courthouse Update","Seat Count":"","Revit_UniqueId":"d3df6c84-11bb-420c-9355-7629cdf08756-0052de20","Workstations":"","Element":"Room","NCES_Occupancy Status":"","occupancyStatus":"Occupied","Level":"LEVEL 1","RevitId":5430816,"Area_SF":124},"geometry":{"coordinates":[[[-96.040685,41.142491],[-96.040685,41.142447],[-96.040674,41.142447],[-96.040662,41.142447],[-96.040652,41.142447],[-96.040652,41.142491],[-96.040652,41.142491],[-96.040669,41.142491],[-96.040685,41.142491]]],"type":"Polygon"},"type":"Feature"},{"properties":{"NCES_Type":"Training Room","Number":"297","Name":"TRAINING","NCES_Department":"Courthouse Update","Seat Count":"28","Revit_UniqueId":"d3df6c84-11bb-420c-9355-7629cdf08756-0052de26","Workstations":"","Element":"Room","NCES_Occupancy Status":"","occupancyStatus":"Occupied","Level":"LEVEL 1","RevitId":5430822,"Area_SF":810.94},"geometry":{"coordinates":[[[-96.040528,41.142543],[-96.040575,41.142543],[-96.040575,41.142508],[-96.040575,41.142502],[-96.040575,41.142492],[-96.040575,41.142472],[-96.040575,41.142445],[-96.040575,41.142417],[-96.040499,41.142417],[-96.040499,41.142428],[-96.040499,41.142429],[-96.040499,41.142491],[-96.040499,41.142493],[-96.040505,41.142493],[-96.040505,41.142511],[-96.040528,41.142511],[-96.040528,41.142543]]],"type":"Polygon"},"type":"Feature"},{"properties":{"NCES_Type":"","Number":"300","Name":"ATRIUM","NCES_Department":"","Seat Count":"","Revit_UniqueId":"d3df6c84-11bb-420c-9355-7629cdf08756-0052de2f","Workstations":"","Element":"Room","NCES_Occupancy Status":"","occupancyStatus":"Occupied","Level":"LEVEL 1","RevitId":5430831,"Area_SF":176},"geometry":{"coordinates":[[[-96.040466,41.142429],[-96.040466,41.142455],[-96.040466,41.142491],[-96.040482,41.142491],[-96.040499,41.142491],[-96.040499,41.142429],[-96.040488,41.142429],[-96.040476,41.142429],[-96.040466,41.142429]]],"type":"Polygon"},"type":"Feature"},{"properties":{"NCES_Type":"Copy/Print/Mail Area","Number":"301","Name":"WORK ROOM","NCES_Department":"","Seat Count":"","Revit_UniqueId":"d3df6c84-11bb-420c-9355-7629cdf08756-0052de32","Workstations":"","Element":"Room","NCES_Occupancy Status":"","occupancyStatus":"Occupied","Level":"LEVEL 1","RevitId":5430834,"Area_SF":97.33},"geometry":{"coordinates":[[[-96.040466,41.142428],[-96.040466,41.142427],[-96.040426,41.142427],[-96.040426,41.142439],[-96.040426,41.142455],[-96.040452,41.142455],[-96.040466,41.142455],[-96.040466,41.142429],[-96.040466,41.142428]]],"type":"Polygon"},"type":"Feature"},{"properties":{"NCES_Type":"Private Office - Enclosed","Number":"302","Name":"OFFICE","NCES_Department":"Courthouse Update","Seat Count":"","Revit_UniqueId":"8d2cf69d-8336-48bc-9236-09b34f2c9f57-0052dfb9","Workstations":"1","Element":"Room","NCES_Occupancy Status":"","occupancyStatus":"Occupied","Level":"LEVEL 1","RevitId":5431225,"Area_SF":212.41},"geometry":{"coordinates":[[[-96.040466,41.142491],[-96.040466,41.142455],[-96.040452,41.142455],[-96.040426,41.142455],[-96.040426,41.142473],[-96.040421,41.142473],[-96.040421,41.142495],[-96.040421,41.142508],[-96.040446,41.142508],[-96.040446,41.142516],[-96.040459,41.142516],[-96.040459,41.142493],[-96.040466,41.142493],[-96.040466,41.142491]]],"type":"Polygon"},"type":"Feature"},{"properties":{"NCES_Type":"Private Office - Enclosed","Number":"303","Name":"OFFICE","NCES_Department":"Courthouse Update","Seat Count":"","Revit_UniqueId":"8d2cf69d-8336-48bc-9236-09b34f2c9f57-0052dfbc","Workstations":"1","Element":"Room","NCES_Occupancy Status":"","occupancyStatus":"Occupied","Level":"LEVEL 1","RevitId":5431228,"Area_SF":75.56},"geometry":{"coordinates":[[[-96.040412,41.142473],[-96.040375,41.142473],[-96.040375,41.142495],[-96.040412,41.142495],[-96.040412,41.142473]]],"type":"Polygon"},"type":"Feature"},{"properties":{"NCES_Type":"General Storage","Number":"305","Name":"STORAGE","NCES_Department":"Courthouse Update","Seat Count":"","Revit_UniqueId":"8d2cf69d-8336-48bc-9236-09b34f2c9f57-0052dfc2","Workstations":"","Element":"Room","NCES_Occupancy Status":"","occupancyStatus":"Occupied","Level":"LEVEL 1","RevitId":5431234,"Area_SF":15.5},"geometry":{"coordinates":[[[-96.040421,41.142473],[-96.040412,41.142473],[-96.040412,41.142495],[-96.040421,41.142495],[-96.040421,41.142473]]],"type":"Polygon"},"type":"Feature"},{"properties":{"NCES_Type":"Break Room","Number":"306","Name":"BREAK ROOM","NCES_Department":"Courthouse Update","Seat Count":"","Revit_UniqueId":"8d2cf69d-8336-48bc-9236-09b34f2c9f57-0052dfc5","Workstations":"","Element":"Room","NCES_Occupancy Status":"","occupancyStatus":"Occupied","Level":"LEVEL 1","RevitId":5431237,"Area_SF":117},"geometry":{"coordinates":[[[-96.040409,41.142543],[-96.040446,41.142543],[-96.040446,41.142516],[-96.040446,41.142508],[-96.040421,41.142508],[-96.040409,41.142508],[-96.040409,41.142543]]],"type":"Polygon"},"type":"Feature"},{"properties":{"NCES_Type":"Single Stall Restroom","Number":"307","Name":"RR","NCES_Department":"Courthouse Update","Seat Count":"","Revit_UniqueId":"8d2cf69d-8336-48bc-9236-09b34f2c9f57-0052dfc8","Workstations":"","Element":"Room","NCES_Occupancy Status":"","occupancyStatus":"Occupied","Level":"LEVEL 1","RevitId":5431240,"Area_SF":82.61},"geometry":{"coordinates":[[[-96.040446,41.142543],[-96.040482,41.142543],[-96.040482,41.142526],[-96.040482,41.142516],[-96.040459,41.142516],[-96.040446,41.142516],[-96.040446,41.142543]]],"type":"Polygon"},"type":"Feature"},{"properties":{"NCES_Type":"Single Stall Restroom","Number":"308","Name":"RR","NCES_Department":"Courthouse Update","Seat Count":"","Revit_UniqueId":"8d2cf69d-8336-48bc-9236-09b34f2c9f57-0052dfcb","Workstations":"","Element":"Room","NCES_Occupancy Status":"","occupancyStatus":"Occupied","Level":"LEVEL 1","RevitId":5431243,"Area_SF":48.02},"geometry":{"coordinates":[[[-96.040482,41.142491],[-96.040466,41.142491],[-96.040466,41.142493],[-96.040459,41.142493],[-96.040459,41.142516],[-96.040482,41.142516],[-96.040482,41.142491]]],"type":"Polygon"},"type":"Feature"},{"properties":{"NCES_Type":"Single Stall Restroom","Number":"309","Name":"RR","NCES_Department":"Courthouse Update","Seat Count":"","Revit_UniqueId":"8d2cf69d-8336-48bc-9236-09b34f2c9f57-0052dfce","Workstations":"","Element":"Room","NCES_Occupancy Status":"","occupancyStatus":"Occupied","Level":"LEVEL 1","RevitId":5431246,"Area_SF":48.02},"geometry":{"coordinates":[[[-96.040499,41.142493],[-96.040499,41.142491],[-96.040482,41.142491],[-96.040482,41.142516],[-96.040505,41.142516],[-96.040505,41.142511],[-96.040505,41.142493],[-96.040505,41.142493],[-96.040499,41.142493]]],"type":"Polygon"},"type":"Feature"},{"properties":{"NCES_Type":"General Storage","Number":"310","Name":"STORAGE","NCES_Department":"Courthouse Update","Seat Count":"","Revit_UniqueId":"8d2cf69d-8336-48bc-9236-09b34f2c9f57-0052dfd1","Workstations":"","Element":"Room","NCES_Occupancy Status":"","occupancyStatus":"Occupied","Level":"LEVEL 1","RevitId":5431249,"Area_SF":120.98},"geometry":{"coordinates":[[[-96.040482,41.142543],[-96.040528,41.142543],[-96.040528,41.142511],[-96.040505,41.142511],[-96.040505,41.142516],[-96.040482,41.142516],[-96.040482,41.142526],[-96.040482,41.142543]]],"type":"Polygon"},"type":"Feature"},{"properties":{"NCES_Type":"Administrative Workroom","Number":"311","Name":"FILE/WORKROOM","NCES_Department":"Courthouse Update","Seat Count":"","Revit_UniqueId":"8d2cf69d-8336-48bc-9236-09b34f2c9f57-0052dfd4","Workstations":"","Element":"Room","NCES_Occupancy Status":"","occupancyStatus":"Occupied","Level":"LEVEL 1","RevitId":5431252,"Area_SF":322},"geometry":{"coordinates":[[[-96.040299,41.142543],[-96.040358,41.142543],[-96.040358,41.142508],[-96.040301,41.142508],[-96.040301,41.142516],[-96.040278,41.142516],[-96.040278,41.14251],[-96.040243,41.14251],[-96.040243,41.142543],[-96.040278,41.142543],[-96.040278,41.142532],[-96.040299,41.142532],[-96.040299,41.142543]]],"type":"Polygon"},"type":"Feature"},{"properties":{"NCES_Type":"Electrical Room","Number":"312","Name":"ELEC","NCES_Department":"Courthouse Update","Seat Count":"","Revit_UniqueId":"8d2cf69d-8336-48bc-9236-09b34f2c9f57-0052dfd7","Workstations":"","Element":"Room","NCES_Occupancy Status":"","occupancyStatus":"Occupied","Level":"LEVEL 1","RevitId":5431255,"Area_SF":17.94},"geometry":{"coordinates":[[[-96.040278,41.142543],[-96.040299,41.142543],[-96.040299,41.142532],[-96.040278,41.142532],[-96.040278,41.142543]]],"type":"Polygon"},"type":"Feature"},{"properties":{"NCES_Type":"Conference Room","Number":"313","Name":"CONFERENCE","NCES_Department":"Courthouse Update","Seat Count":"6","Revit_UniqueId":"8d2cf69d-8336-48bc-9236-09b34f2c9f57-0052dfda","Workstations":"","Element":"Room","NCES_Occupancy Status":"","occupancyStatus":"Occupied","Level":"LEVEL 1","RevitId":5431258,"Area_SF":162},"geometry":{"coordinates":[[[-96.040358,41.142543],[-96.040409,41.142543],[-96.040409,41.142508],[-96.040358,41.142508],[-96.040358,41.142543]]],"type":"Polygon"},"type":"Feature"},{"properties":{"NCES_Type":"Private Office - Enclosed","Number":"314","Name":"OFFICE","NCES_Department":"Courthouse Update","Seat Count":"","Revit_UniqueId":"8d2cf69d-8336-48bc-9236-09b34f2c9f57-0052dfdd","Workstations":"1","Element":"Room","NCES_Occupancy Status":"","occupancyStatus":"Occupied","Level":"LEVEL 1","RevitId":5431261,"Area_SF":100.63},"geometry":{"coordinates":[[[-96.04021,41.142543],[-96.040243,41.142543],[-96.040243,41.14251],[-96.04021,41.14251],[-96.04021,41.142543]]],"type":"Polygon"},"type":"Feature"},{"properties":{"NCES_Type":"Private Office - Enclosed","Number":"315","Name":"OFFICE","NCES_Department":"Courthouse Update","Seat Count":"","Revit_UniqueId":"8d2cf69d-8336-48bc-9236-09b34f2c9f57-0052dfe0","Workstations":"1","Element":"Room","NCES_Occupancy Status":"","occupancyStatus":"Occupied","Level":"LEVEL 1","RevitId":5431264,"Area_SF":258.75},"geometry":{"coordinates":[[[-96.040125,41.142543],[-96.04021,41.142543],[-96.04021,41.14251],[-96.040191,41.14251],[-96.040125,41.14251],[-96.040125,41.142543]]],"type":"Polygon"},"type":"Feature"},{"properties":{"NCES_Type":"Private Office - Enclosed","Number":"316","Name":"OFFICE","NCES_Department":"Courthouse Update","Seat Count":"","Revit_UniqueId":"8d2cf69d-8336-48bc-9236-09b34f2c9f57-0052dfe3","Workstations":"1","Element":"Room","NCES_Occupancy Status":"","occupancyStatus":"Occupied","Level":"LEVEL 1","RevitId":5431267,"Area_SF":201.25},"geometry":{"coordinates":[[[-96.040125,41.142477],[-96.040125,41.14251],[-96.040191,41.14251],[-96.040191,41.142477],[-96.040125,41.142477]]],"type":"Polygon"},"type":"Feature"},{"properties":{"NCES_Type":"Private Office - Enclosed","Number":"317","Name":"OFFICE","NCES_Department":"Courthouse Update","Seat Count":"","Revit_UniqueId":"8d2cf69d-8336-48bc-9236-09b34f2c9f57-0052dfe6","Workstations":"1","Element":"Room","NCES_Occupancy Status":"","occupancyStatus":"Occupied","Level":"LEVEL 1","RevitId":5431270,"Area_SF":201.25},"geometry":{"coordinates":[[[-96.040125,41.142444],[-96.040125,41.142477],[-96.040191,41.142477],[-96.040191,41.142444],[-96.040125,41.142444]]],"type":"Polygon"},"type":"Feature"},{"properties":{"NCES_Type":"Private Office - Enclosed","Number":"318","Name":"OFFICE","NCES_Department":"Courthouse Update","Seat Count":"","Revit_UniqueId":"8d2cf69d-8336-48bc-9236-09b34f2c9f57-0052dfe9","Workstations":"1","Element":"Room","NCES_Occupancy Status":"","occupancyStatus":"Occupied","Level":"LEVEL 1","RevitId":5431273,"Area_SF":192.5},"geometry":{"coordinates":[[[-96.040125,41.142412],[-96.040125,41.142444],[-96.040191,41.142444],[-96.040191,41.142412],[-96.040125,41.142412]]],"type":"Polygon"},"type":"Feature"},{"properties":{"NCES_Type":"Private Office - Enclosed","Number":"319","Name":"OFFICE","NCES_Department":"Courthouse Update","Seat Count":"","Revit_UniqueId":"8d2cf69d-8336-48bc-9236-09b34f2c9f57-0052dfec","Workstations":"1","Element":"Room","NCES_Occupancy Status":"","occupancyStatus":"Occupied","Level":"LEVEL 1","RevitId":5431276,"Area_SF":247.5},"geometry":{"coordinates":[[[-96.040125,41.14238],[-96.040125,41.142412],[-96.040191,41.142412],[-96.04021,41.142412],[-96.04021,41.14238],[-96.040125,41.14238]]],"type":"Polygon"},"type":"Feature"},{"properties":{"NCES_Type":"Conference Room","Number":"320","Name":"CONFERENCE","NCES_Department":"Courthouse Update","Seat Count":"8","Revit_UniqueId":"8d2cf69d-8336-48bc-9236-09b34f2c9f57-0052dfef","Workstations":"","Element":"Room","NCES_Occupancy Status":"","occupancyStatus":"Occupied","Level":"LEVEL 1","RevitId":5431279,"Area_SF":249.75},"geometry":{"coordinates":[[[-96.04028,41.14238],[-96.04021,41.14238],[-96.04021,41.142412],[-96.04021,41.142419],[-96.04028,41.142419],[-96.04028,41.142411],[-96.04028,41.14241],[-96.04028,41.14238]]],"type":"Polygon"},"type":"Feature"},{"properties":{"NCES_Type":"","Number":"321","Name":"ATRIUM","NCES_Department":"","Seat Count":"","Revit_UniqueId":"8d2cf69d-8336-48bc-9236-09b34f2c9f57-0052dff2","Workstations":"","Element":"Room","NCES_Occupancy Status":"","occupancyStatus":"Occupied","Level":"LEVEL 1","RevitId":5431282,"Area_SF":176},"geometry":{"coordinates":[[[-96.04028,41.142411],[-96.04028,41.142419],[-96.04028,41.142431],[-96.04028,41.142457],[-96.04028,41.142473],[-96.040296,41.142473],[-96.040313,41.142473],[-96.040313,41.142455],[-96.040313,41.142444],[-96.040313,41.142411],[-96.040302,41.142411],[-96.04029,41.142411],[-96.04028,41.142411]]],"type":"Polygon"},"type":"Feature"},{"properties":{"NCES_Type":"Private Office - Enclosed","Number":"322","Name":"OFFICE","NCES_Department":"Courthouse Update","Seat Count":"","Revit_UniqueId":"8d2cf69d-8336-48bc-9236-09b34f2c9f57-0052dff5","Workstations":"1","Element":"Room","NCES_Occupancy Status":"","occupancyStatus":"Occupied","Level":"LEVEL 1","RevitId":5431285,"Area_SF":188},"geometry":{"coordinates":[[[-96.040313,41.142411],[-96.040313,41.142444],[-96.040358,41.142444],[-96.040358,41.142427],[-96.040358,41.142398],[-96.040313,41.142398],[-96.040313,41.14241],[-96.040313,41.142411]]],"type":"Polygon"},"type":"Feature"},{"properties":{"NCES_Type":"Private Office - Enclosed","Number":"323","Name":"OFFICE","NCES_Department":"Courthouse Update","Seat Count":"","Revit_UniqueId":"8d2cf69d-8336-48bc-9236-09b34f2c9f57-0052dff8","Workstations":"1","Element":"Room","NCES_Occupancy Status":"","occupancyStatus":"Occupied","Level":"LEVEL 1","RevitId":5431288,"Area_SF":140},"geometry":{"coordinates":[[[-96.040411,41.142398],[-96.040358,41.142398],[-96.040358,41.142427],[-96.040411,41.142427],[-96.040411,41.142398]]],"type":"Polygon"},"type":"Feature"},{"properties":{"NCES_Type":"Private Office - Enclosed","Number":"324","Name":"OFFICE","NCES_Department":"Courthouse Update","Seat Count":"","Revit_UniqueId":"8d2cf69d-8336-48bc-9236-09b34f2c9f57-0052dffb","Workstations":"1","Element":"Room","NCES_Occupancy Status":"","occupancyStatus":"Occupied","Level":"LEVEL 1","RevitId":5431291,"Area_SF":158.62},"geometry":{"coordinates":[[[-96.040426,41.142455],[-96.040426,41.142439],[-96.040375,41.142439],[-96.040375,41.142473],[-96.040412,41.142473],[-96.040421,41.142473],[-96.040426,41.142473],[-96.040426,41.142455]]],"type":"Polygon"},"type":"Feature"},{"properties":{"NCES_Type":"Private Office - Enclosed","Number":"325","Name":"OFFICE","NCES_Department":"Courthouse Update","Seat Count":"","Revit_UniqueId":"8d2cf69d-8336-48bc-9236-09b34f2c9f57-0052dffe","Workstations":"1","Element":"Room","NCES_Occupancy Status":"","occupancyStatus":"Occupied","Level":"LEVEL 1","RevitId":5431294,"Area_SF":142.5},"geometry":{"coordinates":[[[-96.040466,41.142398],[-96.040411,41.142398],[-96.040411,41.142427],[-96.040426,41.142427],[-96.040466,41.142427],[-96.040466,41.142398]]],"type":"Polygon"},"type":"Feature"},{"properties":{"NCES_Type":"Single Stall Restroom","Number":"326","Name":"RR","NCES_Department":"Courthouse Update","Seat Count":"","Revit_UniqueId":"8d2cf69d-8336-48bc-9236-09b34f2c9f57-0052e001","Workstations":"","Element":"Room","NCES_Occupancy Status":"","occupancyStatus":"Occupied","Level":"LEVEL 1","RevitId":5431297,"Area_SF":31.87},"geometry":{"coordinates":[[[-96.04028,41.142473],[-96.040279,41.142473],[-96.040279,41.142496],[-96.040296,41.142496],[-96.040296,41.142473],[-96.04028,41.142473]]],"type":"Polygon"},"type":"Feature"},{"properties":{"NCES_Type":"Single Stall Restroom","Number":"327","Name":"RR","NCES_Department":"Courthouse Update","Seat Count":"","Revit_UniqueId":"8d2cf69d-8336-48bc-9236-09b34f2c9f57-0052e004","Workstations":"","Element":"Room","NCES_Occupancy Status":"","occupancyStatus":"Occupied","Level":"LEVEL 1","RevitId":5431300,"Area_SF":31.88},"geometry":{"coordinates":[[[-96.040313,41.142473],[-96.040296,41.142473],[-96.040296,41.142496],[-96.040314,41.142496],[-96.040314,41.142473],[-96.040313,41.142473]]],"type":"Polygon"},"type":"Feature"},{"properties":{"NCES_Type":"Open Office - Workstations","Number":"328","Name":"OPEN OFFICE","NCES_Department":"Courthouse Update","Seat Count":"2","Revit_UniqueId":"8d2cf69d-8336-48bc-9236-09b34f2c9f57-0052e187","Workstations":"1","Element":"Room","NCES_Occupancy Status":"","occupancyStatus":"Occupied","Level":"LEVEL 1","RevitId":5431687,"Area_SF":172.29},"geometry":{"coordinates":[[[-96.040313,41.142455],[-96.040313,41.142473],[-96.040314,41.142473],[-96.040314,41.142496],[-96.040321,41.142496],[-96.040321,41.142496],[-96.040335,41.142496],[-96.040335,41.142496],[-96.040358,41.142496],[-96.040358,41.142455],[-96.040335,41.142455],[-96.040335,41.142454],[-96.040322,41.142454],[-96.040322,41.142455],[-96.040313,41.142455]]],"type":"Polygon"},"type":"Feature"},{"properties":{"NCES_Type":"Lobby/Reception","Number":"329","Name":"RECEPTION","NCES_Department":"Courthouse Update","Seat Count":"","Revit_UniqueId":"8d2cf69d-8336-48bc-9236-09b34f2c9f57-0052e2ce","Workstations":"1","Element":"Room","NCES_Occupancy Status":"","occupancyStatus":"Occupied","Level":"LEVEL 1","RevitId":5432014,"Area_SF":166.6},"geometry":{"coordinates":[[[-96.04028,41.142457],[-96.04028,41.142431],[-96.040243,41.142431],[-96.040243,41.142433],[-96.04024,41.142433],[-96.04024,41.142431],[-96.04021,41.142431],[-96.04021,41.142457],[-96.040255,41.142457],[-96.04028,41.142457]]],"type":"Polygon"},"type":"Feature"},{"properties":{"NCES_Type":"Open Office - Workstations","Number":"330","Name":"OPEN OFFICE","NCES_Department":"Courthouse Update","Seat Count":"","Revit_UniqueId":"8d2cf69d-8336-48bc-9236-09b34f2c9f57-0052e2d1","Workstations":"2","Element":"Room","NCES_Occupancy Status":"","occupancyStatus":"Occupied","Level":"LEVEL 1","RevitId":5432017,"Area_SF":177.05},"geometry":{"coordinates":[[[-96.040255,41.142457],[-96.04021,41.142457],[-96.04021,41.142475],[-96.04021,41.142499],[-96.040218,41.142499],[-96.040218,41.142499],[-96.040231,41.142499],[-96.040231,41.142499],[-96.040255,41.142499],[-96.040255,41.142457]]],"type":"Polygon"},"type":"Feature"},{"properties":{"NCES_Type":"Archive Storage","Number":"331","Name":"DATA","NCES_Department":"Courthouse Update","Seat Count":"","Revit_UniqueId":"8d2cf69d-8336-48bc-9236-09b34f2c9f57-0052e469","Workstations":"","Element":"Room","NCES_Occupancy Status":"","occupancyStatus":"Occupied","Level":"LEVEL 1","RevitId":5432425,"Area_SF":26.58},"geometry":{"coordinates":[[[-96.040604,41.142505],[-96.040604,41.142492],[-96.040575,41.142492],[-96.040575,41.142502],[-96.040588,41.142502],[-96.040588,41.142505],[-96.040604,41.142505]]],"type":"Polygon"},"type":"Feature"},{"properties":{"NCES_Type":"","Number":"333","Name":"HALL","NCES_Department":"","Seat Count":"","Revit_UniqueId":"8d2cf69d-8336-48bc-9236-09b34f2c9f57-0052e711","Workstations":"","Element":"Room","NCES_Occupancy Status":"","occupancyStatus":"Occupied","Level":"LEVEL 1","RevitId":5433105,"Area_SF":761.14},"geometry":{"coordinates":[[[-96.04028,41.142431],[-96.04028,41.142419],[-96.04021,41.142419],[-96.04021,41.142412],[-96.040191,41.142412],[-96.040191,41.142444],[-96.040191,41.142477],[-96.040191,41.14251],[-96.04021,41.14251],[-96.040243,41.14251],[-96.040278,41.14251],[-96.040278,41.142516],[-96.040301,41.142516],[-96.040301,41.142508],[-96.040358,41.142508],[-96.040409,41.142508],[-96.040421,41.142508],[-96.040421,41.142495],[-96.040412,41.142495],[-96.040375,41.142495],[-96.040375,41.142473],[-96.040375,41.142439],[-96.040426,41.142439],[-96.040426,41.142427],[-96.040411,41.142427],[-96.040358,41.142427],[-96.040358,41.142444],[-96.040313,41.142444],[-96.040313,41.142455],[-96.040322,41.142455],[-96.040322,41.142454],[-96.040335,41.142454],[-96.040335,41.142455],[-96.040358,41.142455],[-96.040358,41.142496],[-96.040335,41.142496],[-96.040335,41.142496],[-96.040321,41.142496],[-96.040321,41.142496],[-96.040314,41.142496],[-96.040296,41.142496],[-96.040279,41.142496],[-96.040279,41.142473],[-96.04028,41.142473],[-96.04028,41.142457],[-96.040255,41.142457],[-96.040255,41.142499],[-96.040231,41.142499],[-96.040231,41.142499],[-96.040218,41.142499],[-96.040218,41.142499],[-96.04021,41.142499],[-96.04021,41.142475],[-96.04021,41.142457],[-96.04021,41.142431],[-96.04024,41.142431],[-96.04024,41.14243],[-96.040243,41.14243],[-96.040243,41.142431],[-96.04028,41.142431]]],"type":"Polygon"},"type":"Feature"}],"type":"FeatureCollection"}