{"type":"FeatureCollection", "features": [
{"type":"Feature","geometry":{"type":"Polygon","coordinates":[[[-95.5757616029525,42.75885938714495],[-95.5757395153354,42.756286217994635],[-95.57343846357588,42.75548399730192],[-95.57224967183383,42.75534557907348],[-95.57100540273727,42.75484822398841],[-95.57068145101984,42.75542666919802],[-95.57166066871119,42.75613485177586],[-95.57180055695282,42.75815664147062],[-95.5720214331238,42.75857288410156],[-95.57286076257355,42.75881614148744],[-95.5757616029525,42.75885938714495]]]},"properties":{"Name":"Cherokee MH Boundary"}}
]}