{"type":"FeatureCollection", "features": [
{"type":"Feature","geometry":{"type":"Polygon","coordinates":[[[-95.57555662731232,42.75849041776362],[-95.57564219110354,42.75837809809161],[-95.57543217088872,42.758287671089086],[-95.57557737004959,42.75810776855481],[-95.57540364962499,42.758029715440955],[-95.57525715404303,42.75821723312201],[-95.5750367624596,42.75812109468637],[-95.57495638435269,42.75823627041831],[-95.57555662731232,42.75849041776362]]]},"properties":{"Name":"Voldeng Building"}},
{"type":"Feature","geometry":{"type":"Polygon","coordinates":[[[-95.57441343351896,42.75865511201382],[-95.57441343351896,42.75842602949077],[-95.5742674407271,42.758425416969516],[-95.5742674407271,42.75844440512546],[-95.57397295240978,42.75844501764654],[-95.57397462089881,42.75842602949077],[-95.57383446781861,42.75842664201201],[-95.57383279932955,42.758653886975836],[-95.57396961543168,42.75865327445684],[-95.57396878118715,42.7585497586592],[-95.57405721110678,42.75854914613918],[-95.57405637686227,42.758577322054165],[-95.57418985598626,42.75857793457392],[-95.57418985598626,42.758550371179226],[-95.5742574297928,42.758550371179226],[-95.5742574297928,42.7586557245328],[-95.57441343351896,42.75865511201382]]]},"properties":{"Name":"Wirth Hall"}},
{"type":"Feature","geometry":{"type":"Polygon","coordinates":[[[-95.57240407993238,42.75721642078541],[-95.57240233284723,42.75717152365879],[-95.57242067724141,42.757162544229566],[-95.57242067724141,42.757115722898945],[-95.57240058576207,42.75709840541153],[-95.57240233284723,42.757056073755265],[-95.57233157589825,42.75705479097735],[-95.57233157589825,42.75701694901694],[-95.57221888890541,42.75701759040629],[-95.57216647635062,42.756977824253916],[-95.57212454630678,42.75701630762758],[-95.57196032030173,42.75701694901694],[-95.57196206738689,42.75725362123709],[-95.57213415527515,42.75725490401089],[-95.57218569428738,42.757277352548066],[-95.57221714182027,42.75725875233213],[-95.57232808172792,42.75725939371898],[-95.57232982881308,42.757215779398116],[-95.57240407993238,42.75721642078541]]]},"properties":{"Name":"Main/Administration"}},
{"type":"Feature","geometry":{"type":"Polygon","coordinates":[[[-95.57260181113715,42.757720535338755],[-95.57260852748415,42.75755163635724],[-95.57262757548462,42.75754282457532],[-95.57263707195885,42.757523281008645],[-95.5726333559472,42.75748623512026],[-95.57259845296365,42.75746780311517],[-95.57259845296365,42.757351915799646],[-95.57276971981192,42.757351915799646],[-95.57276636163843,42.757232329725575],[-95.57254808036122,42.75722986403089],[-95.57255050265029,42.757299489551876],[-95.57238688803342,42.757300136290745],[-95.57238575946693,42.75746925827366],[-95.57234433281847,42.75747208774841],[-95.5723331572575,42.75749985701523],[-95.57234914987062,42.757529384584416],[-95.57238017168643,42.757535609422675],[-95.57237513442621,42.75771683682584],[-95.57260181113715,42.757720535338755]]]},"properties":{"Name":"North A"}},
{"type":"Feature","geometry":{"type":"Polygon","coordinates":[[[-95.57283860401007,42.75809042912739],[-95.5728399538973,42.75791648523673],[-95.57285642316728,42.757912166589826],[-95.57287030826613,42.75790262308707],[-95.57288043281736,42.757884286530924],[-95.57286895832597,42.757858516226634],[-95.57284465940302,42.757847386850145],[-95.57284230665014,42.757667730684425],[-95.5727799586995,42.75766513948591],[-95.57275407841809,42.75763922749486],[-95.57273258224309,42.75763900303919],[-95.57271408161958,42.757664275753044],[-95.57264349903393,42.75766341202017],[-95.57264756813929,42.75784067524046],[-95.57261854442582,42.75784612665345],[-95.57260167017377,42.757860994140984],[-95.57260114948254,42.757877617403764],[-95.57261179472499,42.757897171679055],[-95.57263526439894,42.757911302860414],[-95.57263526439894,42.75808750341218],[-95.572707023361,42.75808750341218],[-95.57272231625456,42.75810650540254],[-95.57276819493524,42.75810650540254],[-95.57277878232307,42.75809182204686],[-95.57283860401007,42.75809042912739]]]},"properties":{"Name":"North B"}},
{"type":"Feature","geometry":{"type":"Polygon","coordinates":[[[-95.57309298320762,42.75847333302613],[-95.5730904240882,42.7582948313725],[-95.5731192569299,42.75828601848154],[-95.5731313699988,42.75826852582217],[-95.5731313699988,42.75825161510536],[-95.57312307519742,42.75823368711402],[-95.5730891445285,42.75821967262765],[-95.57309170364792,42.758041170243295],[-95.57302132786405,42.758040230755704],[-95.57299565599044,42.758020589473766],[-95.572977822834,42.758020501512945],[-95.57295734987872,42.758039291268084],[-95.57288569453515,42.75803835178048],[-95.57288631895591,42.75821919803198],[-95.5728741784978,42.75822155159739],[-95.57284858730365,42.75822906747574],[-95.5728396303857,42.75823564386855],[-95.57283835082599,42.75825255458974],[-95.57284090994541,42.75827979963082],[-95.5728562646619,42.758288254985956],[-95.5728754580575,42.758295770856236],[-95.57287801717689,42.75846863562079],[-95.57294967252048,42.758470514582974],[-95.57296502723695,42.758484606797516],[-95.57301620962521,42.758484606797516],[-95.57302900522228,42.75847333302613],[-95.57309298320762,42.75847333302613]]]},"properties":{"Name":"North C"}},
{"type":"Feature","geometry":{"type":"Polygon","coordinates":[[[-95.5727681174859,42.75702893500564],[-95.5727665638819,42.75690801888659],[-95.57260188185981,42.75690687816736],[-95.57260032825583,42.75679622830246],[-95.57262052510761,42.75678824325302],[-95.5726391683554,42.75676885098582],[-95.57263515135782,42.7567388438085],[-95.57259256023593,42.7567186592072],[-95.5725916256305,42.75655028868947],[-95.57251954084877,42.75655097274298],[-95.57250457417581,42.756527917705064],[-95.57247914714524,42.756528158222984],[-95.57246516470941,42.75655211346876],[-95.57238593090635,42.75654869129136],[-95.57239059171829,42.75671637776176],[-95.5723362746968,42.75673138683728],[-95.57233772555436,42.75677186752737],[-95.57238748451032,42.756783680367164],[-95.57239214532227,42.75695478835685],[-95.57253818409656,42.75695592907519],[-95.57253991598297,42.757026354367135],[-95.5727681174859,42.75702893500564]]]},"properties":{"Name":"South A"}},
{"type":"Feature","geometry":{"type":"Polygon","coordinates":[[[-95.57284819171939,42.75659910708131],[-95.57284701308856,42.75641477597122],[-95.57287412159732,42.75639487164015],[-95.57287294296653,42.75636544783468],[-95.57284819171939,42.75634554348776],[-95.57284347719612,42.75617419275859],[-95.57277471362484,42.75617437758618],[-95.57275625851571,42.75615688457778],[-95.57272797137614,42.75615688457778],[-95.57271147054472,42.756178519803036],[-95.57264193132657,42.756178519803036],[-95.57264310995737,42.75634727430079],[-95.57261953734104,42.75635246673959],[-95.57259714335555,42.75636804405337],[-95.57259714335555,42.75639314082845],[-95.57261718007942,42.75641304516007],[-95.57265136037309,42.756418237593365],[-95.57264546721902,42.75659564546926],[-95.57270439875981,42.75659564546926],[-95.57272089959125,42.75661901134677],[-95.57277260477261,42.7566194511416],[-95.57278926017857,42.75659910708131],[-95.57284819171939,42.75659910708131]]]},"properties":{"Name":"South B"}},
{"type":"Feature","geometry":{"type":"Polygon","coordinates":[[[-95.57309964172018,42.75622923824869],[-95.57309364609482,42.756050211930315],[-95.57311962713804,42.75604287477509],[-95.57313561547234,42.756028934177756],[-95.57313433771607,42.756002327955684],[-95.57311563005447,42.75598784608317],[-95.57309477641758,42.75597833182788],[-95.57309064828213,42.75580368303884],[-95.57301170588157,42.75580294932045],[-95.57299671681817,42.75578680751339],[-95.57297273431672,42.75578680751339],[-95.5729627416078,42.75580441675724],[-95.57288979483258,42.75580294932045],[-95.57289379191617,42.755978307771606],[-95.57284582691328,42.75598784608317],[-95.57283583420434,42.756000319257616],[-95.57283683347524,42.756022330735824],[-95.57285282180953,42.756037738765905],[-95.57290978025046,42.756041407343936],[-95.57291077952135,42.75622703710857],[-95.5729627416078,42.75622777082195],[-95.57297972921299,42.75624684736683],[-95.57301570296514,42.75624684736683],[-95.57303269057033,42.75622923824869],[-95.57309964172018,42.75622923824869]]]},"properties":{"Name":"South C"}},
{"type":"Feature","geometry":{"type":"Polygon","coordinates":[[[-95.5729732449047,42.757477326014765],[-95.57297260048995,42.75739679285495],[-95.57308359144815,42.75739594396502],[-95.57308243529235,42.75687132776924],[-95.57283270563639,42.756870478872116],[-95.57283039332478,42.75747828623326],[-95.5729732449047,42.757477326014765]]]},"properties":{"Name":"Rear Center"}},
{"type":"Feature","geometry":{"type":"Polygon","coordinates":[[[-95.57184206683458,42.755615401386],[-95.57194085673929,42.75545788505052],[-95.57156736761779,42.75533522646891],[-95.5716689444986,42.7551776275214],[-95.57150818804377,42.75511666321197],[-95.57140749444018,42.75528009931063],[-95.57104446750094,42.75515103671297],[-95.57095525650128,42.75530993283767],[-95.57109039791662,42.75535662876421],[-95.57110011396608,42.755339766350346],[-95.57129443495545,42.75540721597826],[-95.57128648546045,42.75542148415937],[-95.57134144439608,42.75543977129779],[-95.57134831486614,42.75542861824869],[-95.57145342485585,42.75546299157664],[-95.57144724191527,42.7554753140858],[-95.57150671726758,42.755494596193024],[-95.57151525426156,42.75548309672189],[-95.57171840802316,42.75554795198469],[-95.57170427558758,42.75557324551879],[-95.57184206683458,42.755615401386]]]},"properties":{"Name":"Ginzberg"}}
]}
