{"features":[{"properties":{"Element":"Room","NCES_Department":"Courthouse","Number":"060","occupancyStatus":"","Area_SF":246.11,"Revit_UniqueId":"ed0426dd-57a9-4be0-9337-75d177aa7e1e-00581bf3","NCES_Occupancy Status":"","Level":"BASEMENT","RevitId":5774323,"Name":"MEN'S RR","NCES_Type":"Mens Restroom"},"geometry":{"coordinates":[[[372.55575333622056,-274.8043344811006],[372.72242000288725,-274.8043344811006],[372.72242000288725,-263.7492423038469],[362.7855533242115,-263.74924230384687],[362.7855533242115,-279.9352834147517],[361.9507858246448,-279.9352834147517],[361.9507858246448,-286.72695008141835],[364.2841191579781,-286.72695008141835],[364.2841191579781,-289.9285567620895],[364.2841191579781,-291.8182732151515],[372.55575333622056,-291.8182732151515],[372.55575333622056,-275.3095683138956],[372.55575333622056,-274.8043344811006]]],"type":"Polygon"},"type":"Feature"},{"properties":{"Element":"Room","NCES_Department":"Courthouse","Number":"059","occupancyStatus":"","Area_SF":246.13,"Revit_UniqueId":"ed0426dd-57a9-4be0-9337-75d177aa7e1e-00581bfa","NCES_Occupancy Status":"","Level":"BASEMENT","RevitId":5774330,"Name":"WOMEN'S RR","NCES_Type":"Womens Restroom"},"geometry":{"coordinates":[[[361.1813866575448,-263.74924230384687],[351.22242000288725,-263.74924230384687],[351.22242000288725,-266.6659089705135],[351.43075333622056,-266.6659089705135],[351.43075333622056,-267.1711428033085],[351.43075333622056,-291.81827321515146],[359.6591191579781,-291.8182732151515],[359.6591191579781,-289.9285567620895],[359.6591191579781,-286.72695008141835],[361.9507858246448,-286.72695008141835],[361.9507858246448,-279.9352834147517],[361.1813866575448,-279.93528341475167],[361.1813866575448,-263.74924230384687]]],"type":"Polygon"},"type":"Feature"},{"properties":{"Element":"Room","NCES_Department":"Courthouse","Number":"001","occupancyStatus":"","Area_SF":122.55,"Revit_UniqueId":"ed0426dd-57a9-4be0-9337-75d177aa7e1e-00581f93","NCES_Occupancy Status":"","Level":"BASEMENT","RevitId":5775251,"Name":"ENTRY VEST.","NCES_Type":"Waiting/Queue Area"},"geometry":{"coordinates":[[[413.86847469734914,-293.05433448110074],[414.66014136401583,-293.05433448110074],[414.6601413640159,-278.5126678144341],[405.09249453084516,-278.51266781443405],[405.0924945308451,-293.05433448110074],[405.1810616969734,-293.05433448110074],[413.86847469734914,-293.05433448110074]]],"type":"Polygon"},"type":"Feature"},{"properties":{"Element":"Room","NCES_Department":"Courthouse","Number":"002","occupancyStatus":"","Area_SF":927.81,"Revit_UniqueId":"ed0426dd-57a9-4be0-9337-75d177aa7e1e-00581f9c","NCES_Occupancy Status":"","Level":"BASEMENT","RevitId":5775260,"Name":"COMMONS","NCES_Type":"Waiting/Queue Area"},"geometry":{"coordinates":[[[405.09249453084516,-274.80433448110074],[372.55575333622056,-274.8043344811006],[372.55575333622056,-291.8182732151515],[372.55575333622056,-304.8614166816858],[404.8841611975118,-304.8614166816858],[404.8841611975118,-297.3542607423601],[404.8841611975118,-293.55956831389574],[404.8841611975118,-293.05433448110074],[405.0924945308451,-293.05433448110074],[405.09249453084516,-278.51266781443405],[405.09249453084516,-274.80433448110074]]],"type":"Polygon"},"type":"Feature"},{"properties":{"Element":"Room","NCES_Department":"Courthouse","Number":"003","occupancyStatus":"","Area_SF":29.47,"Revit_UniqueId":"ed0426dd-57a9-4be0-9337-75d177aa7e1e-00581fa3","NCES_Occupancy Status":"","Level":"BASEMENT","RevitId":5775267,"Name":"ACCESS HALL","NCES_Type":"Corridor/Hallway"},"geometry":{"coordinates":[[[413.86847469734914,-293.05433448110074],[404.8841611975118,-293.05433448110074],[404.8841611975118,-297.3542607423601],[413.86847469734914,-297.3542607423601],[413.86847469734914,-293.05433448110074]]],"type":"Polygon"},"type":"Feature"},{"properties":{"Element":"Room","NCES_Department":"Courthouse","Number":"005","occupancyStatus":"","Area_SF":503.47,"Revit_UniqueId":"ed0426dd-57a9-4be0-9337-75d177aa7e1e-005840f0","NCES_Occupancy Status":"","Level":"BASEMENT","RevitId":5783792,"Name":"CORRIDOR","NCES_Type":"Corridor/Hallway"},"geometry":{"coordinates":[[[372.55575333622056,-315.4864166816857],[389.09638849836574,-315.4864166816857],[389.09638849836574,-319.6114166816857],[413.1797218316991,-319.61141668168585],[413.179721831699,-311.81975001501917],[413.1797218316989,-304.8614166816858],[404.8841611975118,-304.8614166816858],[372.55575333622056,-304.8614166816858],[372.55575333622056,-315.4864166816857]]],"type":"Polygon"},"type":"Feature"},{"properties":{"Element":"Room","NCES_Department":"Courthouse","Number":"101","occupancyStatus":"","Area_SF":1038.78,"Revit_UniqueId":"ed0426dd-57a9-4be0-9337-75d177aa7e1e-0058415b","NCES_Occupancy Status":"","Level":"BASEMENT","RevitId":5783899,"Name":"WAITING ROOM","NCES_Type":"Waiting/Queue Area"},"geometry":{"coordinates":[[[314.3682533362205,-315.4826076223806],[326.4321611975118,-315.4826076223806],[326.6758278641785,-315.4826076223806],[326.6758278641785,-309.3992742890473],[331.3841611975118,-309.3992742890473],[331.3841611975118,-309.1076076223806],[331.8861611975118,-309.1076076223806],[346.50330121418034,-309.10760762238067],[347.00530121418035,-309.10760762238067],[347.00530121418035,-309.3992742890473],[350.31780121418035,-309.3992742890473],[350.31780121418035,-309.10760762238067],[350.8198012141803,-309.10760762238067],[360.232467880847,-309.10760762238067],[360.734467880847,-309.10760762238067],[360.734467880847,-309.39927428904736],[361.80821933549197,-309.39927428904736],[361.80821933549197,-315.4864166816857],[372.55575333622056,-315.4864166816857],[372.55575333622056,-304.8614166816858],[372.55575333622056,-291.8182732151515],[364.2841191579781,-291.8182732151515],[364.2841191579781,-289.9285567620895],[359.6591191579781,-289.9285567620895],[359.6591191579781,-291.8182732151515],[351.43075333622056,-291.81827321515146],[343.1979625441088,-291.81827321515146],[341.5525796549409,-291.8182732151514],[341.5525796549409,-291.7349398818181],[323.55292041420233,-291.73493988181804],[323.5529204142023,-301.67243988181804],[314.4932533362205,-301.67243988181804],[314.4932533362205,-304.27137271568967],[314.4932533362205,-304.484939881818],[314.3682533362205,-304.484939881818],[314.3682533362205,-308.33012686353123],[314.3682533362205,-315.4826076223806]]],"type":"Polygon"},"type":"Feature"},{"properties":{"Element":"Room","NCES_Department":"Courthouse","Number":"058","occupancyStatus":"","Area_SF":186.98,"Revit_UniqueId":"ed0426dd-57a9-4be0-9337-75d177aa7e1e-00584163","NCES_Occupancy Status":"","Level":"BASEMENT","RevitId":5783907,"Name":"VEST.","NCES_Type":"Waiting/Queue Area"},"geometry":{"coordinates":[[[351.43075333622056,-266.6659089705135],[343.1979625441088,-266.6659089705135],[343.1979625441088,-291.81827321515146],[351.43075333622056,-291.81827321515146],[351.43075333622056,-266.6659089705135]]],"type":"Polygon"},"type":"Feature"},{"properties":{"Element":"Room","NCES_Department":"Courthouse","Number":"056","occupancyStatus":"","Area_SF":1988.7,"Revit_UniqueId":"ed0426dd-57a9-4be0-9337-75d177aa7e1e-0058416b","NCES_Occupancy Status":"","Level":"BASEMENT","RevitId":5783915,"Name":"MECH./ELEC.","NCES_Type":"Mechanical Room"},"geometry":{"coordinates":[[[293.78492000288725,-254.80929353019783],[293.78492000288713,-308.3301268635312],[305.01091298827424,-308.33012686353123],[305.01091298827424,-301.58910654848466],[311.25567915547924,-301.58910654848466],[311.38591298827424,-301.58910654848466],[311.38591298827424,-301.45887271568967],[311.38591298827424,-291.73493988181804],[323.55292041420233,-291.73493988181804],[341.5525796549409,-291.7349398818181],[341.5525796549409,-291.8182732151514],[343.1979625441088,-291.81827321515146],[343.1979625441088,-267.1711428033085],[343.1979625441088,-266.6659089705135],[343.4062958774422,-266.6659089705135],[343.4062958774422,-254.809293530198],[293.78492000288725,-254.80929353019783]]],"type":"Polygon"},"type":"Feature"},{"properties":{"Element":"Room","NCES_Department":"Sheriff","Number":"103","occupancyStatus":"","Area_SF":110.11,"Revit_UniqueId":"ed0426dd-57a9-4be0-9337-75d177aa7e1e-00584172","NCES_Occupancy Status":"","Level":"BASEMENT","RevitId":5783922,"Name":"SHERRIF","NCES_Type":"Private Office - Enclosed"},"geometry":{"coordinates":[[[323.55292041420233,-291.73493988181804],[311.38591298827424,-291.73493988181804],[311.38591298827424,-301.67243988181804],[314.4932533362205,-301.67243988181804],[323.5529204142023,-301.67243988181804],[323.55292041420233,-291.73493988181804]]],"type":"Polygon"},"type":"Feature"},{"properties":{"Element":"Room","NCES_Department":"Courthouse","Number":"057","occupancyStatus":"","Area_SF":46.11,"Revit_UniqueId":"ed0426dd-57a9-4be0-9337-75d177aa7e1e-00584175","NCES_Occupancy Status":"","Level":"BASEMENT","RevitId":5783925,"Name":"JAN. CL.","NCES_Type":"Janitor/Custodial Closet"},"geometry":{"coordinates":[[[311.46924632160756,-301.58910654848466],[305.01091298827424,-301.58910654848466],[305.01091298827424,-308.33012686353123],[314.3682533362205,-308.33012686353123],[314.3682533362205,-304.484939881818],[314.27968617009213,-304.484939881818],[311.46924632160756,-304.484939881818],[311.46924632160756,-301.58910654848466]]],"type":"Polygon"},"type":"Feature"},{"properties":{"Element":"Room","NCES_Department":"Courthouse","Number":"145","occupancyStatus":"","Area_SF":65.63,"Revit_UniqueId":"ed0426dd-57a9-4be0-9337-75d177aa7e1e-00584189","NCES_Occupancy Status":"","Level":"BASEMENT","RevitId":5783945,"Name":"VEST.","NCES_Type":"Waiting/Queue Area"},"geometry":{"coordinates":[[[424.0508278641784,-311.81975001501917],[424.0508278641785,-304.94475001501917],[414.1653751968108,-304.94475001501917],[413.86847469734914,-304.94475001501917],[413.86847469734914,-304.8614166816858],[413.1797218316989,-304.8614166816858],[413.179721831699,-311.81975001501917],[424.0508278641784,-311.81975001501917]]],"type":"Polygon"},"type":"Feature"},{"properties":{"Element":"Room","NCES_Department":"Courthouse","Number":"146","occupancyStatus":"","Area_SF":613.85,"Revit_UniqueId":"ed0426dd-57a9-4be0-9337-75d177aa7e1e-00584192","NCES_Occupancy Status":"","Level":"BASEMENT","RevitId":5783954,"Name":"HALL (VACANT)","NCES_Type":"Corridor/Hallway"},"geometry":{"coordinates":[[[424.05082786417836,-346.84493791922506],[424.0508278641784,-311.81975001501917],[413.179721831699,-311.81975001501917],[413.1797218316991,-319.6114166816858],[389.09638849836574,-319.6114166816857],[389.09638849836574,-324.09639899962144],[397.0130551650324,-324.0963989996215],[405.0130551650324,-324.0963989996215],[413.17972183169906,-324.09639899962156],[413.17972183169906,-332.1114166816857],[406.34638849836574,-332.1114166816857],[406.34638849836574,-342.4965311854655],[406.3463884983657,-354.282437919225],[415.94991195113823,-354.28243791922506],[415.94991195113823,-347.6782712525584],[415.94991195113823,-346.84493791922506],[424.05082786417836,-346.84493791922506]]],"type":"Polygon"},"type":"Feature"},{"properties":{"Element":"Room","NCES_Department":"Courthouse","Number":"147","occupancyStatus":"","Area_SF":48.55,"Revit_UniqueId":"ed0426dd-57a9-4be0-9337-75d177aa7e1e-0058419c","NCES_Occupancy Status":"","Level":"BASEMENT","RevitId":5783964,"Name":"RR","NCES_Type":"Single Stall Restroom"},"geometry":{"coordinates":[[[389.09638849836574,-324.09639899962144],[389.09638849836574,-330.9864166816857],[397.0130551650324,-330.98641668168574],[397.0130551650324,-324.0963989996215],[389.09638849836574,-324.09639899962144]]],"type":"Polygon"},"type":"Feature"},{"properties":{"Element":"Room","NCES_Department":"Courthouse","Number":"148","occupancyStatus":"","Area_SF":49.09,"Revit_UniqueId":"ed0426dd-57a9-4be0-9337-75d177aa7e1e-005841a5","NCES_Occupancy Status":"","Level":"BASEMENT","RevitId":5783973,"Name":"RR","NCES_Type":"Single Stall Restroom"},"geometry":{"coordinates":[[[397.0130551650324,-330.98641668168574],[405.0130551650324,-330.98641668168574],[405.0130551650324,-324.0963989996215],[397.0130551650324,-324.0963989996215],[397.0130551650324,-330.98641668168574]]],"type":"Polygon"},"type":"Feature"},{"properties":{"Element":"Room","NCES_Department":"Courthouse","Number":"149","occupancyStatus":"","Area_SF":58.89,"Revit_UniqueId":"ed0426dd-57a9-4be0-9337-75d177aa7e1e-005841a8","NCES_Occupancy Status":"","Level":"BASEMENT","RevitId":5783976,"Name":"STORAGE","NCES_Type":"General Storage"},"geometry":{"coordinates":[[[405.0130551650324,-332.1114166816857],[406.34638849836574,-332.1114166816857],[406.61722183169906,-332.1114166816857],[406.84838849836575,-332.1114166816857],[413.17972183169906,-332.1114166816857],[413.17972183169906,-324.09639899962156],[405.0130551650324,-324.0963989996215],[405.0130551650324,-330.98641668168574],[405.0130551650324,-332.1114166816857]]],"type":"Polygon"},"type":"Feature"},{"properties":{"Element":"Room","NCES_Department":"Courthouse","Number":"134","occupancyStatus":"","Area_SF":93.45,"Revit_UniqueId":"ed0426dd-57a9-4be0-9337-75d177aa7e1e-005841ba","NCES_Occupancy Status":"","Level":"BASEMENT","RevitId":5783994,"Name":"ELEC","NCES_Type":"Electrical Room"},"geometry":{"coordinates":[[[405.0130551650324,-332.1114166816857],[396.5547218316991,-332.1114166816857],[396.55472183169906,-342.4965311854655],[406.34638849836574,-342.4965311854655],[406.34638849836574,-332.6134166816857],[406.34638849836574,-332.1114166816857],[405.0130551650324,-332.1114166816857]]],"type":"Polygon"},"type":"Feature"},{"properties":{"Element":"Room","NCES_Department":"Courthouse","Number":"151","occupancyStatus":"","Area_SF":106.59,"Revit_UniqueId":"ed0426dd-57a9-4be0-9337-75d177aa7e1e-005841bd","NCES_Occupancy Status":"","Level":"BASEMENT","RevitId":5783997,"Name":"OFFICE","NCES_Type":"Office/Storage"},"geometry":{"coordinates":[[[406.3463884983657,-354.282437919225],[406.34638849836574,-342.4965311854655],[396.55472183169906,-342.4965311854655],[396.55472183169906,-354.282437919225],[406.3463884983657,-354.282437919225]]],"type":"Polygon"},"type":"Feature"},{"properties":{"Element":"Room","NCES_Department":"Courthouse","Number":"144","occupancyStatus":"","Area_SF":54.65,"Revit_UniqueId":"ed0426dd-57a9-4be0-9337-75d177aa7e1e-005841c0","NCES_Occupancy Status":"","Level":"BASEMENT","RevitId":5784000,"Name":"STORAGE","NCES_Type":"General Storage"},"geometry":{"coordinates":[[[406.3463884983657,-360.52808334835237],[406.3463884983657,-354.282437919225],[396.55472183169906,-354.282437919225],[396.554721831699,-360.52808334835237],[406.3463884983657,-360.52808334835237]]],"type":"Polygon"},"type":"Feature"},{"properties":{"Element":"Room","NCES_Department":"Courthouse","Number":"143","occupancyStatus":"","Area_SF":812.07,"Revit_UniqueId":"ed0426dd-57a9-4be0-9337-75d177aa7e1e-005841c3","NCES_Occupancy Status":"","Level":"BASEMENT","RevitId":5784003,"Name":"GROUP ROOM","NCES_Type":"Conference Room"},"geometry":{"coordinates":[[[436.11332786417836,-347.9128722699909],[423.75916119751173,-347.9128722699909],[423.75916119751173,-354.28243791922506],[415.94991195113823,-354.28243791922506],[406.3463884983657,-354.282437919225],[406.3463884983657,-360.5280833483524],[396.554721831699,-360.52808334835237],[396.554721831699,-366.0945208402691],[404.72682298791034,-366.0945208402691],[404.72682298791034,-365.05285417360244],[406.39348965457697,-365.05285417360244],[406.39348965457697,-366.0945208402691],[406.39348965457697,-369.30285417360244],[406.47682298791034,-369.30285417360244],[406.47682298791034,-378.91287226999077],[436.11332786417836,-378.9128722699909],[436.11332786417836,-347.9128722699909]]],"type":"Polygon"},"type":"Feature"},{"properties":{"Element":"Room","NCES_Department":"Courthouse","Number":"143A","occupancyStatus":"","Area_SF":45.74,"Revit_UniqueId":"ed0426dd-57a9-4be0-9337-75d177aa7e1e-005841c6","NCES_Occupancy Status":"","Level":"BASEMENT","RevitId":5784006,"Name":"RR","NCES_Type":"Single Stall Restroom"},"geometry":{"coordinates":[[[415.94991195113823,-354.28243791922506],[423.75916119751173,-354.28243791922506],[423.75916119751173,-348.4148722699909],[423.75916119751173,-347.6782712525584],[415.94991195113823,-347.6782712525584],[415.94991195113823,-354.28243791922506]]],"type":"Polygon"},"type":"Feature"},{"properties":{"Element":"Room","NCES_Department":"Public Defense","Number":"142","occupancyStatus":"","Area_SF":262.13,"Revit_UniqueId":"ed0426dd-57a9-4be0-9337-75d177aa7e1e-005841e1","NCES_Occupancy Status":"","Level":"BASEMENT","RevitId":5784033,"Name":"BREAKROOM","NCES_Type":"Break Room"},"geometry":{"coordinates":[[[384.330989654577,-378.91287226999066],[406.47682298791034,-378.91287226999077],[406.47682298791034,-369.30285417360244],[406.39348965457697,-369.30285417360244],[406.39348965457697,-366.0945208402691],[404.72682298791034,-366.0945208402691],[396.554721831699,-366.0945208402691],[384.330989654577,-366.0945208402691],[384.330989654577,-378.91287226999066]]],"type":"Polygon"},"type":"Feature"},{"properties":{"Element":"Room","NCES_Department":"Public Defense","Number":"141","occupancyStatus":"","Area_SF":110.33,"Revit_UniqueId":"ed0426dd-57a9-4be0-9337-75d177aa7e1e-005841e4","NCES_Occupancy Status":"","Level":"BASEMENT","RevitId":5784036,"Name":"OFFICE","NCES_Type":"Private Office - Enclosed"},"geometry":{"coordinates":[[[374.67840958154056,-378.91287226999066],[384.330989654577,-378.91287226999066],[384.330989654577,-366.0945208402691],[374.67840958154056,-366.0945208402691],[374.67840958154056,-378.91287226999066]]],"type":"Polygon"},"type":"Feature"},{"properties":{"Element":"Room","NCES_Department":"Public Defense","Number":"140","occupancyStatus":"","Area_SF":144.99,"Revit_UniqueId":"ed0426dd-57a9-4be0-9337-75d177aa7e1e-005841e7","NCES_Occupancy Status":"","Level":"BASEMENT","RevitId":5784039,"Name":"OFFICE","NCES_Type":"Private Office - Enclosed"},"geometry":{"coordinates":[[[362.16432298791034,-378.9128722699906],[374.67840958154056,-378.91287226999066],[374.67840958154056,-366.0945208402691],[362.16432298791034,-366.0945208402691],[362.16432298791034,-378.9128722699906]]],"type":"Polygon"},"type":"Feature"},{"properties":{"Element":"Room","NCES_Department":"Public Defense","Number":"139","occupancyStatus":"","Area_SF":184.98,"Revit_UniqueId":"ed0426dd-57a9-4be0-9337-75d177aa7e1e-005841ea","NCES_Occupancy Status":"","Level":"BASEMENT","RevitId":5784042,"Name":"OFFICE","NCES_Type":"Private Office - Enclosed"},"geometry":{"coordinates":[[[346.3475248883808,-378.91287226999054],[362.16432298791034,-378.9128722699906],[362.16432298791034,-366.0945208402691],[357.2016915550475,-366.0945208402691],[352.8058582217142,-366.0945208402691],[351.7225248883808,-366.0945208402691],[346.3475248883808,-366.0945208402691],[346.3475248883808,-378.91287226999054]]],"type":"Polygon"},"type":"Feature"},{"properties":{"Element":"Room","NCES_Department":"Public Defense","Number":"122","occupancyStatus":"","Area_SF":114.54,"Revit_UniqueId":"ed0426dd-57a9-4be0-9337-75d177aa7e1e-005841ed","NCES_Occupancy Status":"","Level":"BASEMENT","RevitId":5784045,"Name":"OFFICE","NCES_Type":"Private Office - Enclosed"},"geometry":{"coordinates":[[[336.3475248883808,-378.9128722699905],[346.3475248883808,-378.91287226999054],[346.3475248883808,-366.0945208402691],[336.3475248883808,-366.0945208402691],[336.3475248883808,-378.9128722699905]]],"type":"Polygon"},"type":"Feature"},{"properties":{"Element":"Room","NCES_Department":"Public Defense","Number":"121","occupancyStatus":"","Area_SF":130.77,"Revit_UniqueId":"ed0426dd-57a9-4be0-9337-75d177aa7e1e-005841f0","NCES_Occupancy Status":"","Level":"BASEMENT","RevitId":5784048,"Name":"OFFICE","NCES_Type":"Private Office - Enclosed"},"geometry":{"coordinates":[[[325.0493542470423,-378.91287226999043],[336.3475248883808,-378.9128722699905],[336.3475248883808,-366.0945208402691],[325.0493542470423,-366.0945208402691],[325.0493542470423,-378.91287226999043]]],"type":"Polygon"},"type":"Feature"},{"properties":{"Element":"Room","NCES_Department":"Public Defense","Number":"118","occupancyStatus":"","Area_SF":194.03,"Revit_UniqueId":"ed0426dd-57a9-4be0-9337-75d177aa7e1e-005841f3","NCES_Occupancy Status":"","Level":"BASEMENT","RevitId":5784051,"Name":"OFFICE","NCES_Type":"Private Office - Enclosed"},"geometry":{"coordinates":[[[308.5273172262772,-378.9128722699903],[325.0493542470423,-378.91287226999043],[325.0493542470423,-366.0945208402691],[308.5273172262772,-366.0945208402691],[308.5273172262772,-378.9128722699903]]],"type":"Polygon"},"type":"Feature"},{"properties":{"Element":"Room","NCES_Department":"Public Defense","Number":"117","occupancyStatus":"","Area_SF":110.45,"Revit_UniqueId":"ed0426dd-57a9-4be0-9337-75d177aa7e1e-0058420f","NCES_Occupancy Status":"","Level":"BASEMENT","RevitId":5784079,"Name":"OFFICE","NCES_Type":"Private Office - Enclosed"},"geometry":{"coordinates":[[[298.90644444603953,-378.9128722699903],[308.5273172262772,-378.9128722699903],[308.5273172262772,-366.0945208402691],[298.9064444460396,-366.0945208402691],[298.90644444603953,-378.9128722699903]]],"type":"Polygon"},"type":"Feature"},{"properties":{"Element":"Room","NCES_Department":"Public Defense","Number":"116","occupancyStatus":"","Area_SF":237.66,"Revit_UniqueId":"ed0426dd-57a9-4be0-9337-75d177aa7e1e-00584218","NCES_Occupancy Status":"","Level":"BASEMENT","RevitId":5784088,"Name":"CONF. ROOM","NCES_Type":"Conference Room"},"geometry":{"coordinates":[[[278.7814444460396,-378.9128722699902],[298.90644444603953,-378.9128722699903],[298.9064444460396,-366.0945208402691],[293.79678485855266,-366.0945208402691],[292.692618191886,-366.0945208402691],[278.7814444460396,-366.0945208402691],[278.7814444460396,-378.9128722699902]]],"type":"Polygon"},"type":"Feature"},{"properties":{"Element":"Room","NCES_Department":"Courthouse","Number":"055","occupancyStatus":"","Area_SF":183.4,"Revit_UniqueId":"214f934e-51b5-427a-a212-d17e20c54258-00584553","NCES_Occupancy Status":"","Level":"BASEMENT","RevitId":5784915,"Name":"FIRE STAIR","NCES_Type":"Stair"},"geometry":{"coordinates":[[[165.16918459006337,-308.45512686353084],[178.16918459006337,-308.45512686353084],[178.16918459006337,-308.2884601968642],[178.67441842285837,-308.2884601968642],[184.50922313230268,-308.2884601968642],[184.50922313230268,-297.45512686353084],[165.16918459006337,-297.45512686353084],[165.16918459006337,-308.45512686353084]]],"type":"Polygon"},"type":"Feature"},{"properties":{"Element":"Room","NCES_Department":"Courthouse","Number":"054","occupancyStatus":"","Area_SF":419.1,"Revit_UniqueId":"214f934e-51b5-427a-a212-d17e20c54258-00584556","NCES_Occupancy Status":"","Level":"BASEMENT","RevitId":5784918,"Name":"CORR.","NCES_Type":"Corridor/Hallway"},"geometry":{"coordinates":[[[242.67582786417847,-308.0384601968644],[184.50922313230268,-308.0384601968642],[184.50922313230268,-308.2884601968642],[184.00398929950768,-308.2884601968642],[178.16918459006337,-308.2884601968642],[178.16918459006337,-315.69094095571376],[201.11332786417847,-315.69094095571376],[201.11332786417847,-315.52427428904707],[201.61856169697347,-315.52427428904707],[206.44240020283667,-315.52427428904707],[226.85906686950338,-315.5242742890472],[237.3424945308451,-315.52427428904724],[238.67582786417844,-315.52427428904724],[238.67582786417844,-315.39927428904724],[242.67582786417844,-315.39927428904724],[242.67582786417847,-308.0384601968644]]],"type":"Polygon"},"type":"Feature"},{"properties":{"Element":"Room","NCES_Department":"County Records","Number":"048","occupancyStatus":"","Area_SF":125.88,"Revit_UniqueId":"214f934e-51b5-427a-a212-d17e20c54258-00584559","NCES_Occupancy Status":"","Level":"BASEMENT","RevitId":5784921,"Name":"HALL","NCES_Type":"Corridor/Hallway"},"geometry":{"coordinates":[[[201.11332786417847,-315.52427428904707],[201.11332786417842,-343.85760762238044],[206.4424002028366,-343.8576076223805],[206.44240020283667,-315.52427428904707],[201.11332786417847,-315.52427428904707]]],"type":"Polygon"},"type":"Feature"},{"properties":{"Element":"Room","NCES_Department":"County Records","Number":"053","occupancyStatus":"","Area_SF":543.25,"Revit_UniqueId":"214f934e-51b5-427a-a212-d17e20c54258-0058455c","NCES_Occupancy Status":"","Level":"BASEMENT","RevitId":5784924,"Name":"INFO SERVICE/ DATA CENTER","NCES_Type":"IT/Telecom Room"},"geometry":{"coordinates":[[[226.85906686950338,-315.5242742890472],[206.44240020283667,-315.52427428904707],[206.4424002028366,-343.4056076223805],[206.4424002028366,-343.5242742890472],[226.8590668695033,-343.5242742890472],[226.85906686950338,-315.5242742890472]]],"type":"Polygon"},"type":"Feature"},{"properties":{"Element":"Room","NCES_Department":"County Records","Number":"052","occupancyStatus":"","Area_SF":271.74,"Revit_UniqueId":"214f934e-51b5-427a-a212-d17e20c54258-0058455f","NCES_Occupancy Status":"","Level":"BASEMENT","RevitId":5784927,"Name":"INFO SERVICE EXPANSION","NCES_Type":"Equipment Storage"},"geometry":{"coordinates":[[[237.3424945308451,-315.52427428904724],[226.85906686950338,-315.5242742890472],[226.8590668695033,-343.5242742890472],[237.34249453084507,-343.52427428904724],[237.34249453084507,-343.43570712291887],[237.3424945308451,-315.52427428904724]]],"type":"Polygon"},"type":"Feature"},{"properties":{"Element":"Room","NCES_Department":"County Records","Number":"106","occupancyStatus":"","Area_SF":273.55,"Revit_UniqueId":"214f934e-51b5-427a-a212-d17e20c54258-00584562","NCES_Occupancy Status":"","Level":"BASEMENT","RevitId":5784930,"Name":"WORK/BREAK","NCES_Type":"Break Room"},"geometry":{"coordinates":[[[268.3856111127062,-357.07953893665695],[278.7814444460396,-357.07953893665695],[293.79678485855266,-357.079538936657],[293.79678485855266,-349.17231120892575],[284.2187962529622,-349.1723112089257],[284.2187962529622,-343.572669553473],[268.3856111127063,-343.572669553473],[268.3856111127063,-343.64927428904736],[268.3856111127062,-357.07953893665695]]],"type":"Polygon"},"type":"Feature"},{"properties":{"Element":"Room","NCES_Department":"County Records","Number":"104A","occupancyStatus":"","Area_SF":106.88,"Revit_UniqueId":"214f934e-51b5-427a-a212-d17e20c54258-00584565","NCES_Occupancy Status":"","Level":"BASEMENT","RevitId":5784933,"Name":"OFFICE","NCES_Type":"Private Office - Enclosed"},"geometry":{"coordinates":[[[293.79678485855266,-349.17231120892575],[293.79678485855266,-347.0058803622801],[293.79678485855266,-337.0889778755924],[284.21879625296225,-337.0889778755924],[284.2187962529622,-343.572669553473],[284.2187962529622,-349.1723112089257],[293.79678485855266,-349.17231120892575]]],"type":"Polygon"},"type":"Feature"},{"properties":{"Element":"Room","NCES_Department":"County Records","Number":"104","occupancyStatus":"","Area_SF":631.67,"Revit_UniqueId":"214f934e-51b5-427a-a212-d17e20c54258-00584568","NCES_Occupancy Status":"","Level":"BASEMENT","RevitId":5784936,"Name":"CLERK'S OFFICE","NCES_Type":"Open Office - Cubicles"},"geometry":{"coordinates":[[[293.79678485855266,-315.39927428904724],[268.38561111270644,-315.39927428904724],[268.3856111127063,-343.572669553473],[284.2187962529622,-343.572669553473],[284.21879625296225,-337.0889778755924],[293.79678485855266,-337.0889778755924],[293.79678485855266,-336.6492742890472],[293.79678485855266,-326.33342335266695],[293.79678485855266,-315.39927428904724]]],"type":"Polygon"},"type":"Feature"},{"properties":{"Element":"Room","NCES_Department":"Public Defense","Number":"108","occupancyStatus":"","Area_SF":124.83,"Revit_UniqueId":"214f934e-51b5-427a-a212-d17e20c54258-0058456b","NCES_Occupancy Status":"","Level":"BASEMENT","RevitId":5784939,"Name":"OFFICE","NCES_Type":"Private Office - Enclosed"},"geometry":{"coordinates":[[[297.7174945308451,-315.4826076223806],[297.7174945308451,-315.39927428904724],[293.79678485855266,-315.39927428904724],[293.79678485855266,-326.33342335266695],[306.21345152521934,-326.33342335266695],[306.21345152521934,-315.4826076223806],[297.7174945308451,-315.4826076223806]]],"type":"Polygon"},"type":"Feature"},{"properties":{"Element":"Room","NCES_Department":"Public Defense","Number":"110","occupancyStatus":"","Area_SF":118.79,"Revit_UniqueId":"214f934e-51b5-427a-a212-d17e20c54258-0058456e","NCES_Occupancy Status":"","Level":"BASEMENT","RevitId":5784942,"Name":"OFFICE","NCES_Type":"Private Office - Enclosed"},"geometry":{"coordinates":[[[293.79678485855266,-326.33342335266695],[293.79678485855266,-336.6492742890472],[306.21345152521934,-336.64927428904724],[306.21345152521934,-326.33342335266695],[293.79678485855266,-326.33342335266695]]],"type":"Polygon"},"type":"Feature"},{"properties":{"Element":"Room","NCES_Department":"Public Defense","Number":"112","occupancyStatus":"","Area_SF":119.28,"Revit_UniqueId":"214f934e-51b5-427a-a212-d17e20c54258-00584571","NCES_Occupancy Status":"","Level":"BASEMENT","RevitId":5784945,"Name":"OFFICE","NCES_Type":"Private Office - Enclosed"},"geometry":{"coordinates":[[[293.79678485855266,-337.0889778755924],[293.79678485855266,-347.0058803622801],[306.21345152521934,-347.00588036228015],[306.21345152521934,-336.64927428904724],[293.79678485855266,-336.6492742890472],[293.79678485855266,-337.0889778755924]]],"type":"Polygon"},"type":"Feature"},{"properties":{"Element":"Room","NCES_Department":"Public Defense","Number":"114","occupancyStatus":"","Area_SF":116.88,"Revit_UniqueId":"214f934e-51b5-427a-a212-d17e20c54258-00584574","NCES_Occupancy Status":"","Level":"BASEMENT","RevitId":5784948,"Name":"OFFICE","NCES_Type":"Private Office - Enclosed"},"geometry":{"coordinates":[[[293.79678485855266,-357.079538936657],[293.79678485855266,-357.1628722699904],[306.21345152521934,-357.1628722699904],[306.21345152521934,-347.00588036228015],[293.79678485855266,-347.0058803622801],[293.79678485855266,-349.17231120892575],[293.79678485855266,-357.079538936657]]],"type":"Polygon"},"type":"Feature"},{"properties":{"Element":"Room","NCES_Department":"Public Defense","Number":"115","occupancyStatus":"","Area_SF":124.42,"Revit_UniqueId":"214f934e-51b5-427a-a212-d17e20c54258-00584577","NCES_Occupancy Status":"","Level":"BASEMENT","RevitId":5784951,"Name":"STORAGE","NCES_Type":"General Storage"},"geometry":{"coordinates":[[[278.7814444460396,-366.0945208402691],[292.692618191886,-366.0945208402691],[292.692618191886,-365.0945208402691],[293.79678485855266,-365.0945208402691],[293.79678485855266,-357.1628722699904],[293.79678485855266,-357.079538936657],[278.7814444460396,-357.07953893665695],[278.7814444460396,-366.0945208402691]]],"type":"Polygon"},"type":"Feature"},{"properties":{"Element":"Room","NCES_Department":"Public Defense","Number":"107A","occupancyStatus":"","Area_SF":692.13,"Revit_UniqueId":"214f934e-51b5-427a-a212-d17e20c54258-0058457a","NCES_Occupancy Status":"","Level":"BASEMENT","RevitId":5784954,"Name":"HALL","NCES_Type":"Corridor/Hallway"},"geometry":{"coordinates":[[[314.3682533362205,-315.4826076223806],[306.21345152521934,-315.4826076223806],[306.21345152521934,-326.33342335266695],[306.21345152521934,-336.64927428904724],[306.21345152521934,-347.00588036228015],[306.21345152521934,-357.1628722699904],[293.79678485855266,-357.1628722699904],[293.79678485855266,-365.0945208402691],[293.79678485855266,-366.0945208402691],[298.9064444460396,-366.0945208402691],[308.5273172262772,-366.0945208402691],[325.0493542470423,-366.0945208402691],[336.3475248883808,-366.0945208402691],[346.3475248883808,-366.0945208402691],[351.7225248883808,-366.0945208402691],[351.7225248883808,-365.03202084026907],[352.8058582217142,-365.03202084026907],[352.8058582217142,-358.7057804421886],[349.3075576535684,-354.7385463639891],[340.88709898194253,-354.7385463639891],[340.88709898194253,-354.94687969732246],[340.3850989819425,-354.94687969732246],[336.06455718749544,-354.9468796973224],[336.06455718749544,-360.6518899588991],[323.5505512352637,-360.6518899588991],[311.0645571874954,-360.6518899588991],[311.0645571874954,-350.6007449597327],[311.0645571874954,-349.41324495973265],[311.0645571874954,-340.4953151748551],[311.0645571874954,-330.23800953556326],[311.0645571874954,-320.00605662556586],[323.5505512352637,-320.00605662556586],[326.8841611975118,-320.00605662556586],[326.8841611975118,-315.4826076223806],[314.3682533362205,-315.4826076223806]]],"type":"Polygon"},"type":"Feature"},{"properties":{"Element":"Room","NCES_Department":"Public Defense","Number":"119","occupancyStatus":"","Area_SF":116.28,"Revit_UniqueId":"214f934e-51b5-427a-a212-d17e20c54258-0058457d","NCES_Occupancy Status":"","Level":"BASEMENT","RevitId":5784957,"Name":"OFFICE","NCES_Type":"Private Office - Enclosed"},"geometry":{"coordinates":[[[311.0645571874954,-360.6518899588991],[323.5505512352637,-360.6518899588991],[323.5505512352637,-350.6007449597327],[313.91872385416207,-350.6007449597327],[311.0645571874954,-350.6007449597327],[311.0645571874954,-360.6518899588991]]],"type":"Polygon"},"type":"Feature"},{"properties":{"Element":"Room","NCES_Department":"Public Defense","Number":"113","occupancyStatus":"","Area_SF":113.55,"Revit_UniqueId":"214f934e-51b5-427a-a212-d17e20c54258-00584580","NCES_Occupancy Status":"","Level":"BASEMENT","RevitId":5784960,"Name":"OFFICE","NCES_Type":"Private Office - Enclosed"},"geometry":{"coordinates":[[[311.0645571874954,-340.4953151748551],[311.0645571874954,-349.41324495973265],[313.91872385416207,-349.4132449597327],[313.91872385416207,-350.6007449597327],[323.5505512352637,-350.6007449597327],[323.5505512352637,-340.4953151748551],[311.0645571874954,-340.4953151748551]]],"type":"Polygon"},"type":"Feature"},{"properties":{"Element":"Room","NCES_Department":"Public Defense","Number":"111","occupancyStatus":"","Area_SF":118.77,"Revit_UniqueId":"214f934e-51b5-427a-a212-d17e20c54258-00584583","NCES_Occupancy Status":"","Level":"BASEMENT","RevitId":5784963,"Name":"OFFICE","NCES_Type":"Private Office - Enclosed"},"geometry":{"coordinates":[[[311.0645571874954,-330.23800953556326],[311.06455718749544,-340.4953151748551],[323.5505512352637,-340.4953151748551],[323.5505512352637,-330.23800953556326],[311.0645571874954,-330.23800953556326]]],"type":"Polygon"},"type":"Feature"},{"properties":{"Element":"Room","NCES_Department":"Public Defense","Number":"109","occupancyStatus":"","Area_SF":118.46,"Revit_UniqueId":"214f934e-51b5-427a-a212-d17e20c54258-00584586","NCES_Occupancy Status":"","Level":"BASEMENT","RevitId":5784966,"Name":"OFFICE","NCES_Type":"Private Office - Enclosed"},"geometry":{"coordinates":[[[323.5505512352637,-320.00605662556586],[311.0645571874954,-320.00605662556586],[311.06455718749544,-330.23800953556326],[323.5505512352637,-330.23800953556326],[323.5505512352637,-320.00605662556586]]],"type":"Polygon"},"type":"Feature"},{"properties":{"Element":"Room","NCES_Department":"Public Defense","Number":"127","occupancyStatus":"","Area_SF":118.74,"Revit_UniqueId":"214f934e-51b5-427a-a212-d17e20c54258-00584589","NCES_Occupancy Status":"","Level":"BASEMENT","RevitId":5784969,"Name":"OFFICE","NCES_Type":"Private Office - Enclosed"},"geometry":{"coordinates":[[[336.06455718749544,-320.2497232922325],[336.06455718749544,-320.00605662556586],[326.8841611975118,-320.00605662556586],[323.5505512352637,-320.00605662556586],[323.5505512352637,-330.23800953556326],[336.06455718749544,-330.23800953556326],[336.06455718749544,-320.2497232922325]]],"type":"Polygon"},"type":"Feature"},{"properties":{"Element":"Room","NCES_Department":"Public Defense","Number":"125","occupancyStatus":"","Area_SF":119.05,"Revit_UniqueId":"214f934e-51b5-427a-a212-d17e20c54258-0058458c","NCES_Occupancy Status":"","Level":"BASEMENT","RevitId":5784972,"Name":"OFFICE","NCES_Type":"Private Office - Enclosed"},"geometry":{"coordinates":[[[336.06455718749544,-340.4953151748551],[336.06455718749544,-330.23800953556326],[323.5505512352637,-330.23800953556326],[323.5505512352637,-340.4953151748551],[336.06455718749544,-340.4953151748551]]],"type":"Polygon"},"type":"Feature"},{"properties":{"Element":"Room","NCES_Department":"Public Defense","Number":"123","occupancyStatus":"","Area_SF":117.21,"Revit_UniqueId":"214f934e-51b5-427a-a212-d17e20c54258-0058458f","NCES_Occupancy Status":"","Level":"BASEMENT","RevitId":5784975,"Name":"OFFICE","NCES_Type":"Private Office - Enclosed"},"geometry":{"coordinates":[[[336.06455718749544,-350.6007449597327],[336.06455718749544,-340.4953151748551],[323.5505512352637,-340.4953151748551],[323.5505512352637,-350.6007449597327],[336.06455718749544,-350.6007449597327]]],"type":"Polygon"},"type":"Feature"},{"properties":{"Element":"Room","NCES_Department":"Public Defense","Number":"120","occupancyStatus":"","Area_SF":116.55,"Revit_UniqueId":"214f934e-51b5-427a-a212-d17e20c54258-00584592","NCES_Occupancy Status":"","Level":"BASEMENT","RevitId":5784978,"Name":"OFFICE","NCES_Type":"Private Office - Enclosed"},"geometry":{"coordinates":[[[323.5505512352637,-360.6518899588991],[336.06455718749544,-360.6518899588991],[336.06455718749544,-354.9468796973224],[336.06455718749544,-350.6007449597327],[323.5505512352637,-350.6007449597327],[323.5505512352637,-360.6518899588991]]],"type":"Polygon"},"type":"Feature"},{"properties":{"Element":"Room","NCES_Department":"Public Defense","Number":"124","occupancyStatus":"","Area_SF":88.63,"Revit_UniqueId":"214f934e-51b5-427a-a212-d17e20c54258-00584598","NCES_Occupancy Status":"","Level":"BASEMENT","RevitId":5784984,"Name":"OFFICE","NCES_Type":"Private Office - Enclosed"},"geometry":{"coordinates":[[[349.28293231527584,-343.2136922148018],[340.88709898194253,-343.2136922148018],[340.88709898194253,-354.49487969732246],[340.88709898194253,-354.7385463639891],[349.1582341137435,-354.7385463639891],[349.28293231527584,-354.7385463639891],[349.28293231527584,-354.68792490751287],[349.28293231527584,-343.2136922148018]]],"type":"Polygon"},"type":"Feature"},{"properties":{"Element":"Room","NCES_Department":"Public Defense","Number":"126","occupancyStatus":"","Area_SF":88.1,"Revit_UniqueId":"214f934e-51b5-427a-a212-d17e20c54258-0058459b","NCES_Occupancy Status":"","Level":"BASEMENT","RevitId":5784987,"Name":"OFFICE","NCES_Type":"Private Office - Enclosed"},"geometry":{"coordinates":[[[340.88709898194253,-343.2136922148018],[349.28293231527584,-343.2136922148018],[349.28293231527584,-331.75535888146834],[340.88709898194253,-331.75535888146834],[340.88709898194253,-343.2136922148018]]],"type":"Polygon"},"type":"Feature"},{"properties":{"Element":"Room","NCES_Department":"Public Defense","Number":"128","occupancyStatus":"","Area_SF":90.6,"Revit_UniqueId":"214f934e-51b5-427a-a212-d17e20c54258-0058459e","NCES_Occupancy Status":"","Level":"BASEMENT","RevitId":5784990,"Name":"OFFICE","NCES_Type":"Private Office - Enclosed"},"geometry":{"coordinates":[[[349.28293231527584,-319.98452554813514],[340.88709898194253,-319.98452554813514],[340.88709898194253,-320.24972329223255],[340.88709898194253,-331.75535888146834],[349.28293231527584,-331.75535888146834],[349.28293231527584,-319.98452554813514]]],"type":"Polygon"},"type":"Feature"},{"properties":{"Element":"Room","NCES_Department":"Public Defense","Number":"129","occupancyStatus":"","Area_SF":94.54,"Revit_UniqueId":"214f934e-51b5-427a-a212-d17e20c54258-005845a1","NCES_Occupancy Status":"","Level":"BASEMENT","RevitId":5784993,"Name":"COPY","NCES_Type":"Copy/Print/Mail Area"},"geometry":{"coordinates":[[[358.02611832517164,-319.98452554813514],[349.28293231527584,-319.98452554813514],[349.28293231527584,-331.75535888146834],[358.02611832517164,-331.7553588814684],[358.02611832517164,-319.98452554813514]]],"type":"Polygon"},"type":"Feature"},{"properties":{"Element":"Room","NCES_Department":"Public Defense","Number":"130","occupancyStatus":"","Area_SF":91.07,"Revit_UniqueId":"214f934e-51b5-427a-a212-d17e20c54258-005845a4","NCES_Occupancy Status":"","Level":"BASEMENT","RevitId":5784996,"Name":"OFFICE","NCES_Type":"Private Office - Enclosed"},"geometry":{"coordinates":[[[360.52613454751366,-319.98452554813514],[358.02611832517164,-319.98452554813514],[358.02611832517164,-331.7553588814684],[366.46361832517164,-331.7553588814684],[366.46361832517164,-319.98452554813514],[360.52613454751366,-319.98452554813514]]],"type":"Polygon"},"type":"Feature"},{"properties":{"Element":"Room","NCES_Department":"Public Defense","Number":"131","occupancyStatus":"","Area_SF":91.31,"Revit_UniqueId":"214f934e-51b5-427a-a212-d17e20c54258-005845a7","NCES_Occupancy Status":"","Level":"BASEMENT","RevitId":5784999,"Name":"OFFICE","NCES_Type":"Private Office - Enclosed"},"geometry":{"coordinates":[[[374.92195165850507,-319.98452554813514],[366.46361832517164,-319.98452554813514],[366.46361832517164,-331.7553588814684],[374.921951658505,-331.75535888146845],[374.92195165850507,-319.98452554813514]]],"type":"Polygon"},"type":"Feature"},{"properties":{"Element":"Room","NCES_Department":"Public Defense","Number":"132","occupancyStatus":"","Area_SF":93.99,"Revit_UniqueId":"214f934e-51b5-427a-a212-d17e20c54258-005845aa","NCES_Occupancy Status":"","Level":"BASEMENT","RevitId":5785002,"Name":"OFFICE","NCES_Type":"Private Office - Enclosed"},"geometry":{"coordinates":[[[383.6162656486092,-331.75535888146845],[383.6162656486092,-319.98452554813514],[374.92195165850507,-319.98452554813514],[374.921951658505,-331.75535888146845],[383.6162656486092,-331.75535888146845]]],"type":"Polygon"},"type":"Feature"},{"properties":{"Element":"Room","NCES_Department":"Public Defense","Number":"133","occupancyStatus":"","Area_SF":91.4,"Revit_UniqueId":"214f934e-51b5-427a-a212-d17e20c54258-005845ad","NCES_Occupancy Status":"","Level":"BASEMENT","RevitId":5785005,"Name":"OFFICE","NCES_Type":"Private Office - Enclosed"},"geometry":{"coordinates":[[[374.921951658505,-343.2136922148018],[383.6162656486092,-343.2136922148018],[383.6162656486092,-331.75535888146845],[374.921951658505,-331.75535888146845],[374.921951658505,-343.2136922148018]]],"type":"Polygon"},"type":"Feature"},{"properties":{"Element":"Room","NCES_Department":"Public Defense","Number":"135","occupancyStatus":"","Area_SF":88.79,"Revit_UniqueId":"214f934e-51b5-427a-a212-d17e20c54258-005845b0","NCES_Occupancy Status":"","Level":"BASEMENT","RevitId":5785008,"Name":"OFFICE","NCES_Type":"Private Office - Enclosed"},"geometry":{"coordinates":[[[366.46361832517164,-343.2136922148018],[374.921951658505,-343.2136922148018],[374.921951658505,-331.75535888146845],[366.46361832517164,-331.7553588814684],[366.46361832517164,-343.2136922148018]]],"type":"Polygon"},"type":"Feature"},{"properties":{"Element":"Room","NCES_Department":"Public Defense","Number":"136","occupancyStatus":"","Area_SF":88.56,"Revit_UniqueId":"214f934e-51b5-427a-a212-d17e20c54258-005845b3","NCES_Occupancy Status":"","Level":"BASEMENT","RevitId":5785011,"Name":"OFFICE","NCES_Type":"Private Office - Enclosed"},"geometry":{"coordinates":[[[358.02611832517164,-343.2136922148018],[366.46361832517164,-343.2136922148019],[366.46361832517164,-331.7553588814684],[358.02611832517164,-331.7553588814684],[358.02611832517164,-343.2136922148018]]],"type":"Polygon"},"type":"Feature"},{"properties":{"Element":"Room","NCES_Department":"Public Defense","Number":"137","occupancyStatus":"","Area_SF":91.94,"Revit_UniqueId":"214f934e-51b5-427a-a212-d17e20c54258-005845b6","NCES_Occupancy Status":"","Level":"BASEMENT","RevitId":5785014,"Name":"OFFICE","NCES_Type":"Private Office - Enclosed"},"geometry":{"coordinates":[[[349.28293231527584,-343.2136922148018],[358.02611832517164,-343.2136922148018],[358.02611832517164,-331.7553588814684],[349.28293231527584,-331.75535888146834],[349.28293231527584,-343.2136922148018]]],"type":"Polygon"},"type":"Feature"},{"properties":{"Element":"Room","NCES_Department":"Public Defense","Number":"138","occupancyStatus":"","Area_SF":27.85,"Revit_UniqueId":"214f934e-51b5-427a-a212-d17e20c54258-005845b9","NCES_Occupancy Status":"","Level":"BASEMENT","RevitId":5785017,"Name":"ELEC.","NCES_Type":"Electrical Room"},"geometry":{"coordinates":[[[352.8058582217142,-366.0945208402691],[357.2016915550475,-366.0945208402691],[357.2016915550475,-358.67785417360244],[352.93055642324657,-358.67785417360244],[352.8058582217142,-358.67785417360244],[352.8058582217142,-358.72847563007866],[352.8058582217142,-365.03202084026907],[352.8058582217142,-366.0945208402691]]],"type":"Polygon"},"type":"Feature"},{"properties":{"Element":"Room","NCES_Department":"Courthouse","Number":"044","occupancyStatus":"","Area_SF":467.67,"Revit_UniqueId":"214f934e-51b5-427a-a212-d17e20c54258-005845bc","NCES_Occupancy Status":"","Level":"BASEMENT","RevitId":5785020,"Name":"CORR.","NCES_Type":"Corridor/Hallway"},"geometry":{"coordinates":[[[293.78492000288713,-308.3301268635312],[293.78492000288713,-308.0384601968645],[242.67582786417844,-308.0384601968644],[242.67582786417844,-315.39927428904724],[256.44909751533385,-315.39927428904724],[257.8657641820005,-315.39927428904724],[268.38561111270644,-315.39927428904724],[293.79678485855266,-315.39927428904724],[297.7174945308451,-315.39927428904724],[297.7174945308451,-315.4826076223806],[306.21345152521934,-315.4826076223806],[314.3682533362205,-315.4826076223806],[314.3682533362205,-308.33012686353123],[305.01091298827424,-308.33012686353123],[294.3734871690155,-308.3301268635312],[293.78492000288713,-308.3301268635312]]],"type":"Polygon"},"type":"Feature"},{"properties":{"Element":"Room","NCES_Department":"County Records","Number":"045","occupancyStatus":"","Area_SF":4.65,"Revit_UniqueId":"214f934e-51b5-427a-a212-d17e20c54258-005845bf","NCES_Occupancy Status":"","Level":"BASEMENT","RevitId":5785023,"Name":"ELEC. CLOSET","NCES_Type":"Electrical Room"},"geometry":{"coordinates":[[[257.8657641820005,-315.39927428904724],[256.44909751533385,-315.39927428904724],[256.4490975153338,-320.4617742890473],[257.8657641820005,-320.4617742890473],[257.8657641820005,-315.39927428904724]]],"type":"Polygon"},"type":"Feature"},{"properties":{"Element":"Room","NCES_Department":"County Records","Number":"045A","occupancyStatus":"","Area_SF":4.65,"Revit_UniqueId":"214f934e-51b5-427a-a212-d17e20c54258-005845c2","NCES_Occupancy Status":"","Level":"BASEMENT","RevitId":5785026,"Name":"ELEC. CLOSET","NCES_Type":"Electrical Room"},"geometry":{"coordinates":[[[256.44909751533385,-320.4617742890473],[256.4490975153338,-325.5242742890473],[257.8657641820005,-325.5242742890473],[257.8657641820005,-320.4617742890473],[256.44909751533385,-320.4617742890473]]],"type":"Polygon"},"type":"Feature"},{"properties":{"Element":"Room","NCES_Department":"Courthouse","Number":"003A","occupancyStatus":"","Area_SF":68.91,"Revit_UniqueId":"214f934e-51b5-427a-a212-d17e20c54258-005845c5","NCES_Occupancy Status":"","Level":"BASEMENT","RevitId":5785029,"Name":"ELEV. MAIN. ROOM","NCES_Type":"Mechanical Room"},"geometry":{"coordinates":[[[424.0508278641785,-301.10071045460745],[424.0508278641785,-293.0543344811008],[414.66014136401583,-293.05433448110074],[413.86847469734914,-293.05433448110074],[413.86847469734914,-297.3542607423601],[413.86847469734914,-301.1007104546074],[414.93097469734914,-301.1007104546074],[424.0508278641785,-301.10071045460745]]],"type":"Polygon"},"type":"Feature"},{"properties":{"Element":"Room","NCES_Department":"Courthouse","Number":"007","occupancyStatus":"","Area_SF":31.1,"Revit_UniqueId":"214f934e-51b5-427a-a212-d17e20c54258-005845c8","NCES_Occupancy Status":"","Level":"BASEMENT","RevitId":5785032,"Name":"STORAGE","NCES_Type":"General Storage"},"geometry":{"coordinates":[[[424.0508278641785,-304.94475001501917],[424.0508278641785,-301.10071045460745],[414.93097469734914,-301.1007104546074],[414.93097469734914,-302.2048771212741],[413.86847469734914,-302.2048771212741],[413.86847469734914,-304.94475001501917],[424.0508278641785,-304.94475001501917]]],"type":"Polygon"},"type":"Feature"},{"properties":{"Element":"Room","NCES_Department":"Public Defense","Number":"107","occupancyStatus":"","Area_SF":351.69,"Revit_UniqueId":"214f934e-51b5-427a-a212-d17e20c54258-005847db","NCES_Occupancy Status":"","Level":"BASEMENT","RevitId":5785563,"Name":"RECEPTION","NCES_Type":"Lobby/Reception"},"geometry":{"coordinates":[[[326.6758278641785,-309.3992742890473],[326.6758278641785,-315.4826076223806],[326.8841611975118,-315.4826076223806],[326.8841611975118,-315.9846076223806],[326.8841611975118,-320.00605662556586],[336.06455718749544,-320.00605662556586],[336.06455718749544,-319.7977232922325],[336.5665571874954,-319.7977232922325],[340.3850989819425,-319.79772329223255],[340.88709898194253,-319.79772329223255],[340.88709898194253,-319.98452554813514],[349.28293231527584,-319.98452554813514],[358.02611832517164,-319.98452554813514],[360.52613454751366,-319.98452554813514],[360.52613454751366,-315.9884166816857],[360.52613454751366,-315.4864166816857],[360.734467880847,-315.4864166816857],[360.734467880847,-309.10760762238067],[350.31780121418035,-309.10760762238067],[350.31780121418035,-309.3992742890473],[347.00530121418035,-309.3992742890473],[347.00530121418035,-309.10760762238067],[331.3841611975118,-309.1076076223806],[331.3841611975118,-309.3992742890473],[326.6758278641785,-309.3992742890473]]],"type":"Polygon"},"type":"Feature"},{"properties":{"Element":"Room","NCES_Department":"Public Defense","Number":"178","occupancyStatus":"","Area_SF":154.86,"Revit_UniqueId":"214f934e-51b5-427a-a212-d17e20c54258-0058482b","NCES_Occupancy Status":"","Level":"BASEMENT","RevitId":5785643,"Name":"HALL","NCES_Type":"Corridor/Hallway"},"geometry":{"coordinates":[[[336.06455718749544,-319.7977232922325],[336.06455718749544,-330.23800953556326],[336.06455718749544,-340.4953151748551],[336.06455718749544,-350.6007449597327],[336.06455718749544,-354.9468796973224],[340.88709898194253,-354.94687969732246],[340.88709898194253,-343.2136922148018],[340.88709898194253,-331.75535888146834],[340.88709898194253,-319.79772329223255],[336.06455718749544,-319.7977232922325]]],"type":"Polygon"},"type":"Feature"},{"properties":{"Element":"Room","NCES_Department":"Public Defense","Number":"107C","occupancyStatus":"","Area_SF":1304.29,"Revit_UniqueId":"214f934e-51b5-427a-a212-d17e20c54258-00584831","NCES_Occupancy Status":"","Level":"BASEMENT","RevitId":5785649,"Name":"PROBATION OFFICE","NCES_Type":"Open Office - Cubicles"},"geometry":{"coordinates":[[[361.80821933549197,-315.4864166816857],[360.52613454751366,-315.4864166816857],[360.52613454751366,-319.98452554813514],[366.46361832517164,-319.98452554813514],[374.92195165850507,-319.98452554813514],[383.6162656486092,-319.98452554813514],[383.6162656486092,-331.75535888146845],[383.6162656486092,-343.2136922148018],[374.921951658505,-343.2136922148018],[366.46361832517164,-343.2136922148018],[358.02611832517164,-343.2136922148018],[349.28293231527584,-343.2136922148018],[349.28293231527584,-354.71062009540293],[352.7812328834217,-358.67785417360244],[357.2016915550475,-358.67785417360244],[357.2016915550475,-366.0945208402691],[362.16432298791034,-366.0945208402691],[374.67840958154056,-366.0945208402691],[384.330989654577,-366.0945208402691],[396.554721831699,-366.0945208402691],[396.554721831699,-360.52808334835237],[396.55472183169906,-354.282437919225],[396.55472183169906,-342.4965311854655],[396.5547218316991,-332.1114166816857],[389.09638849836574,-332.1114166816857],[389.09638849836574,-330.9864166816857],[389.09638849836574,-324.09639899962144],[389.09638849836574,-319.6114166816857],[389.09638849836574,-315.4864166816857],[372.55575333622056,-315.4864166816857],[361.80821933549197,-315.4864166816857]]],"type":"Polygon"},"type":"Feature"},{"properties":{"Element":"Room","NCES_Department":"County Records","Number":"105","occupancyStatus":"","Area_SF":829.42,"Revit_UniqueId":"214f934e-51b5-427a-a212-d17e20c54258-005848a3","NCES_Occupancy Status":"","Level":"BASEMENT","RevitId":5785763,"Name":"CLERK'S STORAGE","NCES_Type":"Records Storage - Active"},"geometry":{"coordinates":[[[238.67582786417844,-315.39927428904724],[238.67582786417844,-315.52427428904724],[237.3424945308451,-315.52427428904724],[237.34249453084507,-343.64927428904724],[245.27999453084507,-343.64927428904724],[245.27999453084507,-341.5659409557139],[246.36332786417842,-341.5659409557139],[246.36332786417842,-343.64927428904724],[256.6758278641784,-343.6492742890473],[268.3856111127063,-343.64927428904736],[268.3856111127063,-343.572669553473],[268.38561111270644,-315.39927428904724],[257.8657641820005,-315.39927428904724],[257.8657641820005,-320.4617742890473],[257.8657641820005,-325.5242742890473],[256.4490975153338,-325.5242742890473],[256.44909751533385,-320.4617742890473],[256.44909751533385,-315.39927428904724],[242.67582786417844,-315.39927428904724],[238.67582786417844,-315.39927428904724]]],"type":"Polygon"},"type":"Feature"},{"properties":{"Element":"Room","NCES_Department":"County Records","Number":"047","occupancyStatus":"","Area_SF":2522.14,"Revit_UniqueId":"214f934e-51b5-427a-a212-d17e20c54258-005848fd","NCES_Occupancy Status":"","Level":"BASEMENT","RevitId":5785853,"Name":"CENTRAL ARCHIVE","NCES_Type":"Records Storage - Active"},"geometry":{"coordinates":[[[201.11332786417836,-378.91287226998986],[278.78144444603953,-378.9128722699902],[278.7814444460396,-366.0945208402691],[278.7814444460396,-357.07953893665695],[268.3856111127062,-357.07953893665695],[268.3856111127063,-343.64927428904736],[256.6758278641784,-343.6492742890473],[246.36332786417842,-343.64927428904724],[245.27999453084507,-343.64927428904724],[237.68106169697342,-343.64927428904724],[237.34249453084507,-343.64927428904724],[237.34249453084507,-343.52427428904724],[226.8590668695033,-343.5242742890472],[206.4424002028366,-343.5242742890472],[206.4424002028366,-343.8576076223805],[205.94040020283663,-343.8576076223805],[201.11332786417842,-343.85760762238044],[201.11332786417836,-378.91287226998986]]],"type":"Polygon"},"type":"Feature"},{"properties":{"Element":"Room","NCES_Department":"Courthouse","Number":"001A","occupancyStatus":"","Area_SF":58.17,"Revit_UniqueId":"214f934e-51b5-427a-a212-d17e20c54258-0058497f","NCES_Occupancy Status":"","Level":"BASEMENT","RevitId":5785983,"Name":"ELEV.","NCES_Type":"Elevator/Lift"},"geometry":{"coordinates":[[[413.86847469734914,-297.3542607423601],[404.8841611975118,-297.3542607423601],[404.8841611975118,-304.8614166816858],[413.1797218316989,-304.8614166816858],[413.86847469734914,-304.8614166816858],[413.86847469734914,-304.7311828488908],[413.86847469734914,-302.2048771212741],[413.86847469734914,-301.1007104546074],[413.86847469734914,-297.3542607423601]]],"type":"Polygon"},"type":"Feature"},{"properties":{"Element":"Room","NCES_Department":"Courthouse","Number":"103","occupancyStatus":"","Area_SF":82.48,"Revit_UniqueId":"f5b64948-bc66-46c9-bd2a-91d13474d2aa-00591c4c","NCES_Occupancy Status":"","Level":"BASEMENT","RevitId":5839948,"Name":"SUPERVISOR'S OFFICE","NCES_Type":"Private Office - Enclosed"},"geometry":{"coordinates":[[[38.99250247596879,-78.5707881175465],[39.367502475968735,-78.5707881175465],[50.11750247596882,-78.5707881175465],[50.11750247596882,-69.75740206587852],[38.99250247596879,-69.7574020658785],[38.99250247596879,-78.5707881175465]]],"type":"Polygon"},"type":"Feature"},{"properties":{"Element":"Room","NCES_Department":"Courthouse","Number":"102","occupancyStatus":"","Area_SF":177.17,"Revit_UniqueId":"f5b64948-bc66-46c9-bd2a-91d13474d2aa-00591c4f","NCES_Occupancy Status":"","Level":"BASEMENT","RevitId":5839951,"Name":"E.0.C./ PUBLIC VIEWING","NCES_Type":"Public Observation Area"},"geometry":{"coordinates":[[[50.11750247596885,-52.198988157955284],[39.950835809302134,-52.198988157955256],[39.950835809302134,-52.7823214912886],[38.99250247596879,-52.7823214912886],[38.99250247596879,-69.7574020658785],[50.11750247596882,-69.75740206587852],[50.11750247596885,-52.198988157955284]]],"type":"Polygon"},"type":"Feature"},{"properties":{"Element":"Room","NCES_Department":"Courthouse","Number":"101","occupancyStatus":"","Area_SF":1111.9,"Revit_UniqueId":"f5b64948-bc66-46c9-bd2a-91d13474d2aa-00591c52","NCES_Occupancy Status":"","Level":"BASEMENT","RevitId":5839954,"Name":"COMMUNICATIONS CENTER","NCES_Type":"Radio/IT Communications Room"},"geometry":{"coordinates":[[[50.11750247596882,-78.5707881175465],[94.72095068747561,-78.5707881175465],[94.72095068747564,-52.19898815795543],[90.95080576834377,-52.19898815795543],[90.95080576834377,-52.78232149128877],[89.78413910167711,-52.78232149128877],[89.78413910167711,-52.19898815795543],[78.14252599952067,-52.1989881579554],[78.14252599952067,-52.78232149128874],[76.95502599952067,-52.78232149128871],[76.95502599952067,-52.19898815795537],[65.37149230676954,-52.19898815795534],[65.37149230676954,-52.782321491288684],[64.18399230676954,-52.782321491288684],[64.18399230676954,-52.19898815795534],[52.580527146436395,-52.19898815795531],[52.580527146436395,-52.782321491288656],[51.41386047976971,-52.78232149128863],[51.41386047976971,-52.198988157955284],[50.11750247596885,-52.198988157955284],[50.11750247596882,-69.75740206587852],[50.11750247596882,-78.5707881175465]]],"type":"Polygon"},"type":"Feature"},{"properties":{"Element":"Room","NCES_Department":"Courthouse","Number":"104","occupancyStatus":"","Area_SF":411.59,"Revit_UniqueId":"f5b64948-bc66-46c9-bd2a-91d13474d2aa-00591c55","NCES_Occupancy Status":"","Level":"BASEMENT","RevitId":5839957,"Name":"TECHNICAL EQUIPMENT","NCES_Type":"Equipment Storage"},"geometry":{"coordinates":[[[94.72095068747561,-78.5707881175465],[103.80428402080892,-78.5707881175465],[103.80428402080895,-68.77912145087979],[116.16958580930216,-68.77912145087981],[116.16958580930216,-52.782321491288855],[115.33625247596882,-52.782321491288855],[115.33625247596882,-52.19898815795551],[103.71589156587072,-52.19898815795548],[103.71589156587072,-52.782321491288826],[102.54922489920406,-52.7823214912888],[102.54922489920406,-52.198988157955455],[94.72095068747564,-52.19898815795543],[94.72095068747561,-78.5707881175465]]],"type":"Polygon"},"type":"Feature"},{"properties":{"Element":"Room","NCES_Department":"Courthouse","Number":"105","occupancyStatus":"","Area_SF":104.07,"Revit_UniqueId":"f5b64948-bc66-46c9-bd2a-91d13474d2aa-00591c58","NCES_Occupancy Status":"","Level":"BASEMENT","RevitId":5839960,"Name":"HVAC EQUIPMENT","NCES_Type":"Equipment Storage"},"geometry":{"coordinates":[[[103.80428402080892,-78.5707881175465],[116.16958580930216,-78.5707881175465],[116.16958580930216,-68.77912145087981],[103.80428402080895,-68.77912145087979],[103.80428402080892,-78.5707881175465]]],"type":"Polygon"},"type":"Feature"},{"properties":{"Element":"Room","NCES_Department":"Courthouse","Number":"160","occupancyStatus":"","Area_SF":356.97,"Revit_UniqueId":"f5b64948-bc66-46c9-bd2a-91d13474d2aa-00592f97","NCES_Occupancy Status":"","Level":"BASEMENT","RevitId":5844887,"Name":"IT SUPPORT","NCES_Type":"IT/Telecom Room"},"geometry":{"coordinates":[[[39.4562834038654,-27.227807777183642],[38.872950070532056,-27.227807777183642],[38.872950070532056,-36.9872812396772],[43.28961673719871,-36.98728123967723],[43.28961673719871,-45.62500000000051],[57.93545007053197,-45.62500000000051],[57.935450070532,-23.72780777718367],[38.872950070532056,-23.727807777183614],[38.872950070532056,-26.061141110516957],[39.4562834038654,-26.061141110516957],[39.4562834038654,-27.227807777183642]]],"type":"Polygon"},"type":"Feature"},{"properties":{"Element":"Room","NCES_Department":"Courthouse","Number":"161","occupancyStatus":"","Area_SF":117.35,"Revit_UniqueId":"f5b64948-bc66-46c9-bd2a-91d13474d2aa-00592f9a","NCES_Occupancy Status":"","Level":"BASEMENT","RevitId":5844890,"Name":"IT STORAGE","NCES_Type":"Equipment Storage"},"geometry":{"coordinates":[[[38.872950070532056,-16.90569576015156],[38.872950070532056,-23.727807777183614],[57.935450070532,-23.72780777718367],[57.93545007053203,-16.905695760151616],[38.872950070532056,-16.90569576015156]]],"type":"Polygon"},"type":"Feature"},{"properties":{"Element":"Room","NCES_Department":"Courthouse","Number":"162","occupancyStatus":"","Area_SF":289.06,"Revit_UniqueId":"f5b64948-bc66-46c9-bd2a-91d13474d2aa-00592f9d","NCES_Occupancy Status":"","Level":"BASEMENT","RevitId":5844893,"Name":"EXERCISE","NCES_Type":"Multipurpose Room"},"geometry":{"coordinates":[[[57.935450070532056,-0.5416666666667993],[38.872950070532056,-0.5416666666666856],[38.872950070532056,-16.90569576015156],[57.93545007053203,-16.905695760151616],[57.935450070532056,-0.5416666666667993]]],"type":"Polygon"},"type":"Feature"},{"properties":{"Element":"Room","NCES_Department":"Courthouse","Number":"163","occupancyStatus":"","Area_SF":123.86,"Revit_UniqueId":"f5b64948-bc66-46c9-bd2a-91d13474d2aa-00592fa0","NCES_Occupancy Status":"","Level":"BASEMENT","RevitId":5844896,"Name":"EOC RADIO","NCES_Type":"Radio/IT Communications Room"},"geometry":{"coordinates":[[[74.88882320036771,-19.458333333333883],[89.68048986703437,-19.45833333333394],[89.6804898670344,-11.937500000000597],[89.6804898670344,-10.291666666667282],[74.88882320036774,-10.291666666667226],[74.88882320036771,-19.458333333333883]]],"type":"Polygon"},"type":"Feature"},{"properties":{"Element":"Room","NCES_Department":"Courthouse","Number":"164","occupancyStatus":"","Area_SF":862.93,"Revit_UniqueId":"f5b64948-bc66-46c9-bd2a-91d13474d2aa-00592fa3","NCES_Occupancy Status":"","Level":"BASEMENT","RevitId":5844899,"Name":"FACILITIES","NCES_Type":"General Storage"},"geometry":{"coordinates":[[[116.15408142329238,-0.5416666666671404],[57.935450070532056,-0.5416666666667993],[57.93545007053203,-16.905695760151616],[57.935450070532,-23.72780777718367],[57.93545007053197,-45.62500000000051],[64.28961673719871,-45.62500000000051],[64.28961673719874,-19.458333333333854],[74.88882320036771,-19.458333333333883],[74.88882320036774,-10.291666666667226],[89.6804898670344,-10.291666666667282],[89.6804898670344,-11.937500000000597],[116.15408142329238,-11.937500000000682],[116.15408142329238,-0.5416666666671404]]],"type":"Polygon"},"type":"Feature"},{"properties":{"Element":"Room","NCES_Department":"Courthouse","Number":"165","occupancyStatus":"","Area_SF":181.77,"Revit_UniqueId":"f5b64948-bc66-46c9-bd2a-91d13474d2aa-00592fa6","NCES_Occupancy Status":"","Level":"BASEMENT","RevitId":5844902,"Name":"HALL/STORAGE","NCES_Type":"Corridor/Hallway"},"geometry":{"coordinates":[[[116.15408142329235,-19.458333333334025],[116.15408142329235,-11.937500000000682],[89.6804898670344,-11.937500000000597],[89.68048986703437,-19.45833333333394],[105.15408142329235,-19.458333333333997],[116.15408142329235,-19.458333333334025]]],"type":"Polygon"},"type":"Feature"},{"properties":{"Element":"Room","NCES_Department":"Courthouse","Number":"166","occupancyStatus":"","Area_SF":1032.66,"Revit_UniqueId":"f5b64948-bc66-46c9-bd2a-91d13474d2aa-00592fa9","NCES_Occupancy Status":"","Level":"BASEMENT","RevitId":5844905,"Name":"EOC","NCES_Type":"Open Office - Cubicles"},"geometry":{"coordinates":[[[64.28961673719871,-45.583333333333854],[105.15408142329233,-45.583333333333854],[105.15408142329233,-42.55749530543949],[105.15408142329233,-37.14600604436043],[105.15408142329235,-31.651407933374117],[105.15408142329235,-19.458333333333997],[89.68048986703437,-19.45833333333394],[74.88882320036771,-19.458333333333883],[64.28961673719874,-19.458333333333854],[64.28961673719871,-45.36976616720551],[64.28961673719871,-45.583333333333854]]],"type":"Polygon"},"type":"Feature"},{"properties":{"Element":"Room","NCES_Department":"Courthouse","Number":"167","occupancyStatus":"","Area_SF":121,"Revit_UniqueId":"f5b64948-bc66-46c9-bd2a-91d13474d2aa-00592fac","NCES_Occupancy Status":"","Level":"BASEMENT","RevitId":5844908,"Name":"QUIET","NCES_Type":"Multipurpose Room"},"geometry":{"coordinates":[[[116.15408142329235,-31.651407933374145],[116.15408142329235,-27.250000000000597],[115.48741475662567,-27.250000000000597],[115.48741475662567,-26.041666666667254],[116.15408142329235,-26.041666666667254],[116.15408142329235,-19.458333333334025],[105.15408142329235,-19.458333333333997],[105.15408142329235,-31.651407933374117],[116.15408142329235,-31.651407933374145]]],"type":"Polygon"},"type":"Feature"},{"properties":{"Element":"Room","NCES_Department":"Courthouse","Number":"168","occupancyStatus":"","Area_SF":52.46,"Revit_UniqueId":"f5b64948-bc66-46c9-bd2a-91d13474d2aa-00592faf","NCES_Occupancy Status":"","Level":"BASEMENT","RevitId":5844911,"Name":"QUEUE","NCES_Type":"Waiting/Queue Area"},"geometry":{"coordinates":[[[116.15408142329233,-37.14600604436046],[116.15408142329235,-31.651407933374145],[105.15408142329235,-31.651407933374117],[105.15408142329233,-37.14600604436043],[110.04991475662567,-37.14600604436043],[111.19574808995901,-37.14600604436046],[116.15408142329233,-37.14600604436046]]],"type":"Polygon"},"type":"Feature"},{"properties":{"Element":"Room","NCES_Department":"Courthouse","Number":"169","occupancyStatus":"","Area_SF":22.76,"Revit_UniqueId":"f5b64948-bc66-46c9-bd2a-91d13474d2aa-00592fb2","NCES_Occupancy Status":"","Level":"BASEMENT","RevitId":5844914,"Name":"RR","NCES_Type":"Single Stall Restroom"},"geometry":{"coordinates":[[[105.15408142329233,-37.14600604436043],[105.15408142329233,-42.55749530543949],[107.84158142329233,-42.55749530543949],[110.04991475662567,-42.55749530543949],[110.04991475662567,-37.14600604436043],[105.15408142329233,-37.14600604436043]]],"type":"Polygon"},"type":"Feature"},{"properties":{"Element":"Room","NCES_Department":"Courthouse","Number":"170","occupancyStatus":"","Area_SF":22.24,"Revit_UniqueId":"f5b64948-bc66-46c9-bd2a-91d13474d2aa-00592fb5","NCES_Occupancy Status":"","Level":"BASEMENT","RevitId":5844917,"Name":"RR","NCES_Type":"Single Stall Restroom"},"geometry":{"coordinates":[[[116.15408142329233,-42.55749530543952],[116.15408142329233,-37.14600604436046],[111.19574808995901,-37.14600604436046],[111.19574808995901,-42.55749530543952],[116.15408142329233,-42.55749530543952]]],"type":"Polygon"},"type":"Feature"},{"properties":{"Element":"Room","NCES_Department":"Courthouse","Number":"171","occupancyStatus":"","Area_SF":11.34,"Revit_UniqueId":"f5b64948-bc66-46c9-bd2a-91d13474d2aa-00592fb8","NCES_Occupancy Status":"","Level":"BASEMENT","RevitId":5844920,"Name":"EYE WASH AREA","NCES_Type":"Private Restroom"},"geometry":{"coordinates":[[[116.15408142329233,-45.583333333333854],[116.15408142329233,-42.55749530543952],[111.19574808995901,-42.55749530543952],[111.19574808995901,-45.583333333333854],[116.15408142329233,-45.583333333333854]]],"type":"Polygon"},"type":"Feature"},{"properties":{"Element":"Room","NCES_Department":"Courthouse","Number":"172","occupancyStatus":"","Area_SF":533.1,"Revit_UniqueId":"f5b64948-bc66-46c9-bd2a-91d13474d2aa-00595e34","NCES_Occupancy Status":"","Level":"BASEMENT","RevitId":5856820,"Name":"ADMIN","NCES_Type":"Administrative Workroom"},"geometry":{"coordinates":[[[0.6666666666656624,-62.098623646263036],[0.6666666666656624,-75.97780777718367],[0.4999999999989768,-75.97780777718367],[0.4999999999989768,-77.29030777718367],[1.1666666666656056,-77.29030777718367],[1.1666666666656056,-78.18614111051704],[13.16037393441593,-78.18614111051704],[13.16037393441593,-77.58197444385036],[13.577040601082558,-77.58197444385036],[14.03537393441593,-77.58197444385036],[14.03537393441593,-78.65412145087987],[28.972873934415958,-78.65412145087993],[28.972873934415958,-72.64447444385033],[33.49103763460485,-72.64447444385033],[33.49103763460485,-64.36945697959644],[21.61603763460488,-64.36945697959641],[21.616037634604908,-52.369456979596436],[12.562499999998977,-52.36945697959641],[12.562499999998977,-53.12145697959642],[12.562499999998977,-62.098623646263064],[6.208333333332291,-62.098623646263036],[0.6666666666656624,-62.098623646263036]]],"type":"Polygon"},"type":"Feature"},{"properties":{"Element":"Room","NCES_Department":"Courthouse","Number":"173","occupancyStatus":"","Area_SF":628.15,"Revit_UniqueId":"f5b64948-bc66-46c9-bd2a-91d13474d2aa-00595e37","NCES_Occupancy Status":"","Level":"BASEMENT","RevitId":5856823,"Name":"ADMIN SUPPORT","NCES_Type":"Administrative Workroom"},"geometry":{"coordinates":[[[13.345204301271622,-26.436141110516957],[13.345204301271622,-26.1444744438503],[0.4999999999989768,-26.1444744438503],[0.4999999999989768,-52.36945697959638],[1.4166666666656624,-52.36945697959638],[1.4166666666656624,-52.61945697959638],[6.208333333332291,-52.61945697959641],[12.060499999998967,-52.61945697959641],[12.333333333332348,-52.61945697959641],[12.333333333332348,-52.36945697959641],[12.562499999998977,-52.36945697959641],[21.616037634604908,-52.369456979596436],[33.49103763460485,-52.369456979596464],[33.49103763460485,-44.79166666666717],[23.11603763460488,-44.79166666666714],[23.116037634604908,-26.436141110516985],[13.847204301271631,-26.436141110516957],[13.345204301271622,-26.436141110516957]]],"type":"Polygon"},"type":"Feature"},{"properties":{"Element":"Room","NCES_Department":"Courthouse","Number":"174","occupancyStatus":"","Area_SF":177.25,"Revit_UniqueId":"f5b64948-bc66-46c9-bd2a-91d13474d2aa-00595e3a","NCES_Occupancy Status":"","Level":"BASEMENT","RevitId":5856826,"Name":"TECHNOL. OFFICE","NCES_Type":"Private Office - Enclosed"},"geometry":{"coordinates":[[[26.532704301271565,-26.748641110516985],[26.532704301271565,-26.436141110516985],[23.116037634604908,-26.436141110516985],[23.11603763460488,-44.79166666666714],[33.49103763460485,-44.79166666666717],[33.49103763460485,-26.436141110517013],[32.74103763460488,-26.436141110517013],[27.657704301271565,-26.436141110516985],[27.657704301271565,-26.748641110516985],[26.532704301271565,-26.748641110516985]]],"type":"Polygon"},"type":"Feature"},{"properties":{"Element":"Room","NCES_Department":"Courthouse","Number":"175","occupancyStatus":"","Area_SF":78.57,"Revit_UniqueId":"f5b64948-bc66-46c9-bd2a-91d13474d2aa-00595e3d","NCES_Occupancy Status":"","Level":"BASEMENT","RevitId":5856829,"Name":"PHONE ROOM","NCES_Type":"Call Center/Phone Bank"},"geometry":{"coordinates":[[[13.345204301271622,-20.08197444385027],[13.345204301271622,-26.436141110516957],[23.116037634604908,-26.436141110516985],[26.532704301271565,-26.436141110516985],[26.532704301271565,-25.936141110516957],[27.449370967938222,-25.936141110516957],[27.449370967938222,-24.873641110517013],[27.449370967938222,-20.081974443850328],[13.345204301271622,-20.08197444385027]]],"type":"Polygon"},"type":"Feature"},{"properties":{"Element":"Room","NCES_Department":"Courthouse","Number":"176","occupancyStatus":"","Area_SF":526.41,"Revit_UniqueId":"f5b64948-bc66-46c9-bd2a-91d13474d2aa-00595e40","NCES_Occupancy Status":"","Level":"BASEMENT","RevitId":5856832,"Name":"RADIO SHOP","NCES_Type":"Radio/IT Communications Room"},"geometry":{"coordinates":[[[38.872950070532056,-0.5416666666666572],[13.345204301271679,-0.5416666666665151],[13.345204301271622,-20.08197444385027],[27.449370967938222,-20.081974443850328],[27.449370967938222,-24.873641110517013],[32.74103763460488,-24.873641110517042],[32.74103763460488,-26.436141110517013],[33.49103763460485,-26.436141110517013],[38.872950070532056,-26.436141110517042],[38.872950070532056,-26.061141110516957],[38.872950070532056,-23.727807777183614],[38.872950070532056,-16.90569576015156],[38.872950070532056,-0.5416666666666572]]],"type":"Polygon"},"type":"Feature"},{"properties":{"Element":"Room","NCES_Department":"Courthouse","Number":"177","occupancyStatus":"","Area_SF":1516.41,"Revit_UniqueId":"f5b64948-bc66-46c9-bd2a-91d13474d2aa-00595e4f","NCES_Occupancy Status":"","Level":"BASEMENT","RevitId":5856847,"Name":"MECHANICAL","NCES_Type":"Mechanical Room"},"geometry":{"coordinates":[[[153.44017812180113,-32.02083333333405],[153.4401781218011,-31.520833333334025],[153.44017812180107,-26.58333333333408],[145.73184478846775,-26.583333333334053],[122.2112524759689,-26.58333333333391],[122.21125247596882,-76.98745478421327],[153.44017812180113,-76.98745478421336],[153.44017812180113,-32.02083333333405]]],"type":"Polygon"},"type":"Feature"},{"properties":{"Element":"Room","NCES_Department":"Courthouse","Number":"179","occupancyStatus":"","Area_SF":255.2,"Revit_UniqueId":"f5b64948-bc66-46c9-bd2a-91d13474d2aa-00595e52","NCES_Occupancy Status":"","Level":"BASEMENT","RevitId":5856850,"Name":"BATTERY ROOM","NCES_Type":"Equipment Storage"},"geometry":{"coordinates":[[[122.21125247596882,-85.87179353019744],[144.07688359133496,-85.8717935301975],[144.07688359133496,-86.16346019686412],[153.44017812180113,-86.16346019686418],[153.44017812180113,-76.98745478421336],[122.21125247596882,-76.98745478421327],[122.21125247596882,-85.87179353019744]]],"type":"Polygon"},"type":"Feature"},{"properties":{"Element":"Room","NCES_Department":"Courthouse","Number":"180","occupancyStatus":"","Area_SF":206.19,"Revit_UniqueId":"f5b64948-bc66-46c9-bd2a-91d13474d2aa-00595e55","NCES_Occupancy Status":"","Level":"BASEMENT","RevitId":5856853,"Name":"RF SERVER ROOM","NCES_Type":"Radio/IT Communications Room"},"geometry":{"coordinates":[[[144.07688359133496,-102.57078811754664],[144.07688359133496,-94.41346019686412],[122.21125247596879,-94.41346019686398],[116.1695858093021,-94.41346019686395],[116.1695858093021,-102.57078811754656],[144.07688359133496,-102.57078811754664]]],"type":"Polygon"},"type":"Feature"},{"properties":{"Element":"Room","NCES_Department":"Courthouse","Number":"181","occupancyStatus":"","Area_SF":716.63,"Revit_UniqueId":"f5b64948-bc66-46c9-bd2a-91d13474d2aa-00595e58","NCES_Occupancy Status":"","Level":"BASEMENT","RevitId":5856856,"Name":"KITCHEN","NCES_Type":"Kitchenette"},"geometry":{"coordinates":[[[145.73184478846775,-26.583333333333968],[145.73184478846775,-19.333333333334025],[145.06517812180107,-19.333333333334025],[145.06517812180107,-19.06250000000071],[145.06517812180113,-0.5416666666673393],[116.15408142329238,-0.5416666666671688],[116.15408142329238,-11.937500000000682],[116.15408142329235,-19.458333333334025],[116.15408142329235,-26.041666666667254],[116.15408142329235,-26.583333333333883],[122.2112524759689,-26.58333333333391],[145.73184478846775,-26.583333333333968]]],"type":"Polygon"},"type":"Feature"},{"properties":{"Element":"Room","NCES_Department":"Courthouse","Number":"182","occupancyStatus":"","Area_SF":514.47,"Revit_UniqueId":"f5b64948-bc66-46c9-bd2a-91d13474d2aa-00595e5b","NCES_Occupancy Status":"","Level":"BASEMENT","RevitId":5856859,"Name":"GENERATOR","NCES_Type":"Mechanical Room"},"geometry":{"coordinates":[[[145.06517812180107,-19.06250000000071],[151.94017812180113,-19.06250000000071],[151.94017812180113,-18.791666666667368],[153.4401781218011,-18.791666666667368],[153.4401781218011,-20.041666666667368],[153.4401781218011,-26.583333333334025],[168.928537634605,-26.58333333333408],[168.92853763460505,-0.5208333333341102],[157.4337714674,-0.5208333333341102],[156.928537634605,-0.5208333333341102],[156.92853763460502,-0.5416666666674246],[156.90770430127165,-0.5416666666674246],[145.06517812180113,-0.5416666666673393],[145.06517812180107,-19.06250000000071]]],"type":"Polygon"},"type":"Feature"},{"properties":{"Element":"Room","NCES_Department":"Courthouse","Number":"100C","occupancyStatus":"","Area_SF":1153.81,"Revit_UniqueId":"f5b64948-bc66-46c9-bd2a-91d13474d2aa-00595e5e","NCES_Occupancy Status":"","Level":"BASEMENT","RevitId":5856862,"Name":"CORRIDOR","NCES_Type":"Corridor/Hallway"},"geometry":{"coordinates":[[[116.16958580930213,-78.5707881175465],[116.1695858093021,-94.41346019686395],[122.21125247596879,-94.41346019686398],[122.21125247596879,-85.87179353019746],[122.21125247596882,-76.98745478421327],[122.2112524759689,-26.58333333333391],[116.15408142329235,-26.583333333333883],[116.15408142329235,-27.250000000000597],[116.15408142329235,-31.651407933374145],[116.15408142329233,-37.14600604436046],[116.15408142329233,-42.55749530543952],[116.15408142329233,-45.583333333333854],[111.19574808995901,-45.583333333333854],[110.04991475662567,-45.583333333333854],[105.15408142329233,-45.583333333333854],[64.28961673719871,-45.583333333333854],[64.03961673719871,-45.583333333333854],[64.03961673719871,-45.62500000000051],[64.03438290440371,-45.62500000000051],[57.93545007053197,-45.62500000000051],[43.28961673719871,-45.62500000000051],[38.872950070532056,-45.62500000000051],[38.872950070532056,-36.9872812396772],[38.872950070532056,-27.227807777183642],[38.872950070532056,-26.436141110517042],[33.49103763460485,-26.436141110517013],[33.49103763460485,-44.79166666666717],[33.49103763460485,-52.369456979596464],[33.49103763460485,-64.36945697959644],[33.49103763460485,-72.64447444385033],[33.49103763460485,-78.65412145087993],[33.49103763460485,-87.35956884082319],[34.773593923932,-87.35956884082319],[34.773593923932,-96.23890062168937],[39.367502475968735,-96.23890062168937],[39.367502475968735,-78.5707881175465],[38.99250247596879,-78.5707881175465],[38.99250247596879,-69.7574020658785],[38.99250247596879,-52.7823214912886],[38.99250247596879,-52.198988157955256],[39.950835809302134,-52.198988157955256],[50.11750247596885,-52.198988157955284],[51.41386047976971,-52.198988157955284],[52.580527146436395,-52.19898815795531],[64.18399230676954,-52.19898815795534],[65.37149230676954,-52.19898815795534],[76.95502599952067,-52.19898815795537],[78.14252599952067,-52.1989881579554],[89.78413910167711,-52.19898815795543],[90.95080576834377,-52.19898815795543],[94.72095068747564,-52.19898815795543],[102.54922489920406,-52.198988157955455],[103.71589156587072,-52.19898815795548],[115.33625247596882,-52.19898815795551],[116.16958580930216,-52.19898815795551],[116.16958580930216,-52.782321491288855],[116.16958580930216,-68.77912145087981],[116.16958580930213,-78.5707881175465]]],"type":"Polygon"},"type":"Feature"},{"properties":{"Element":"Room","NCES_Department":"Courthouse","Number":"184","occupancyStatus":"","Area_SF":47.84,"Revit_UniqueId":"f5b64948-bc66-46c9-bd2a-91d13474d2aa-00595ea7","NCES_Occupancy Status":"","Level":"BASEMENT","RevitId":5856935,"Name":"ELEVATOR","NCES_Type":"Elevator/Lift"},"geometry":{"coordinates":[[[151.94017812180113,-18.791666666667368],[151.94017812180113,-19.06250000000071],[145.73184478846775,-19.06250000000071],[145.73184478846775,-19.333333333334025],[145.73184478846775,-26.583333333334053],[153.4401781218011,-26.583333333334025],[153.4401781218011,-20.041666666667368],[153.4401781218011,-18.791666666667368],[151.94017812180113,-18.791666666667368]]],"type":"Polygon"},"type":"Feature"},{"properties":{"Element":"Room","NCES_Department":"Courthouse","Number":"185","occupancyStatus":"","Area_SF":168.59,"Revit_UniqueId":"f5b64948-bc66-46c9-bd2a-91d13474d2aa-00595ec3","NCES_Occupancy Status":"","Level":"BASEMENT","RevitId":5856963,"Name":"STAIR","NCES_Type":"Stair"},"geometry":{"coordinates":[[[144.07688359133496,-85.8717935301975],[122.21125247596879,-85.87179353019746],[122.21125247596879,-94.41346019686398],[144.07688359133496,-94.41346019686412],[144.07688359133496,-86.16346019686412],[144.07688359133496,-85.8717935301975]]],"type":"Polygon"},"type":"Feature"},{"properties":{"Element":"Room","NCES_Department":"Courthouse","Number":"186","occupancyStatus":"","Area_SF":156.45,"Revit_UniqueId":"f5b64948-bc66-46c9-bd2a-91d13474d2aa-00595f18","NCES_Occupancy Status":"","Level":"BASEMENT","RevitId":5857048,"Name":"STAIR","NCES_Type":"Stair"},"geometry":{"coordinates":[[[13.577040601082558,-78.65412145087987],[13.577040601082558,-87.35956884082319],[33.49103763460485,-87.35956884082319],[33.49103763460485,-78.65412145087993],[28.972873934415958,-78.65412145087993],[14.03537393441593,-78.65412145087987],[13.577040601082558,-78.65412145087987]]],"type":"Polygon"},"type":"Feature"},{"properties":{"Element":"Room","NCES_Department":"Courthouse","Number":"187","occupancyStatus":"","Area_SF":169.14,"Revit_UniqueId":"f5b64948-bc66-46c9-bd2a-91d13474d2aa-00595f1b","NCES_Occupancy Status":"","Level":"BASEMENT","RevitId":5857051,"Name":"WOMEN'S RR","NCES_Type":"Womens Restroom"},"geometry":{"coordinates":[[[13.577040601082558,-87.35956884082319],[13.577040601082501,-96.23890062168928],[30.98192725726537,-96.23890062168934],[34.773593923932,-96.23890062168937],[34.773593923932,-87.35956884082319],[33.49103763460485,-87.35956884082319],[13.577040601082558,-87.35956884082319]]],"type":"Polygon"},"type":"Feature"},{"properties":{"Element":"Room","NCES_Department":"Courthouse","Number":"188","occupancyStatus":"","Area_SF":196.63,"Revit_UniqueId":"f5b64948-bc66-46c9-bd2a-91d13474d2aa-00595f1e","NCES_Occupancy Status":"","Level":"BASEMENT","RevitId":5857054,"Name":"MEN'S RR","NCES_Type":"Mens Restroom"},"geometry":{"coordinates":[[[13.577040601082501,-97.69304256709978],[13.577040601082501,-106.60956884082313],[39.367502475968735,-106.6095688408232],[39.367502475968735,-96.23890062168937],[34.773593923932,-96.23890062168937],[34.773593923932,-97.6930425670997],[13.577040601082501,-97.69304256709978]]],"type":"Polygon"},"type":"Feature"},{"properties":{"Element":"Room","NCES_Department":"Courthouse","Number":"189","occupancyStatus":"","Area_SF":11.8,"Revit_UniqueId":"f5b64948-bc66-46c9-bd2a-91d13474d2aa-00595f8f","NCES_Occupancy Status":"","Level":"BASEMENT","RevitId":5857167,"Name":"EYE WASH AREA","NCES_Type":"Private Restroom"},"geometry":{"coordinates":[[[105.15408142329233,-45.583333333333854],[110.04991475662567,-45.583333333333854],[110.04991475662567,-42.55749530543949],[107.84158142329233,-42.55749530543949],[105.15408142329233,-42.55749530543949],[105.15408142329233,-45.583333333333854]]],"type":"Polygon"},"type":"Feature"}],"name":"633004_SarpyMP Courthouse_R26 - BASEMENT","type":"FeatureCollection"}