{"name":"633004_SarpyMP Courthouse_R26_jack.dohrman - BASEMENT","features":[{"properties":{"NCES_Type":"Mens Restroom","Number":"060","Name":"MEN'S RR","NCES_Department":"Courthouse","Seat Count":"","Revit_UniqueId":"ed0426dd-57a9-4be0-9337-75d177aa7e1e-00581bf3","Workstations":"","Element":"Room","NCES_Occupancy Status":"","occupancyStatus":"Occupied","Level":"BASEMENT","RevitId":5774323,"Area_SF":246.11},"geometry":{"coordinates":[[[-96.039006,41.140652],[-96.039006,41.140652],[-96.039006,41.140683],[-96.039042,41.140683],[-96.039042,41.140638],[-96.039045,41.140638],[-96.039045,41.14062],[-96.039037,41.14062],[-96.039037,41.140611],[-96.039037,41.140606],[-96.039006,41.140606],[-96.039006,41.140651],[-96.039006,41.140652]]],"type":"Polygon"},"type":"Feature"},{"properties":{"NCES_Type":"Womens Restroom","Number":"059","Name":"WOMEN'S RR","NCES_Department":"Courthouse","Seat Count":"","Revit_UniqueId":"ed0426dd-57a9-4be0-9337-75d177aa7e1e-00581bfa","Workstations":"","Element":"Room","NCES_Occupancy Status":"","occupancyStatus":"Occupied","Level":"BASEMENT","RevitId":5774330,"Area_SF":246.13},"geometry":{"coordinates":[[[-96.039048,41.140683],[-96.039084,41.140683],[-96.039084,41.140675],[-96.039083,41.140675],[-96.039083,41.140673],[-96.039083,41.140606],[-96.039053,41.140606],[-96.039053,41.140611],[-96.039053,41.14062],[-96.039045,41.14062],[-96.039045,41.140638],[-96.039048,41.140638],[-96.039048,41.140683]]],"type":"Polygon"},"type":"Feature"},{"properties":{"NCES_Type":"Waiting/Queue Area","Number":"001","Name":"ENTRY VEST.","NCES_Department":"Courthouse","Seat Count":"","Revit_UniqueId":"ed0426dd-57a9-4be0-9337-75d177aa7e1e-00581f93","Workstations":"","Element":"Room","NCES_Occupancy Status":"","occupancyStatus":"Occupied","Level":"BASEMENT","RevitId":5775251,"Area_SF":122.55},"geometry":{"coordinates":[[[-96.038856,41.140602],[-96.038853,41.140602],[-96.038853,41.140642],[-96.038888,41.140642],[-96.038888,41.140602],[-96.038887,41.140602],[-96.038856,41.140602]]],"type":"Polygon"},"type":"Feature"},{"properties":{"NCES_Type":"Waiting/Queue Area","Number":"002","Name":"COMMONS","NCES_Department":"Courthouse","Seat Count":"","Revit_UniqueId":"ed0426dd-57a9-4be0-9337-75d177aa7e1e-00581f9c","Workstations":"","Element":"Room","NCES_Occupancy Status":"","occupancyStatus":"Occupied","Level":"BASEMENT","RevitId":5775260,"Area_SF":927.81},"geometry":{"coordinates":[[[-96.038888,41.140652],[-96.039006,41.140652],[-96.039006,41.140606],[-96.039006,41.14057],[-96.038888,41.14057],[-96.038888,41.14059],[-96.038888,41.140601],[-96.038888,41.140602],[-96.038888,41.140602],[-96.038888,41.140642],[-96.038888,41.140652]]],"type":"Polygon"},"type":"Feature"},{"properties":{"NCES_Type":"Corridor/Hallway","Number":"003","Name":"ACCESS HALL","NCES_Department":"Courthouse","Seat Count":"","Revit_UniqueId":"ed0426dd-57a9-4be0-9337-75d177aa7e1e-00581fa3","Workstations":"","Element":"Room","NCES_Occupancy Status":"","occupancyStatus":"Occupied","Level":"BASEMENT","RevitId":5775267,"Area_SF":29.47},"geometry":{"coordinates":[[[-96.038856,41.140602],[-96.038888,41.140602],[-96.038888,41.14059],[-96.038856,41.14059],[-96.038856,41.140602]]],"type":"Polygon"},"type":"Feature"},{"properties":{"NCES_Type":"Corridor/Hallway","Number":"005","Name":"CORRIDOR","NCES_Department":"Courthouse","Seat Count":"","Revit_UniqueId":"ed0426dd-57a9-4be0-9337-75d177aa7e1e-005840f0","Workstations":"","Element":"Room","NCES_Occupancy Status":"","occupancyStatus":"Occupied","Level":"BASEMENT","RevitId":5783792,"Area_SF":503.47},"geometry":{"coordinates":[[[-96.039006,41.140541],[-96.038946,41.140541],[-96.038946,41.140529],[-96.038858,41.140529],[-96.038858,41.140551],[-96.038858,41.14057],[-96.038888,41.14057],[-96.039006,41.14057],[-96.039006,41.140541]]],"type":"Polygon"},"type":"Feature"},{"properties":{"NCES_Type":"Waiting/Queue Area","Number":"101","Name":"WAITING ROOM","NCES_Department":"Courthouse","Seat Count":"","Revit_UniqueId":"ed0426dd-57a9-4be0-9337-75d177aa7e1e-0058415b","Workstations":"","Element":"Room","NCES_Occupancy Status":"","occupancyStatus":"Occupied","Level":"BASEMENT","RevitId":5783899,"Area_SF":1038.78},"geometry":{"coordinates":[[[-96.039219,41.140541],[-96.039175,41.140541],[-96.039174,41.140541],[-96.039174,41.140557],[-96.039157,41.140557],[-96.039157,41.140558],[-96.039155,41.140558],[-96.039101,41.140558],[-96.0391,41.140558],[-96.0391,41.140557],[-96.039087,41.140557],[-96.039087,41.140558],[-96.039086,41.140558],[-96.039051,41.140558],[-96.039049,41.140558],[-96.039049,41.140557],[-96.039046,41.140557],[-96.039046,41.140541],[-96.039006,41.140541],[-96.039006,41.14057],[-96.039006,41.140606],[-96.039037,41.140606],[-96.039037,41.140611],[-96.039053,41.140611],[-96.039053,41.140606],[-96.039083,41.140606],[-96.039113,41.140606],[-96.039119,41.140606],[-96.039119,41.140606],[-96.039185,41.140606],[-96.039185,41.140579],[-96.039218,41.140579],[-96.039218,41.140571],[-96.039218,41.140571],[-96.039219,41.140571],[-96.039219,41.14056],[-96.039219,41.140541]]],"type":"Polygon"},"type":"Feature"},{"properties":{"NCES_Type":"Waiting/Queue Area","Number":"058","Name":"VEST.","NCES_Department":"Courthouse","Seat Count":"","Revit_UniqueId":"ed0426dd-57a9-4be0-9337-75d177aa7e1e-00584163","Workstations":"","Element":"Room","NCES_Occupancy Status":"","occupancyStatus":"Occupied","Level":"BASEMENT","RevitId":5783907,"Area_SF":186.98},"geometry":{"coordinates":[[[-96.039083,41.140675],[-96.039113,41.140675],[-96.039113,41.140606],[-96.039083,41.140606],[-96.039083,41.140675]]],"type":"Polygon"},"type":"Feature"},{"properties":{"NCES_Type":"Mechanical Room","Number":"056","Name":"MECH./ELEC.","NCES_Department":"Courthouse","Seat Count":"","Revit_UniqueId":"ed0426dd-57a9-4be0-9337-75d177aa7e1e-0058416b","Workstations":"","Element":"Room","NCES_Occupancy Status":"","occupancyStatus":"Occupied","Level":"BASEMENT","RevitId":5783915,"Area_SF":1988.7},"geometry":{"coordinates":[[[-96.039294,41.140707],[-96.039294,41.14056],[-96.039253,41.14056],[-96.039253,41.140579],[-96.03923,41.140579],[-96.039229,41.140579],[-96.039229,41.140579],[-96.039229,41.140606],[-96.039185,41.140606],[-96.039119,41.140606],[-96.039119,41.140606],[-96.039113,41.140606],[-96.039113,41.140673],[-96.039113,41.140675],[-96.039113,41.140675],[-96.039113,41.140707],[-96.039294,41.140707]]],"type":"Polygon"},"type":"Feature"},{"properties":{"NCES_Type":"Private Office - Enclosed","Number":"103","Name":"SHERRIF","NCES_Department":"Sheriff","Seat Count":"","Revit_UniqueId":"ed0426dd-57a9-4be0-9337-75d177aa7e1e-00584172","Workstations":"1","Element":"Room","NCES_Occupancy Status":"","occupancyStatus":"Occupied","Level":"BASEMENT","RevitId":5783922,"Area_SF":110.11},"geometry":{"coordinates":[[[-96.039185,41.140606],[-96.039229,41.140606],[-96.039229,41.140579],[-96.039218,41.140579],[-96.039185,41.140579],[-96.039185,41.140606]]],"type":"Polygon"},"type":"Feature"},{"properties":{"NCES_Type":"Janitor/Custodial Closet","Number":"057","Name":"JAN. CL.","NCES_Department":"Courthouse","Seat Count":"","Revit_UniqueId":"ed0426dd-57a9-4be0-9337-75d177aa7e1e-00584175","Workstations":"","Element":"Room","NCES_Occupancy Status":"","occupancyStatus":"Occupied","Level":"BASEMENT","RevitId":5783925,"Area_SF":46.11},"geometry":{"coordinates":[[[-96.039229,41.140579],[-96.039253,41.140579],[-96.039253,41.14056],[-96.039219,41.14056],[-96.039219,41.140571],[-96.039219,41.140571],[-96.039229,41.140571],[-96.039229,41.140579]]],"type":"Polygon"},"type":"Feature"},{"properties":{"NCES_Type":"Waiting/Queue Area","Number":"145","Name":"VEST.","NCES_Department":"Courthouse","Seat Count":"","Revit_UniqueId":"ed0426dd-57a9-4be0-9337-75d177aa7e1e-00584189","Workstations":"","Element":"Room","NCES_Occupancy Status":"","occupancyStatus":"Occupied","Level":"BASEMENT","RevitId":5783945,"Area_SF":65.63},"geometry":{"coordinates":[[[-96.038818,41.140551],[-96.038818,41.14057],[-96.038855,41.14057],[-96.038856,41.14057],[-96.038856,41.14057],[-96.038858,41.14057],[-96.038858,41.140551],[-96.038818,41.140551]]],"type":"Polygon"},"type":"Feature"},{"properties":{"NCES_Type":"Corridor/Hallway","Number":"146","Name":"HALL (VACANT)","NCES_Department":"Courthouse","Seat Count":"","Revit_UniqueId":"ed0426dd-57a9-4be0-9337-75d177aa7e1e-00584192","Workstations":"","Element":"Room","NCES_Occupancy Status":"","occupancyStatus":"Occupied","Level":"BASEMENT","RevitId":5783954,"Area_SF":613.85},"geometry":{"coordinates":[[[-96.038818,41.140454],[-96.038818,41.140551],[-96.038858,41.140551],[-96.038858,41.140529],[-96.038946,41.140529],[-96.038946,41.140517],[-96.038917,41.140517],[-96.038888,41.140517],[-96.038858,41.140517],[-96.038858,41.140495],[-96.038883,41.140495],[-96.038883,41.140466],[-96.038883,41.140434],[-96.038848,41.140434],[-96.038848,41.140452],[-96.038848,41.140454],[-96.038818,41.140454]]],"type":"Polygon"},"type":"Feature"},{"properties":{"NCES_Type":"Single Stall Restroom","Number":"147","Name":"RR","NCES_Department":"Courthouse","Seat Count":"","Revit_UniqueId":"ed0426dd-57a9-4be0-9337-75d177aa7e1e-0058419c","Workstations":"","Element":"Room","NCES_Occupancy Status":"","occupancyStatus":"Occupied","Level":"BASEMENT","RevitId":5783964,"Area_SF":48.55},"geometry":{"coordinates":[[[-96.038946,41.140517],[-96.038946,41.140498],[-96.038917,41.140498],[-96.038917,41.140517],[-96.038946,41.140517]]],"type":"Polygon"},"type":"Feature"},{"properties":{"NCES_Type":"Single Stall Restroom","Number":"148","Name":"RR","NCES_Department":"Courthouse","Seat Count":"","Revit_UniqueId":"ed0426dd-57a9-4be0-9337-75d177aa7e1e-005841a5","Workstations":"","Element":"Room","NCES_Occupancy Status":"","occupancyStatus":"Occupied","Level":"BASEMENT","RevitId":5783973,"Area_SF":49.09},"geometry":{"coordinates":[[[-96.038917,41.140498],[-96.038888,41.140498],[-96.038888,41.140517],[-96.038917,41.140517],[-96.038917,41.140498]]],"type":"Polygon"},"type":"Feature"},{"properties":{"NCES_Type":"General Storage","Number":"149","Name":"STORAGE","NCES_Department":"Courthouse","Seat Count":"","Revit_UniqueId":"ed0426dd-57a9-4be0-9337-75d177aa7e1e-005841a8","Workstations":"","Element":"Room","NCES_Occupancy Status":"","occupancyStatus":"Occupied","Level":"BASEMENT","RevitId":5783976,"Area_SF":58.89},"geometry":{"coordinates":[[[-96.038888,41.140495],[-96.038883,41.140495],[-96.038882,41.140495],[-96.038881,41.140495],[-96.038858,41.140495],[-96.038858,41.140517],[-96.038888,41.140517],[-96.038888,41.140498],[-96.038888,41.140495]]],"type":"Polygon"},"type":"Feature"},{"properties":{"NCES_Type":"Electrical Room","Number":"134","Name":"ELEC","NCES_Department":"Courthouse","Seat Count":"","Revit_UniqueId":"ed0426dd-57a9-4be0-9337-75d177aa7e1e-005841ba","Workstations":"","Element":"Room","NCES_Occupancy Status":"","occupancyStatus":"Occupied","Level":"BASEMENT","RevitId":5783994,"Area_SF":93.45},"geometry":{"coordinates":[[[-96.038888,41.140495],[-96.038919,41.140495],[-96.038919,41.140466],[-96.038883,41.140466],[-96.038883,41.140494],[-96.038883,41.140495],[-96.038888,41.140495]]],"type":"Polygon"},"type":"Feature"},{"properties":{"NCES_Type":"Office/Storage","Number":"151","Name":"OFFICE","NCES_Department":"Courthouse","Seat Count":"","Revit_UniqueId":"ed0426dd-57a9-4be0-9337-75d177aa7e1e-005841bd","Workstations":"","Element":"Room","NCES_Occupancy Status":"","occupancyStatus":"Occupied","Level":"BASEMENT","RevitId":5783997,"Area_SF":106.59},"geometry":{"coordinates":[[[-96.038883,41.140434],[-96.038883,41.140466],[-96.038919,41.140466],[-96.038919,41.140434],[-96.038883,41.140434]]],"type":"Polygon"},"type":"Feature"},{"properties":{"NCES_Type":"General Storage","Number":"144","Name":"STORAGE","NCES_Department":"Courthouse","Seat Count":"","Revit_UniqueId":"ed0426dd-57a9-4be0-9337-75d177aa7e1e-005841c0","Workstations":"","Element":"Room","NCES_Occupancy Status":"","occupancyStatus":"Occupied","Level":"BASEMENT","RevitId":5784000,"Area_SF":54.65},"geometry":{"coordinates":[[[-96.038883,41.140417],[-96.038883,41.140434],[-96.038919,41.140434],[-96.038919,41.140417],[-96.038883,41.140417]]],"type":"Polygon"},"type":"Feature"},{"properties":{"NCES_Type":"Conference Room","Number":"143","Name":"GROUP ROOM","NCES_Department":"Courthouse","Seat Count":"16","Revit_UniqueId":"ed0426dd-57a9-4be0-9337-75d177aa7e1e-005841c3","Workstations":"","Element":"Room","NCES_Occupancy Status":"","occupancyStatus":"Occupied","Level":"BASEMENT","RevitId":5784003,"Area_SF":812.07},"geometry":{"coordinates":[[[-96.038774,41.140451],[-96.03882,41.140451],[-96.03882,41.140434],[-96.038848,41.140434],[-96.038883,41.140434],[-96.038883,41.140417],[-96.038919,41.140417],[-96.038919,41.140402],[-96.038889,41.140402],[-96.038889,41.140404],[-96.038883,41.140404],[-96.038883,41.140402],[-96.038883,41.140393],[-96.038883,41.140393],[-96.038883,41.140366],[-96.038774,41.140366],[-96.038774,41.140451]]],"type":"Polygon"},"type":"Feature"},{"properties":{"NCES_Type":"Single Stall Restroom","Number":"143A","Name":"RR","NCES_Department":"Courthouse","Seat Count":"","Revit_UniqueId":"ed0426dd-57a9-4be0-9337-75d177aa7e1e-005841c6","Workstations":"","Element":"Room","NCES_Occupancy Status":"","occupancyStatus":"Occupied","Level":"BASEMENT","RevitId":5784006,"Area_SF":45.74},"geometry":{"coordinates":[[[-96.038848,41.140434],[-96.03882,41.140434],[-96.03882,41.14045],[-96.03882,41.140452],[-96.038848,41.140452],[-96.038848,41.140434]]],"type":"Polygon"},"type":"Feature"},{"properties":{"NCES_Type":"Break Room","Number":"142","Name":"BREAKROOM","NCES_Department":"Public Defense","Seat Count":"8","Revit_UniqueId":"ed0426dd-57a9-4be0-9337-75d177aa7e1e-005841e1","Workstations":"","Element":"Room","NCES_Occupancy Status":"","occupancyStatus":"Occupied","Level":"BASEMENT","RevitId":5784033,"Area_SF":262.13},"geometry":{"coordinates":[[[-96.038963,41.140366],[-96.038883,41.140366],[-96.038883,41.140393],[-96.038883,41.140393],[-96.038883,41.140402],[-96.038889,41.140402],[-96.038919,41.140402],[-96.038963,41.140402],[-96.038963,41.140366]]],"type":"Polygon"},"type":"Feature"},{"properties":{"NCES_Type":"Private Office - Enclosed","Number":"141","Name":"OFFICE","NCES_Department":"Public Defense","Seat Count":"","Revit_UniqueId":"ed0426dd-57a9-4be0-9337-75d177aa7e1e-005841e4","Workstations":"1","Element":"Room","NCES_Occupancy Status":"","occupancyStatus":"Occupied","Level":"BASEMENT","RevitId":5784036,"Area_SF":110.33},"geometry":{"coordinates":[[[-96.038999,41.140366],[-96.038963,41.140366],[-96.038963,41.140402],[-96.038999,41.140402],[-96.038999,41.140366]]],"type":"Polygon"},"type":"Feature"},{"properties":{"NCES_Type":"Private Office - Enclosed","Number":"140","Name":"OFFICE","NCES_Department":"Public Defense","Seat Count":"","Revit_UniqueId":"ed0426dd-57a9-4be0-9337-75d177aa7e1e-005841e7","Workstations":"1","Element":"Room","NCES_Occupancy Status":"","occupancyStatus":"Occupied","Level":"BASEMENT","RevitId":5784039,"Area_SF":144.99},"geometry":{"coordinates":[[[-96.039044,41.140366],[-96.038999,41.140366],[-96.038999,41.140402],[-96.039044,41.140402],[-96.039044,41.140366]]],"type":"Polygon"},"type":"Feature"},{"properties":{"NCES_Type":"Private Office - Enclosed","Number":"139","Name":"OFFICE","NCES_Department":"Public Defense","Seat Count":"","Revit_UniqueId":"ed0426dd-57a9-4be0-9337-75d177aa7e1e-005841ea","Workstations":"1","Element":"Room","NCES_Occupancy Status":"","occupancyStatus":"Occupied","Level":"BASEMENT","RevitId":5784042,"Area_SF":184.98},"geometry":{"coordinates":[[[-96.039102,41.140366],[-96.039044,41.140366],[-96.039044,41.140402],[-96.039062,41.140402],[-96.039078,41.140402],[-96.039082,41.140402],[-96.039102,41.140402],[-96.039102,41.140366]]],"type":"Polygon"},"type":"Feature"},{"properties":{"NCES_Type":"Private Office - Enclosed","Number":"122","Name":"OFFICE","NCES_Department":"Public Defense","Seat Count":"","Revit_UniqueId":"ed0426dd-57a9-4be0-9337-75d177aa7e1e-005841ed","Workstations":"1","Element":"Room","NCES_Occupancy Status":"","occupancyStatus":"Occupied","Level":"BASEMENT","RevitId":5784045,"Area_SF":114.54},"geometry":{"coordinates":[[[-96.039138,41.140366],[-96.039102,41.140366],[-96.039102,41.140402],[-96.039138,41.140402],[-96.039138,41.140366]]],"type":"Polygon"},"type":"Feature"},{"properties":{"NCES_Type":"Private Office - Enclosed","Number":"121","Name":"OFFICE","NCES_Department":"Public Defense","Seat Count":"","Revit_UniqueId":"ed0426dd-57a9-4be0-9337-75d177aa7e1e-005841f0","Workstations":"1","Element":"Room","NCES_Occupancy Status":"","occupancyStatus":"Occupied","Level":"BASEMENT","RevitId":5784048,"Area_SF":130.77},"geometry":{"coordinates":[[[-96.03918,41.140366],[-96.039138,41.140366],[-96.039138,41.140402],[-96.03918,41.140402],[-96.03918,41.140366]]],"type":"Polygon"},"type":"Feature"},{"properties":{"NCES_Type":"Private Office - Enclosed","Number":"118","Name":"OFFICE","NCES_Department":"Public Defense","Seat Count":"","Revit_UniqueId":"ed0426dd-57a9-4be0-9337-75d177aa7e1e-005841f3","Workstations":"1","Element":"Room","NCES_Occupancy Status":"","occupancyStatus":"Occupied","Level":"BASEMENT","RevitId":5784051,"Area_SF":194.03},"geometry":{"coordinates":[[[-96.03924,41.140366],[-96.03918,41.140366],[-96.03918,41.140402],[-96.03924,41.140402],[-96.03924,41.140366]]],"type":"Polygon"},"type":"Feature"},{"properties":{"NCES_Type":"Private Office - Enclosed","Number":"117","Name":"OFFICE","NCES_Department":"Public Defense","Seat Count":"","Revit_UniqueId":"ed0426dd-57a9-4be0-9337-75d177aa7e1e-0058420f","Workstations":"1","Element":"Room","NCES_Occupancy Status":"","occupancyStatus":"Occupied","Level":"BASEMENT","RevitId":5784079,"Area_SF":110.45},"geometry":{"coordinates":[[[-96.039275,41.140366],[-96.03924,41.140366],[-96.03924,41.140402],[-96.039275,41.140402],[-96.039275,41.140366]]],"type":"Polygon"},"type":"Feature"},{"properties":{"NCES_Type":"Conference Room","Number":"116","Name":"CONF. ROOM","NCES_Department":"Public Defense","Seat Count":"8","Revit_UniqueId":"ed0426dd-57a9-4be0-9337-75d177aa7e1e-00584218","Workstations":"","Element":"Room","NCES_Occupancy Status":"","occupancyStatus":"Occupied","Level":"BASEMENT","RevitId":5784088,"Area_SF":237.66},"geometry":{"coordinates":[[[-96.039348,41.140366],[-96.039275,41.140366],[-96.039275,41.140402],[-96.039294,41.140402],[-96.039298,41.140402],[-96.039348,41.140402],[-96.039348,41.140366]]],"type":"Polygon"},"type":"Feature"},{"properties":{"NCES_Type":"Stair","Number":"055","Name":"FIRE STAIR","NCES_Department":"Courthouse","Seat Count":"","Revit_UniqueId":"214f934e-51b5-427a-a212-d17e20c54258-00584553","Workstations":"","Element":"Room","NCES_Occupancy Status":"","occupancyStatus":"Occupied","Level":"BASEMENT","RevitId":5784915,"Area_SF":183.4},"geometry":{"coordinates":[[[-96.039763,41.14056],[-96.039715,41.14056],[-96.039715,41.14056],[-96.039714,41.14056],[-96.039692,41.14056],[-96.039692,41.14059],[-96.039763,41.14059],[-96.039763,41.14056]]],"type":"Polygon"},"type":"Feature"},{"properties":{"NCES_Type":"Corridor/Hallway","Number":"054","Name":"CORR.","NCES_Department":"Courthouse","Seat Count":"","Revit_UniqueId":"214f934e-51b5-427a-a212-d17e20c54258-00584556","Workstations":"","Element":"Room","NCES_Occupancy Status":"","occupancyStatus":"Occupied","Level":"BASEMENT","RevitId":5784918,"Area_SF":419.1},"geometry":{"coordinates":[[[-96.03948,41.140561],[-96.039692,41.140561],[-96.039692,41.14056],[-96.039694,41.14056],[-96.039715,41.14056],[-96.039715,41.14054],[-96.039632,41.14054],[-96.039632,41.14054],[-96.03963,41.14054],[-96.039612,41.14054],[-96.039538,41.14054],[-96.0395,41.14054],[-96.039495,41.14054],[-96.039495,41.140541],[-96.03948,41.140541],[-96.03948,41.140561]]],"type":"Polygon"},"type":"Feature"},{"properties":{"NCES_Type":"Corridor/Hallway","Number":"048","Name":"HALL","NCES_Department":"County Records","Seat Count":"","Revit_UniqueId":"214f934e-51b5-427a-a212-d17e20c54258-00584559","Workstations":"","Element":"Room","NCES_Occupancy Status":"","occupancyStatus":"Occupied","Level":"BASEMENT","RevitId":5784921,"Area_SF":125.88},"geometry":{"coordinates":[[[-96.039632,41.14054],[-96.039632,41.140463],[-96.039612,41.140463],[-96.039612,41.14054],[-96.039632,41.14054]]],"type":"Polygon"},"type":"Feature"},{"properties":{"NCES_Type":"IT/Telecom Room","Number":"053","Name":"INFO SERVICE/ DATA CENTER","NCES_Department":"County Records","Seat Count":"","Revit_UniqueId":"214f934e-51b5-427a-a212-d17e20c54258-0058455c","Workstations":"","Element":"Room","NCES_Occupancy Status":"","occupancyStatus":"Occupied","Level":"BASEMENT","RevitId":5784924,"Area_SF":543.25},"geometry":{"coordinates":[[[-96.039538,41.14054],[-96.039612,41.14054],[-96.039612,41.140464],[-96.039612,41.140464],[-96.039538,41.140464],[-96.039538,41.14054]]],"type":"Polygon"},"type":"Feature"},{"properties":{"NCES_Type":"Equipment Storage","Number":"052","Name":"INFO SERVICE EXPANSION","NCES_Department":"County Records","Seat Count":"","Revit_UniqueId":"214f934e-51b5-427a-a212-d17e20c54258-0058455f","Workstations":"","Element":"Room","NCES_Occupancy Status":"","occupancyStatus":"Occupied","Level":"BASEMENT","RevitId":5784927,"Area_SF":271.74},"geometry":{"coordinates":[[[-96.0395,41.14054],[-96.039538,41.14054],[-96.039538,41.140464],[-96.0395,41.140464],[-96.0395,41.140464],[-96.0395,41.14054]]],"type":"Polygon"},"type":"Feature"},{"properties":{"NCES_Type":"Break Room","Number":"106","Name":"WORK/BREAK","NCES_Department":"County Records","Seat Count":"","Revit_UniqueId":"214f934e-51b5-427a-a212-d17e20c54258-00584562","Workstations":"","Element":"Room","NCES_Occupancy Status":"","occupancyStatus":"Occupied","Level":"BASEMENT","RevitId":5784930,"Area_SF":273.55},"geometry":{"coordinates":[[[-96.039386,41.140426],[-96.039348,41.140426],[-96.039294,41.140426],[-96.039294,41.140448],[-96.039329,41.140448],[-96.039329,41.140463],[-96.039386,41.140463],[-96.039386,41.140463],[-96.039386,41.140426]]],"type":"Polygon"},"type":"Feature"},{"properties":{"NCES_Type":"Private Office - Enclosed","Number":"104A","Name":"OFFICE","NCES_Department":"County Records","Seat Count":"","Revit_UniqueId":"214f934e-51b5-427a-a212-d17e20c54258-00584565","Workstations":"","Element":"Room","NCES_Occupancy Status":"","occupancyStatus":"Occupied","Level":"BASEMENT","RevitId":5784933,"Area_SF":106.88},"geometry":{"coordinates":[[[-96.039294,41.140448],[-96.039294,41.140454],[-96.039294,41.140481],[-96.039329,41.140481],[-96.039329,41.140463],[-96.039329,41.140448],[-96.039294,41.140448]]],"type":"Polygon"},"type":"Feature"},{"properties":{"NCES_Type":"Open Office - Cubicles","Number":"104","Name":"CLERK'S OFFICE","NCES_Department":"County Records","Seat Count":"","Revit_UniqueId":"214f934e-51b5-427a-a212-d17e20c54258-00584568","Workstations":"5","Element":"Room","NCES_Occupancy Status":"","occupancyStatus":"Occupied","Level":"BASEMENT","RevitId":5784936,"Area_SF":391.37},"geometry":{"coordinates":[[[-96.039294,41.140541],[-96.039386,41.140541],[-96.039386,41.140532],[-96.039358,41.140532],[-96.039358,41.140515],[-96.039358,41.140497],[-96.039358,41.14048],[-96.039386,41.14048],[-96.039386,41.140463],[-96.039329,41.140463],[-96.039329,41.140481],[-96.039294,41.140481],[-96.039294,41.140482],[-96.039294,41.140497],[-96.039322,41.140497],[-96.039322,41.140515],[-96.039322,41.140532],[-96.039294,41.140532],[-96.039294,41.140541]]],"type":"Polygon"},"type":"Feature"},{"properties":{"NCES_Type":"Private Office - Enclosed","Number":"108","Name":"OFFICE","NCES_Department":"Public Defense","Seat Count":"","Revit_UniqueId":"214f934e-51b5-427a-a212-d17e20c54258-0058456b","Workstations":"1","Element":"Room","NCES_Occupancy Status":"","occupancyStatus":"Occupied","Level":"BASEMENT","RevitId":5784939,"Area_SF":124.83},"geometry":{"coordinates":[[[-96.039279,41.140541],[-96.039279,41.140541],[-96.039294,41.140541],[-96.039294,41.140533],[-96.039294,41.140531],[-96.039294,41.140515],[-96.039294,41.140511],[-96.039248,41.140511],[-96.039248,41.140541],[-96.039279,41.140541]]],"type":"Polygon"},"type":"Feature"},{"properties":{"NCES_Type":"Private Office - Enclosed","Number":"110","Name":"OFFICE","NCES_Department":"Public Defense","Seat Count":"","Revit_UniqueId":"214f934e-51b5-427a-a212-d17e20c54258-0058456e","Workstations":"1","Element":"Room","NCES_Occupancy Status":"","occupancyStatus":"Occupied","Level":"BASEMENT","RevitId":5784942,"Area_SF":118.79},"geometry":{"coordinates":[[[-96.039294,41.140496],[-96.039294,41.140482],[-96.039248,41.140482],[-96.039248,41.140511],[-96.039294,41.140511],[-96.039294,41.140499],[-96.039294,41.140496]]],"type":"Polygon"},"type":"Feature"},{"properties":{"NCES_Type":"Private Office - Enclosed","Number":"112","Name":"OFFICE","NCES_Department":"Public Defense","Seat Count":"","Revit_UniqueId":"214f934e-51b5-427a-a212-d17e20c54258-00584571","Workstations":"1","Element":"Room","NCES_Occupancy Status":"","occupancyStatus":"Occupied","Level":"BASEMENT","RevitId":5784945,"Area_SF":119.28},"geometry":{"coordinates":[[[-96.039294,41.140481],[-96.039294,41.140454],[-96.039248,41.140454],[-96.039248,41.140482],[-96.039294,41.140482],[-96.039294,41.140481]]],"type":"Polygon"},"type":"Feature"},{"properties":{"NCES_Type":"Private Office - Enclosed","Number":"114","Name":"OFFICE","NCES_Department":"Public Defense","Seat Count":"","Revit_UniqueId":"214f934e-51b5-427a-a212-d17e20c54258-00584574","Workstations":"1","Element":"Room","NCES_Occupancy Status":"","occupancyStatus":"Occupied","Level":"BASEMENT","RevitId":5784948,"Area_SF":116.88},"geometry":{"coordinates":[[[-96.039294,41.140426],[-96.039294,41.140426],[-96.039248,41.140426],[-96.039248,41.140454],[-96.039294,41.140454],[-96.039294,41.140448],[-96.039294,41.140426]]],"type":"Polygon"},"type":"Feature"},{"properties":{"NCES_Type":"General Storage","Number":"115","Name":"STORAGE","NCES_Department":"Public Defense","Seat Count":"","Revit_UniqueId":"214f934e-51b5-427a-a212-d17e20c54258-00584577","Workstations":"","Element":"Room","NCES_Occupancy Status":"","occupancyStatus":"Occupied","Level":"BASEMENT","RevitId":5784951,"Area_SF":124.42},"geometry":{"coordinates":[[[-96.039348,41.140402],[-96.039298,41.140402],[-96.039298,41.140404],[-96.039294,41.140404],[-96.039294,41.140426],[-96.039294,41.140426],[-96.039348,41.140426],[-96.039348,41.140402]]],"type":"Polygon"},"type":"Feature"},{"properties":{"NCES_Type":"Corridor/Hallway","Number":"107A","Name":"HALL","NCES_Department":"Public Defense","Seat Count":"","Revit_UniqueId":"214f934e-51b5-427a-a212-d17e20c54258-0058457a","Workstations":"","Element":"Room","NCES_Occupancy Status":"","occupancyStatus":"Occupied","Level":"BASEMENT","RevitId":5784954,"Area_SF":692.13},"geometry":{"coordinates":[[[-96.039219,41.140541],[-96.039248,41.140541],[-96.039248,41.140511],[-96.039248,41.140482],[-96.039248,41.140454],[-96.039248,41.140426],[-96.039294,41.140426],[-96.039294,41.140404],[-96.039294,41.140402],[-96.039275,41.140402],[-96.03924,41.140402],[-96.03918,41.140402],[-96.039138,41.140402],[-96.039102,41.140402],[-96.039082,41.140402],[-96.039082,41.140404],[-96.039078,41.140404],[-96.039078,41.140422],[-96.039091,41.140433],[-96.039122,41.140433],[-96.039122,41.140432],[-96.039124,41.140432],[-96.039139,41.140432],[-96.039139,41.140416],[-96.039185,41.140416],[-96.039231,41.140416],[-96.039231,41.140444],[-96.039231,41.140447],[-96.039231,41.140472],[-96.039231,41.1405],[-96.039231,41.140528],[-96.039185,41.140528],[-96.039173,41.140528],[-96.039173,41.140541],[-96.039219,41.140541]]],"type":"Polygon"},"type":"Feature"},{"properties":{"NCES_Type":"Private Office - Enclosed","Number":"119","Name":"OFFICE","NCES_Department":"Public Defense","Seat Count":"","Revit_UniqueId":"214f934e-51b5-427a-a212-d17e20c54258-0058457d","Workstations":"1","Element":"Room","NCES_Occupancy Status":"","occupancyStatus":"Occupied","Level":"BASEMENT","RevitId":5784957,"Area_SF":116.28},"geometry":{"coordinates":[[[-96.039231,41.140416],[-96.039185,41.140416],[-96.039185,41.140444],[-96.03922,41.140444],[-96.039231,41.140444],[-96.039231,41.140416]]],"type":"Polygon"},"type":"Feature"},{"properties":{"NCES_Type":"Private Office - Enclosed","Number":"113","Name":"OFFICE","NCES_Department":"Public Defense","Seat Count":"","Revit_UniqueId":"214f934e-51b5-427a-a212-d17e20c54258-00584580","Workstations":"1","Element":"Room","NCES_Occupancy Status":"","occupancyStatus":"Occupied","Level":"BASEMENT","RevitId":5784960,"Area_SF":113.55},"geometry":{"coordinates":[[[-96.039231,41.140472],[-96.039231,41.140447],[-96.03922,41.140447],[-96.03922,41.140444],[-96.039185,41.140444],[-96.039185,41.140472],[-96.039231,41.140472]]],"type":"Polygon"},"type":"Feature"},{"properties":{"NCES_Type":"Private Office - Enclosed","Number":"111","Name":"OFFICE","NCES_Department":"Public Defense","Seat Count":"","Revit_UniqueId":"214f934e-51b5-427a-a212-d17e20c54258-00584583","Workstations":"1","Element":"Room","NCES_Occupancy Status":"","occupancyStatus":"Occupied","Level":"BASEMENT","RevitId":5784963,"Area_SF":118.77},"geometry":{"coordinates":[[[-96.039231,41.1405],[-96.039231,41.140472],[-96.039185,41.140472],[-96.039185,41.1405],[-96.039231,41.1405]]],"type":"Polygon"},"type":"Feature"},{"properties":{"NCES_Type":"Private Office - Enclosed","Number":"109","Name":"OFFICE","NCES_Department":"Public Defense","Seat Count":"","Revit_UniqueId":"214f934e-51b5-427a-a212-d17e20c54258-00584586","Workstations":"1","Element":"Room","NCES_Occupancy Status":"","occupancyStatus":"Occupied","Level":"BASEMENT","RevitId":5784966,"Area_SF":118.46},"geometry":{"coordinates":[[[-96.039185,41.140528],[-96.039231,41.140528],[-96.039231,41.1405],[-96.039185,41.1405],[-96.039185,41.140528]]],"type":"Polygon"},"type":"Feature"},{"properties":{"NCES_Type":"Private Office - Enclosed","Number":"127","Name":"OFFICE","NCES_Department":"Public Defense","Seat Count":"","Revit_UniqueId":"214f934e-51b5-427a-a212-d17e20c54258-00584589","Workstations":"1","Element":"Room","NCES_Occupancy Status":"","occupancyStatus":"Occupied","Level":"BASEMENT","RevitId":5784969,"Area_SF":118.74},"geometry":{"coordinates":[[[-96.039139,41.140527],[-96.039139,41.140528],[-96.039173,41.140528],[-96.039185,41.140528],[-96.039185,41.1405],[-96.039139,41.1405],[-96.039139,41.140527]]],"type":"Polygon"},"type":"Feature"},{"properties":{"NCES_Type":"Private Office - Enclosed","Number":"125","Name":"OFFICE","NCES_Department":"Public Defense","Seat Count":"","Revit_UniqueId":"214f934e-51b5-427a-a212-d17e20c54258-0058458c","Workstations":"1","Element":"Room","NCES_Occupancy Status":"","occupancyStatus":"Occupied","Level":"BASEMENT","RevitId":5784972,"Area_SF":119.05},"geometry":{"coordinates":[[[-96.039139,41.140472],[-96.039139,41.1405],[-96.039185,41.1405],[-96.039185,41.140472],[-96.039139,41.140472]]],"type":"Polygon"},"type":"Feature"},{"properties":{"NCES_Type":"Private Office - Enclosed","Number":"123","Name":"OFFICE","NCES_Department":"Public Defense","Seat Count":"","Revit_UniqueId":"214f934e-51b5-427a-a212-d17e20c54258-0058458f","Workstations":"1","Element":"Room","NCES_Occupancy Status":"","occupancyStatus":"Occupied","Level":"BASEMENT","RevitId":5784975,"Area_SF":117.21},"geometry":{"coordinates":[[[-96.039139,41.140444],[-96.039139,41.140472],[-96.039185,41.140472],[-96.039185,41.140444],[-96.039139,41.140444]]],"type":"Polygon"},"type":"Feature"},{"properties":{"NCES_Type":"Private Office - Enclosed","Number":"120","Name":"OFFICE","NCES_Department":"Public Defense","Seat Count":"","Revit_UniqueId":"214f934e-51b5-427a-a212-d17e20c54258-00584592","Workstations":"1","Element":"Room","NCES_Occupancy Status":"","occupancyStatus":"Occupied","Level":"BASEMENT","RevitId":5784978,"Area_SF":116.55},"geometry":{"coordinates":[[[-96.039185,41.140416],[-96.039139,41.140416],[-96.039139,41.140432],[-96.039139,41.140444],[-96.039185,41.140444],[-96.039185,41.140416]]],"type":"Polygon"},"type":"Feature"},{"properties":{"NCES_Type":"Private Office - Enclosed","Number":"124","Name":"OFFICE","NCES_Department":"Public Defense","Seat Count":"","Revit_UniqueId":"214f934e-51b5-427a-a212-d17e20c54258-00584598","Workstations":"1","Element":"Room","NCES_Occupancy Status":"","occupancyStatus":"Occupied","Level":"BASEMENT","RevitId":5784984,"Area_SF":88.63},"geometry":{"coordinates":[[[-96.039091,41.140464],[-96.039122,41.140464],[-96.039122,41.140433],[-96.039122,41.140433],[-96.039092,41.140433],[-96.039091,41.140433],[-96.039091,41.140433],[-96.039091,41.140464]]],"type":"Polygon"},"type":"Feature"},{"properties":{"NCES_Type":"Private Office - Enclosed","Number":"126","Name":"OFFICE","NCES_Department":"Public Defense","Seat Count":"","Revit_UniqueId":"214f934e-51b5-427a-a212-d17e20c54258-0058459b","Workstations":"1","Element":"Room","NCES_Occupancy Status":"","occupancyStatus":"Occupied","Level":"BASEMENT","RevitId":5784987,"Area_SF":88.1},"geometry":{"coordinates":[[[-96.039122,41.140464],[-96.039091,41.140464],[-96.039091,41.140496],[-96.039122,41.140496],[-96.039122,41.140464]]],"type":"Polygon"},"type":"Feature"},{"properties":{"NCES_Type":"Private Office - Enclosed","Number":"128","Name":"OFFICE","NCES_Department":"Public Defense","Seat Count":"","Revit_UniqueId":"214f934e-51b5-427a-a212-d17e20c54258-0058459e","Workstations":"1","Element":"Room","NCES_Occupancy Status":"","occupancyStatus":"Occupied","Level":"BASEMENT","RevitId":5784990,"Area_SF":90.6},"geometry":{"coordinates":[[[-96.039091,41.140528],[-96.039122,41.140528],[-96.039122,41.140527],[-96.039122,41.140496],[-96.039091,41.140496],[-96.039091,41.140528]]],"type":"Polygon"},"type":"Feature"},{"properties":{"NCES_Type":"Copy/Print/Mail Area","Number":"129","Name":"COPY","NCES_Department":"Public Defense","Seat Count":"","Revit_UniqueId":"214f934e-51b5-427a-a212-d17e20c54258-005845a1","Workstations":"","Element":"Room","NCES_Occupancy Status":"","occupancyStatus":"Occupied","Level":"BASEMENT","RevitId":5784993,"Area_SF":94.54},"geometry":{"coordinates":[[[-96.039059,41.140528],[-96.039091,41.140528],[-96.039091,41.140496],[-96.039059,41.140496],[-96.039059,41.140528]]],"type":"Polygon"},"type":"Feature"},{"properties":{"NCES_Type":"Private Office - Enclosed","Number":"130","Name":"OFFICE","NCES_Department":"Public Defense","Seat Count":"","Revit_UniqueId":"214f934e-51b5-427a-a212-d17e20c54258-005845a4","Workstations":"1","Element":"Room","NCES_Occupancy Status":"","occupancyStatus":"Occupied","Level":"BASEMENT","RevitId":5784996,"Area_SF":91.07},"geometry":{"coordinates":[[[-96.03905,41.140528],[-96.039059,41.140528],[-96.039059,41.140496],[-96.039029,41.140496],[-96.039029,41.140528],[-96.03905,41.140528]]],"type":"Polygon"},"type":"Feature"},{"properties":{"NCES_Type":"Private Office - Enclosed","Number":"131","Name":"OFFICE","NCES_Department":"Public Defense","Seat Count":"","Revit_UniqueId":"214f934e-51b5-427a-a212-d17e20c54258-005845a7","Workstations":"1","Element":"Room","NCES_Occupancy Status":"","occupancyStatus":"Occupied","Level":"BASEMENT","RevitId":5784999,"Area_SF":91.31},"geometry":{"coordinates":[[[-96.038998,41.140528],[-96.039029,41.140528],[-96.039029,41.140496],[-96.038998,41.140496],[-96.038998,41.140528]]],"type":"Polygon"},"type":"Feature"},{"properties":{"NCES_Type":"Private Office - Enclosed","Number":"132","Name":"OFFICE","NCES_Department":"Public Defense","Seat Count":"","Revit_UniqueId":"214f934e-51b5-427a-a212-d17e20c54258-005845aa","Workstations":"1","Element":"Room","NCES_Occupancy Status":"","occupancyStatus":"Occupied","Level":"BASEMENT","RevitId":5785002,"Area_SF":93.99},"geometry":{"coordinates":[[[-96.038966,41.140496],[-96.038966,41.140528],[-96.038998,41.140528],[-96.038998,41.140496],[-96.038966,41.140496]]],"type":"Polygon"},"type":"Feature"},{"properties":{"NCES_Type":"Private Office - Enclosed","Number":"133","Name":"OFFICE","NCES_Department":"Public Defense","Seat Count":"","Revit_UniqueId":"214f934e-51b5-427a-a212-d17e20c54258-005845ad","Workstations":"1","Element":"Room","NCES_Occupancy Status":"","occupancyStatus":"Occupied","Level":"BASEMENT","RevitId":5785005,"Area_SF":91.4},"geometry":{"coordinates":[[[-96.038998,41.140464],[-96.038966,41.140464],[-96.038966,41.140496],[-96.038998,41.140496],[-96.038998,41.140464]]],"type":"Polygon"},"type":"Feature"},{"properties":{"NCES_Type":"Private Office - Enclosed","Number":"135","Name":"OFFICE","NCES_Department":"Public Defense","Seat Count":"","Revit_UniqueId":"214f934e-51b5-427a-a212-d17e20c54258-005845b0","Workstations":"1","Element":"Room","NCES_Occupancy Status":"","occupancyStatus":"Occupied","Level":"BASEMENT","RevitId":5785008,"Area_SF":88.79},"geometry":{"coordinates":[[[-96.039029,41.140464],[-96.038998,41.140464],[-96.038998,41.140496],[-96.039029,41.140496],[-96.039029,41.140464]]],"type":"Polygon"},"type":"Feature"},{"properties":{"NCES_Type":"Private Office - Enclosed","Number":"136","Name":"OFFICE","NCES_Department":"Public Defense","Seat Count":"","Revit_UniqueId":"214f934e-51b5-427a-a212-d17e20c54258-005845b3","Workstations":"1","Element":"Room","NCES_Occupancy Status":"","occupancyStatus":"Occupied","Level":"BASEMENT","RevitId":5785011,"Area_SF":88.56},"geometry":{"coordinates":[[[-96.039059,41.140464],[-96.039029,41.140464],[-96.039029,41.140496],[-96.039059,41.140496],[-96.039059,41.140464]]],"type":"Polygon"},"type":"Feature"},{"properties":{"NCES_Type":"Private Office - Enclosed","Number":"137","Name":"OFFICE","NCES_Department":"Public Defense","Seat Count":"","Revit_UniqueId":"214f934e-51b5-427a-a212-d17e20c54258-005845b6","Workstations":"1","Element":"Room","NCES_Occupancy Status":"","occupancyStatus":"Occupied","Level":"BASEMENT","RevitId":5785014,"Area_SF":91.94},"geometry":{"coordinates":[[[-96.039091,41.140464],[-96.039059,41.140464],[-96.039059,41.140496],[-96.039091,41.140496],[-96.039091,41.140464]]],"type":"Polygon"},"type":"Feature"},{"properties":{"NCES_Type":"Electrical Room","Number":"138","Name":"ELEC.","NCES_Department":"Public Defense","Seat Count":"","Revit_UniqueId":"214f934e-51b5-427a-a212-d17e20c54258-005845b9","Workstations":"","Element":"Room","NCES_Occupancy Status":"","occupancyStatus":"Occupied","Level":"BASEMENT","RevitId":5785017,"Area_SF":27.85},"geometry":{"coordinates":[[[-96.039078,41.140402],[-96.039062,41.140402],[-96.039062,41.140422],[-96.039078,41.140422],[-96.039078,41.140422],[-96.039078,41.140422],[-96.039078,41.140404],[-96.039078,41.140402]]],"type":"Polygon"},"type":"Feature"},{"properties":{"NCES_Type":"Corridor/Hallway","Number":"044","Name":"CORR.","NCES_Department":"Courthouse","Seat Count":"","Revit_UniqueId":"214f934e-51b5-427a-a212-d17e20c54258-005845bc","Workstations":"","Element":"Room","NCES_Occupancy Status":"","occupancyStatus":"Occupied","Level":"BASEMENT","RevitId":5785020,"Area_SF":467.67},"geometry":{"coordinates":[[[-96.039294,41.14056],[-96.039294,41.140561],[-96.03948,41.140561],[-96.03948,41.140541],[-96.03943,41.140541],[-96.039425,41.140541],[-96.039386,41.140541],[-96.039294,41.140541],[-96.039279,41.140541],[-96.039279,41.140541],[-96.039248,41.140541],[-96.039219,41.140541],[-96.039219,41.14056],[-96.039253,41.14056],[-96.039292,41.14056],[-96.039294,41.14056]]],"type":"Polygon"},"type":"Feature"},{"properties":{"NCES_Type":"Electrical Room","Number":"045","Name":"ELEC. CLOSET","NCES_Department":"County Records","Seat Count":"","Revit_UniqueId":"214f934e-51b5-427a-a212-d17e20c54258-005845bf","Workstations":"","Element":"Room","NCES_Occupancy Status":"","occupancyStatus":"Occupied","Level":"BASEMENT","RevitId":5785023,"Area_SF":4.65},"geometry":{"coordinates":[[[-96.039425,41.140541],[-96.03943,41.140541],[-96.03943,41.140527],[-96.039425,41.140527],[-96.039425,41.140541]]],"type":"Polygon"},"type":"Feature"},{"properties":{"NCES_Type":"Electrical Room","Number":"045A","Name":"ELEC. CLOSET","NCES_Department":"County Records","Seat Count":"","Revit_UniqueId":"214f934e-51b5-427a-a212-d17e20c54258-005845c2","Workstations":"","Element":"Room","NCES_Occupancy Status":"","occupancyStatus":"Occupied","Level":"BASEMENT","RevitId":5785026,"Area_SF":4.65},"geometry":{"coordinates":[[[-96.03943,41.140527],[-96.03943,41.140513],[-96.039425,41.140513],[-96.039425,41.140527],[-96.03943,41.140527]]],"type":"Polygon"},"type":"Feature"},{"properties":{"NCES_Type":"Mechanical Room","Number":"003A","Name":"ELEV. MAIN. ROOM","NCES_Department":"Courthouse","Seat Count":"","Revit_UniqueId":"214f934e-51b5-427a-a212-d17e20c54258-005845c5","Workstations":"","Element":"Room","NCES_Occupancy Status":"","occupancyStatus":"Occupied","Level":"BASEMENT","RevitId":5785029,"Area_SF":68.91},"geometry":{"coordinates":[[[-96.038818,41.14058],[-96.038818,41.140602],[-96.038853,41.140602],[-96.038856,41.140602],[-96.038856,41.14059],[-96.038856,41.14058],[-96.038852,41.14058],[-96.038818,41.14058]]],"type":"Polygon"},"type":"Feature"},{"properties":{"NCES_Type":"General Storage","Number":"007","Name":"STORAGE","NCES_Department":"Courthouse","Seat Count":"","Revit_UniqueId":"214f934e-51b5-427a-a212-d17e20c54258-005845c8","Workstations":"","Element":"Room","NCES_Occupancy Status":"","occupancyStatus":"Occupied","Level":"BASEMENT","RevitId":5785032,"Area_SF":31.1},"geometry":{"coordinates":[[[-96.038818,41.14057],[-96.038818,41.14058],[-96.038852,41.14058],[-96.038852,41.140577],[-96.038856,41.140577],[-96.038856,41.14057],[-96.038818,41.14057]]],"type":"Polygon"},"type":"Feature"},{"properties":{"NCES_Type":"Lobby/Reception","Number":"107","Name":"RECEPTION","NCES_Department":"Public Defense","Seat Count":"","Revit_UniqueId":"214f934e-51b5-427a-a212-d17e20c54258-005847db","Workstations":"","Element":"Room","NCES_Occupancy Status":"","occupancyStatus":"Occupied","Level":"BASEMENT","RevitId":5785563,"Area_SF":351.69},"geometry":{"coordinates":[[[-96.039174,41.140557],[-96.039174,41.140541],[-96.039173,41.140541],[-96.039173,41.140539],[-96.039173,41.140528],[-96.039139,41.140528],[-96.039139,41.140529],[-96.039138,41.140529],[-96.039124,41.140529],[-96.039122,41.140529],[-96.039122,41.140528],[-96.039091,41.140528],[-96.039059,41.140528],[-96.03905,41.140528],[-96.03905,41.140539],[-96.03905,41.140541],[-96.039049,41.140541],[-96.039049,41.140558],[-96.039087,41.140558],[-96.039087,41.140557],[-96.0391,41.140557],[-96.0391,41.140558],[-96.039157,41.140558],[-96.039157,41.140557],[-96.039174,41.140557]]],"type":"Polygon"},"type":"Feature"},{"properties":{"NCES_Type":"Corridor/Hallway","Number":"178","Name":"HALL","NCES_Department":"Public Defense","Seat Count":"","Revit_UniqueId":"214f934e-51b5-427a-a212-d17e20c54258-0058482b","Workstations":"","Element":"Room","NCES_Occupancy Status":"","occupancyStatus":"Occupied","Level":"BASEMENT","RevitId":5785643,"Area_SF":154.86},"geometry":{"coordinates":[[[-96.039139,41.140529],[-96.039139,41.1405],[-96.039139,41.140472],[-96.039139,41.140444],[-96.039139,41.140432],[-96.039122,41.140432],[-96.039122,41.140464],[-96.039122,41.140496],[-96.039122,41.140529],[-96.039139,41.140529]]],"type":"Polygon"},"type":"Feature"},{"properties":{"NCES_Type":"Open Office - Cubicles","Number":"107C","Name":"PROBATION OFFICE","NCES_Department":"Public Defense","Seat Count":"","Revit_UniqueId":"214f934e-51b5-427a-a212-d17e20c54258-00584831","Workstations":"4","Element":"Room","NCES_Occupancy Status":"","occupancyStatus":"Occupied","Level":"BASEMENT","RevitId":5785649,"Area_SF":1167.93},"geometry":{"coordinates":[[[[-96.039046,41.140541],[-96.03905,41.140541],[-96.03905,41.140528],[-96.039029,41.140528],[-96.038998,41.140528],[-96.038966,41.140528],[-96.038966,41.140496],[-96.038966,41.140464],[-96.038998,41.140464],[-96.039029,41.140464],[-96.039059,41.140464],[-96.039091,41.140464],[-96.039091,41.140433],[-96.039078,41.140422],[-96.039062,41.140422],[-96.039062,41.140402],[-96.039044,41.140402],[-96.038999,41.140402],[-96.038963,41.140402],[-96.038919,41.140402],[-96.038919,41.140417],[-96.038919,41.140434],[-96.038919,41.140466],[-96.038919,41.140495],[-96.038946,41.140495],[-96.038946,41.140498],[-96.038946,41.140517],[-96.038946,41.140529],[-96.038946,41.140541],[-96.039006,41.140541],[-96.039046,41.140541]]],[[[-96.039002,41.140425],[-96.039025,41.140425],[-96.039025,41.140445],[-96.039002,41.140445],[-96.038979,41.140445],[-96.038957,41.140445],[-96.038957,41.140425],[-96.038979,41.140425],[-96.039002,41.140425]]]],"type":"MultiPolygon"},"type":"Feature"},{"properties":{"NCES_Type":"Records Storage - Active","Number":"105","Name":"CLERK'S STORAGE","NCES_Department":"County Records","Seat Count":"","Revit_UniqueId":"214f934e-51b5-427a-a212-d17e20c54258-005848a3","Workstations":"","Element":"Room","NCES_Occupancy Status":"","occupancyStatus":"Occupied","Level":"BASEMENT","RevitId":5785763,"Area_SF":829.42},"geometry":{"coordinates":[[[-96.039495,41.140541],[-96.039495,41.14054],[-96.0395,41.14054],[-96.0395,41.140463],[-96.039471,41.140463],[-96.039471,41.140469],[-96.039467,41.140469],[-96.039467,41.140463],[-96.039429,41.140463],[-96.039386,41.140463],[-96.039386,41.140463],[-96.039386,41.140479],[-96.039386,41.140481],[-96.039386,41.140497],[-96.039386,41.140515],[-96.039386,41.140532],[-96.039386,41.140541],[-96.039425,41.140541],[-96.039425,41.140527],[-96.039425,41.140513],[-96.03943,41.140513],[-96.03943,41.140527],[-96.03943,41.140541],[-96.03948,41.140541],[-96.039495,41.140541]]],"type":"Polygon"},"type":"Feature"},{"properties":{"NCES_Type":"Records Storage - Active","Number":"047","Name":"CENTRAL ARCHIVE","NCES_Department":"County Records","Seat Count":"","Revit_UniqueId":"214f934e-51b5-427a-a212-d17e20c54258-005848fd","Workstations":"","Element":"Room","NCES_Occupancy Status":"","occupancyStatus":"Occupied","Level":"BASEMENT","RevitId":5785853,"Area_SF":2522.14},"geometry":{"coordinates":[[[-96.039632,41.140366],[-96.039348,41.140366],[-96.039348,41.140402],[-96.039348,41.140426],[-96.039386,41.140426],[-96.039386,41.140463],[-96.039429,41.140463],[-96.039467,41.140463],[-96.039471,41.140463],[-96.039498,41.140463],[-96.0395,41.140463],[-96.0395,41.140464],[-96.039538,41.140464],[-96.039612,41.140464],[-96.039612,41.140463],[-96.039614,41.140463],[-96.039632,41.140463],[-96.039632,41.140366]]],"type":"Polygon"},"type":"Feature"},{"properties":{"NCES_Type":"Elevator/Lift","Number":"001A","Name":"ELEV.","NCES_Department":"Courthouse","Seat Count":"","Revit_UniqueId":"214f934e-51b5-427a-a212-d17e20c54258-0058497f","Workstations":"","Element":"Room","NCES_Occupancy Status":"","occupancyStatus":"Occupied","Level":"BASEMENT","RevitId":5785983,"Area_SF":58.17},"geometry":{"coordinates":[[[-96.038856,41.14059],[-96.038888,41.14059],[-96.038888,41.14057],[-96.038858,41.14057],[-96.038856,41.14057],[-96.038856,41.14057],[-96.038856,41.140577],[-96.038856,41.14058],[-96.038856,41.14059]]],"type":"Polygon"},"type":"Feature"},{"properties":{"NCES_Type":"Private Office - Enclosed","Number":"103","Name":"SUPERVISOR'S OFFICE","NCES_Department":"Courthouse","Seat Count":"","Revit_UniqueId":"f5b64948-bc66-46c9-bd2a-91d13474d2aa-00591c4c","Workstations":"1","Element":"Room","NCES_Occupancy Status":"","occupancyStatus":"Occupied","Level":"BASEMENT","RevitId":5839948,"Area_SF":82.48},"geometry":{"coordinates":[[[-96.040223,41.141191],[-96.040222,41.141191],[-96.040183,41.141191],[-96.040183,41.141216],[-96.040223,41.141216],[-96.040223,41.141191]]],"type":"Polygon"},"type":"Feature"},{"properties":{"NCES_Type":"Public Observation Area","Number":"102","Name":"E.0.C./ PUBLIC VIEWING","NCES_Department":"Courthouse","Seat Count":"","Revit_UniqueId":"f5b64948-bc66-46c9-bd2a-91d13474d2aa-00591c4f","Workstations":"","Element":"Room","NCES_Occupancy Status":"","occupancyStatus":"Occupied","Level":"BASEMENT","RevitId":5839951,"Area_SF":177.17},"geometry":{"coordinates":[[[-96.040183,41.141264],[-96.04022,41.141264],[-96.04022,41.141262],[-96.040223,41.141262],[-96.040223,41.141216],[-96.040183,41.141216],[-96.040183,41.141264]]],"type":"Polygon"},"type":"Feature"},{"properties":{"NCES_Type":"Radio/IT Communications Room","Number":"101","Name":"COMMUNICATIONS CENTER","NCES_Department":"Courthouse","Seat Count":"","Revit_UniqueId":"f5b64948-bc66-46c9-bd2a-91d13474d2aa-00591c52","Workstations":"","Element":"Room","NCES_Occupancy Status":"","occupancyStatus":"Occupied","Level":"BASEMENT","RevitId":5839954,"Area_SF":1111.9},"geometry":{"coordinates":[[[-96.040183,41.141191],[-96.04002,41.141191],[-96.04002,41.141264],[-96.040034,41.141264],[-96.040034,41.141262],[-96.040038,41.141262],[-96.040038,41.141264],[-96.04008,41.141264],[-96.04008,41.141262],[-96.040085,41.141262],[-96.040085,41.141264],[-96.040127,41.141264],[-96.040127,41.141262],[-96.040131,41.141262],[-96.040131,41.141264],[-96.040174,41.141264],[-96.040174,41.141262],[-96.040178,41.141262],[-96.040178,41.141264],[-96.040183,41.141264],[-96.040183,41.141216],[-96.040183,41.141191]]],"type":"Polygon"},"type":"Feature"},{"properties":{"NCES_Type":"Equipment Storage","Number":"104","Name":"TECHNICAL EQUIPMENT","NCES_Department":"Courthouse","Seat Count":"","Revit_UniqueId":"f5b64948-bc66-46c9-bd2a-91d13474d2aa-00591c55","Workstations":"","Element":"Room","NCES_Occupancy Status":"","occupancyStatus":"Occupied","Level":"BASEMENT","RevitId":5839957,"Area_SF":411.59},"geometry":{"coordinates":[[[-96.04002,41.141191],[-96.039987,41.141191],[-96.039987,41.141218],[-96.039942,41.141218],[-96.039942,41.141262],[-96.039945,41.141262],[-96.039945,41.141264],[-96.039987,41.141264],[-96.039987,41.141262],[-96.039991,41.141262],[-96.039991,41.141264],[-96.04002,41.141264],[-96.04002,41.141191]]],"type":"Polygon"},"type":"Feature"},{"properties":{"NCES_Type":"Equipment Storage","Number":"105","Name":"HVAC EQUIPMENT","NCES_Department":"Courthouse","Seat Count":"","Revit_UniqueId":"f5b64948-bc66-46c9-bd2a-91d13474d2aa-00591c58","Workstations":"","Element":"Room","NCES_Occupancy Status":"","occupancyStatus":"Occupied","Level":"BASEMENT","RevitId":5839960,"Area_SF":104.07},"geometry":{"coordinates":[[[-96.039987,41.141191],[-96.039942,41.141191],[-96.039942,41.141218],[-96.039987,41.141218],[-96.039987,41.141191]]],"type":"Polygon"},"type":"Feature"},{"properties":{"NCES_Type":"IT/Telecom Room","Number":"160","Name":"IT SUPPORT","NCES_Department":"Courthouse","Seat Count":"","Revit_UniqueId":"f5b64948-bc66-46c9-bd2a-91d13474d2aa-00592f97","Workstations":"","Element":"Room","NCES_Occupancy Status":"","occupancyStatus":"Occupied","Level":"BASEMENT","RevitId":5844887,"Area_SF":356.97},"geometry":{"coordinates":[[[-96.040221,41.141332],[-96.040224,41.141332],[-96.040224,41.141306],[-96.040207,41.141306],[-96.040207,41.141282],[-96.040154,41.141282],[-96.040154,41.141342],[-96.040224,41.141342],[-96.040224,41.141336],[-96.040221,41.141336],[-96.040221,41.141332]]],"type":"Polygon"},"type":"Feature"},{"properties":{"NCES_Type":"Equipment Storage","Number":"161","Name":"IT STORAGE","NCES_Department":"Courthouse","Seat Count":"","Revit_UniqueId":"f5b64948-bc66-46c9-bd2a-91d13474d2aa-00592f9a","Workstations":"","Element":"Room","NCES_Occupancy Status":"","occupancyStatus":"Occupied","Level":"BASEMENT","RevitId":5844890,"Area_SF":117.35},"geometry":{"coordinates":[[[-96.040224,41.141361],[-96.040224,41.141342],[-96.040154,41.141342],[-96.040154,41.141361],[-96.040224,41.141361]]],"type":"Polygon"},"type":"Feature"},{"properties":{"NCES_Type":"Multipurpose Room","Number":"162","Name":"EXERCISE","NCES_Department":"Courthouse","Seat Count":"","Revit_UniqueId":"f5b64948-bc66-46c9-bd2a-91d13474d2aa-00592f9d","Workstations":"","Element":"Room","NCES_Occupancy Status":"","occupancyStatus":"Occupied","Level":"BASEMENT","RevitId":5844893,"Area_SF":289.06},"geometry":{"coordinates":[[[-96.040154,41.141406],[-96.040224,41.141406],[-96.040224,41.141361],[-96.040154,41.141361],[-96.040154,41.141406]]],"type":"Polygon"},"type":"Feature"},{"properties":{"NCES_Type":"Radio/IT Communications Room","Number":"163","Name":"EOC RADIO","NCES_Department":"Courthouse","Seat Count":"","Revit_UniqueId":"f5b64948-bc66-46c9-bd2a-91d13474d2aa-00592fa0","Workstations":"","Element":"Room","NCES_Occupancy Status":"","occupancyStatus":"Occupied","Level":"BASEMENT","RevitId":5844896,"Area_SF":123.86},"geometry":{"coordinates":[[[-96.040092,41.141354],[-96.040038,41.141354],[-96.040038,41.141374],[-96.040038,41.141379],[-96.040092,41.141379],[-96.040092,41.141354]]],"type":"Polygon"},"type":"Feature"},{"properties":{"NCES_Type":"General Storage","Number":"164","Name":"FACILITIES","NCES_Department":"Courthouse","Seat Count":"","Revit_UniqueId":"f5b64948-bc66-46c9-bd2a-91d13474d2aa-00592fa3","Workstations":"","Element":"Room","NCES_Occupancy Status":"","occupancyStatus":"Occupied","Level":"BASEMENT","RevitId":5844899,"Area_SF":862.93},"geometry":{"coordinates":[[[-96.039942,41.141406],[-96.040154,41.141406],[-96.040154,41.141361],[-96.040154,41.141342],[-96.040154,41.141282],[-96.040131,41.141282],[-96.040131,41.141354],[-96.040092,41.141354],[-96.040092,41.141379],[-96.040038,41.141379],[-96.040038,41.141374],[-96.039942,41.141374],[-96.039942,41.141406]]],"type":"Polygon"},"type":"Feature"},{"properties":{"NCES_Type":"Corridor/Hallway","Number":"165","Name":"HALL/STORAGE","NCES_Department":"Courthouse","Seat Count":"","Revit_UniqueId":"f5b64948-bc66-46c9-bd2a-91d13474d2aa-00592fa6","Workstations":"","Element":"Room","NCES_Occupancy Status":"","occupancyStatus":"Occupied","Level":"BASEMENT","RevitId":5844902,"Area_SF":181.77},"geometry":{"coordinates":[[[-96.039942,41.141354],[-96.039942,41.141374],[-96.040038,41.141374],[-96.040038,41.141354],[-96.039982,41.141354],[-96.039942,41.141354]]],"type":"Polygon"},"type":"Feature"},{"properties":{"NCES_Type":"Open Office - Cubicles","Number":"166","Name":"EOC","NCES_Department":"Courthouse","Seat Count":"","Revit_UniqueId":"f5b64948-bc66-46c9-bd2a-91d13474d2aa-00592fa9","Workstations":"","Element":"Room","NCES_Occupancy Status":"","occupancyStatus":"Occupied","Level":"BASEMENT","RevitId":5844905,"Area_SF":1032.66},"geometry":{"coordinates":[[[-96.040131,41.141282],[-96.039982,41.141282],[-96.039982,41.14129],[-96.039982,41.141305],[-96.039982,41.14132],[-96.039982,41.141354],[-96.040038,41.141354],[-96.040092,41.141354],[-96.040131,41.141354],[-96.040131,41.141283],[-96.040131,41.141282]]],"type":"Polygon"},"type":"Feature"},{"properties":{"NCES_Type":"Multipurpose Room","Number":"167","Name":"QUIET","NCES_Department":"Courthouse","Seat Count":"","Revit_UniqueId":"f5b64948-bc66-46c9-bd2a-91d13474d2aa-00592fac","Workstations":"","Element":"Room","NCES_Occupancy Status":"","occupancyStatus":"Occupied","Level":"BASEMENT","RevitId":5844908,"Area_SF":121},"geometry":{"coordinates":[[[-96.039942,41.14132],[-96.039942,41.141332],[-96.039944,41.141332],[-96.039944,41.141336],[-96.039942,41.141336],[-96.039942,41.141354],[-96.039982,41.141354],[-96.039982,41.14132],[-96.039942,41.14132]]],"type":"Polygon"},"type":"Feature"},{"properties":{"NCES_Type":"Waiting/Queue Area","Number":"168","Name":"QUEUE","NCES_Department":"Courthouse","Seat Count":"","Revit_UniqueId":"f5b64948-bc66-46c9-bd2a-91d13474d2aa-00592faf","Workstations":"","Element":"Room","NCES_Occupancy Status":"","occupancyStatus":"Occupied","Level":"BASEMENT","RevitId":5844911,"Area_SF":52.46},"geometry":{"coordinates":[[[-96.039942,41.141305],[-96.039942,41.14132],[-96.039982,41.14132],[-96.039982,41.141305],[-96.039964,41.141305],[-96.03996,41.141305],[-96.039942,41.141305]]],"type":"Polygon"},"type":"Feature"},{"properties":{"NCES_Type":"Single Stall Restroom","Number":"169","Name":"RR","NCES_Department":"Courthouse","Seat Count":"","Revit_UniqueId":"f5b64948-bc66-46c9-bd2a-91d13474d2aa-00592fb2","Workstations":"","Element":"Room","NCES_Occupancy Status":"","occupancyStatus":"Occupied","Level":"BASEMENT","RevitId":5844914,"Area_SF":22.76},"geometry":{"coordinates":[[[-96.039982,41.141305],[-96.039982,41.14129],[-96.039972,41.14129],[-96.039964,41.14129],[-96.039964,41.141305],[-96.039982,41.141305]]],"type":"Polygon"},"type":"Feature"},{"properties":{"NCES_Type":"Single Stall Restroom","Number":"170","Name":"RR","NCES_Department":"Courthouse","Seat Count":"","Revit_UniqueId":"f5b64948-bc66-46c9-bd2a-91d13474d2aa-00592fb5","Workstations":"","Element":"Room","NCES_Occupancy Status":"","occupancyStatus":"Occupied","Level":"BASEMENT","RevitId":5844917,"Area_SF":22.24},"geometry":{"coordinates":[[[-96.039942,41.14129],[-96.039942,41.141305],[-96.03996,41.141305],[-96.03996,41.14129],[-96.039942,41.14129]]],"type":"Polygon"},"type":"Feature"},{"properties":{"NCES_Type":"Private Restroom","Number":"171","Name":"EYE WASH AREA","NCES_Department":"Courthouse","Seat Count":"","Revit_UniqueId":"f5b64948-bc66-46c9-bd2a-91d13474d2aa-00592fb8","Workstations":"","Element":"Room","NCES_Occupancy Status":"","occupancyStatus":"Occupied","Level":"BASEMENT","RevitId":5844920,"Area_SF":11.34},"geometry":{"coordinates":[[[-96.039942,41.141282],[-96.039942,41.14129],[-96.03996,41.14129],[-96.03996,41.141282],[-96.039942,41.141282]]],"type":"Polygon"},"type":"Feature"},{"properties":{"NCES_Type":"Administrative Workroom","Number":"172","Name":"ADMIN","NCES_Department":"Courthouse","Seat Count":"","Revit_UniqueId":"f5b64948-bc66-46c9-bd2a-91d13474d2aa-00595e34","Workstations":"","Element":"Room","NCES_Occupancy Status":"","occupancyStatus":"Occupied","Level":"BASEMENT","RevitId":5856820,"Area_SF":533.1},"geometry":{"coordinates":[[[-96.040363,41.141237],[-96.040363,41.141199],[-96.040364,41.141199],[-96.040364,41.141195],[-96.040361,41.141195],[-96.040361,41.141192],[-96.040317,41.141192],[-96.040317,41.141194],[-96.040316,41.141194],[-96.040314,41.141194],[-96.040314,41.141191],[-96.04026,41.141191],[-96.04026,41.141208],[-96.040243,41.141208],[-96.040243,41.14123],[-96.040287,41.14123],[-96.040287,41.141263],[-96.04032,41.141263],[-96.04032,41.141261],[-96.04032,41.141237],[-96.040343,41.141237],[-96.040363,41.141237]]],"type":"Polygon"},"type":"Feature"},{"properties":{"NCES_Type":"Administrative Workroom","Number":"173","Name":"ADMIN SUPPORT","NCES_Department":"Courthouse","Seat Count":"","Revit_UniqueId":"f5b64948-bc66-46c9-bd2a-91d13474d2aa-00595e37","Workstations":"","Element":"Room","NCES_Occupancy Status":"","occupancyStatus":"Occupied","Level":"BASEMENT","RevitId":5856823,"Area_SF":628.15},"geometry":{"coordinates":[[[-96.040317,41.141335],[-96.040317,41.141335],[-96.040364,41.141335],[-96.040364,41.141263],[-96.04036,41.141263],[-96.04036,41.141263],[-96.040343,41.141263],[-96.040321,41.141263],[-96.04032,41.141263],[-96.04032,41.141263],[-96.04032,41.141263],[-96.040287,41.141263],[-96.040243,41.141263],[-96.040243,41.141284],[-96.040281,41.141284],[-96.040281,41.141335],[-96.040315,41.141335],[-96.040317,41.141335]]],"type":"Polygon"},"type":"Feature"},{"properties":{"NCES_Type":"Private Office - Enclosed","Number":"174","Name":"TECHNOL. OFFICE","NCES_Department":"Courthouse","Seat Count":"","Revit_UniqueId":"f5b64948-bc66-46c9-bd2a-91d13474d2aa-00595e3a","Workstations":"1","Element":"Room","NCES_Occupancy Status":"","occupancyStatus":"Occupied","Level":"BASEMENT","RevitId":5856826,"Area_SF":177.25},"geometry":{"coordinates":[[[-96.040269,41.141334],[-96.040269,41.141335],[-96.040281,41.141335],[-96.040281,41.141284],[-96.040243,41.141284],[-96.040243,41.141335],[-96.040246,41.141335],[-96.040265,41.141335],[-96.040265,41.141334],[-96.040269,41.141334]]],"type":"Polygon"},"type":"Feature"},{"properties":{"NCES_Type":"Call Center/Phone Bank","Number":"175","Name":"PHONE ROOM","NCES_Department":"Courthouse","Seat Count":"","Revit_UniqueId":"f5b64948-bc66-46c9-bd2a-91d13474d2aa-00595e3d","Workstations":"","Element":"Room","NCES_Occupancy Status":"","occupancyStatus":"Occupied","Level":"BASEMENT","RevitId":5856829,"Area_SF":78.57},"geometry":{"coordinates":[[[-96.040317,41.141352],[-96.040317,41.141335],[-96.040281,41.141335],[-96.040269,41.141335],[-96.040269,41.141336],[-96.040265,41.141336],[-96.040265,41.141339],[-96.040265,41.141352],[-96.040317,41.141352]]],"type":"Polygon"},"type":"Feature"},{"properties":{"NCES_Type":"Radio/IT Communications Room","Number":"176","Name":"RADIO SHOP","NCES_Department":"Courthouse","Seat Count":"","Revit_UniqueId":"f5b64948-bc66-46c9-bd2a-91d13474d2aa-00595e40","Workstations":"","Element":"Room","NCES_Occupancy Status":"","occupancyStatus":"Occupied","Level":"BASEMENT","RevitId":5856832,"Area_SF":526.41},"geometry":{"coordinates":[[[-96.040224,41.141406],[-96.040317,41.141406],[-96.040317,41.141352],[-96.040265,41.141352],[-96.040265,41.141339],[-96.040246,41.141339],[-96.040246,41.141335],[-96.040243,41.141335],[-96.040224,41.141335],[-96.040224,41.141336],[-96.040224,41.141342],[-96.040224,41.141361],[-96.040224,41.141406]]],"type":"Polygon"},"type":"Feature"},{"properties":{"NCES_Type":"Mechanical Room","Number":"177","Name":"MECHANICAL","NCES_Department":"Courthouse","Seat Count":"","Revit_UniqueId":"f5b64948-bc66-46c9-bd2a-91d13474d2aa-00595e4f","Workstations":"","Element":"Room","NCES_Occupancy Status":"","occupancyStatus":"Occupied","Level":"BASEMENT","RevitId":5856847,"Area_SF":1516.41},"geometry":{"coordinates":[[[-96.039806,41.141319],[-96.039806,41.141321],[-96.039806,41.141334],[-96.039834,41.141334],[-96.03992,41.141334],[-96.03992,41.141196],[-96.039806,41.141196],[-96.039806,41.141319]]],"type":"Polygon"},"type":"Feature"},{"properties":{"NCES_Type":"Equipment Storage","Number":"179","Name":"BATTERY ROOM","NCES_Department":"Courthouse","Seat Count":"","Revit_UniqueId":"f5b64948-bc66-46c9-bd2a-91d13474d2aa-00595e52","Workstations":"","Element":"Room","NCES_Occupancy Status":"","occupancyStatus":"Occupied","Level":"BASEMENT","RevitId":5856850,"Area_SF":255.2},"geometry":{"coordinates":[[[-96.03992,41.141171],[-96.03984,41.141171],[-96.03984,41.141171],[-96.039806,41.141171],[-96.039806,41.141196],[-96.03992,41.141196],[-96.03992,41.141171]]],"type":"Polygon"},"type":"Feature"},{"properties":{"NCES_Type":"Radio/IT Communications Room","Number":"180","Name":"RF SERVER ROOM","NCES_Department":"Courthouse","Seat Count":"","Revit_UniqueId":"f5b64948-bc66-46c9-bd2a-91d13474d2aa-00595e55","Workstations":"","Element":"Room","NCES_Occupancy Status":"","occupancyStatus":"Occupied","Level":"BASEMENT","RevitId":5856853,"Area_SF":206.19},"geometry":{"coordinates":[[[-96.03984,41.141125],[-96.03984,41.141148],[-96.03992,41.141148],[-96.039942,41.141148],[-96.039942,41.141125],[-96.03984,41.141125]]],"type":"Polygon"},"type":"Feature"},{"properties":{"NCES_Type":"Kitchenette","Number":"181","Name":"KITCHEN","NCES_Department":"Courthouse","Seat Count":"","Revit_UniqueId":"f5b64948-bc66-46c9-bd2a-91d13474d2aa-00595e58","Workstations":"","Element":"Room","NCES_Occupancy Status":"","occupancyStatus":"Occupied","Level":"BASEMENT","RevitId":5856856,"Area_SF":716.63},"geometry":{"coordinates":[[[-96.039834,41.141334],[-96.039834,41.141354],[-96.039836,41.141354],[-96.039836,41.141355],[-96.039836,41.141406],[-96.039942,41.141406],[-96.039942,41.141374],[-96.039942,41.141354],[-96.039942,41.141336],[-96.039942,41.141334],[-96.03992,41.141334],[-96.039834,41.141334]]],"type":"Polygon"},"type":"Feature"},{"properties":{"NCES_Type":"Mechanical Room","Number":"182","Name":"GENERATOR","NCES_Department":"Courthouse","Seat Count":"","Revit_UniqueId":"f5b64948-bc66-46c9-bd2a-91d13474d2aa-00595e5b","Workstations":"","Element":"Room","NCES_Occupancy Status":"","occupancyStatus":"Occupied","Level":"BASEMENT","RevitId":5856859,"Area_SF":514.47},"geometry":{"coordinates":[[[-96.039836,41.141355],[-96.039811,41.141355],[-96.039811,41.141356],[-96.039806,41.141356],[-96.039806,41.141352],[-96.039806,41.141334],[-96.039749,41.141334],[-96.039749,41.141406],[-96.039791,41.141406],[-96.039793,41.141406],[-96.039793,41.141406],[-96.039793,41.141406],[-96.039836,41.141406],[-96.039836,41.141355]]],"type":"Polygon"},"type":"Feature"},{"properties":{"NCES_Type":"Corridor/Hallway","Number":"100C","Name":"CORRIDOR","NCES_Department":"Courthouse","Seat Count":"","Revit_UniqueId":"f5b64948-bc66-46c9-bd2a-91d13474d2aa-00595e5e","Workstations":"","Element":"Room","NCES_Occupancy Status":"","occupancyStatus":"Occupied","Level":"BASEMENT","RevitId":5856862,"Area_SF":1153.81},"geometry":{"coordinates":[[[-96.039942,41.141191],[-96.039942,41.141148],[-96.03992,41.141148],[-96.03992,41.141171],[-96.03992,41.141196],[-96.03992,41.141334],[-96.039942,41.141334],[-96.039942,41.141332],[-96.039942,41.14132],[-96.039942,41.141305],[-96.039942,41.14129],[-96.039942,41.141282],[-96.03996,41.141282],[-96.039964,41.141282],[-96.039982,41.141282],[-96.040131,41.141282],[-96.040132,41.141282],[-96.040132,41.141282],[-96.040132,41.141282],[-96.040154,41.141282],[-96.040207,41.141282],[-96.040224,41.141282],[-96.040224,41.141306],[-96.040224,41.141332],[-96.040224,41.141335],[-96.040243,41.141335],[-96.040243,41.141284],[-96.040243,41.141263],[-96.040243,41.14123],[-96.040243,41.141208],[-96.040243,41.141191],[-96.040243,41.141167],[-96.040239,41.141167],[-96.040239,41.141143],[-96.040222,41.141143],[-96.040222,41.141191],[-96.040223,41.141191],[-96.040223,41.141216],[-96.040223,41.141262],[-96.040223,41.141264],[-96.04022,41.141264],[-96.040183,41.141264],[-96.040178,41.141264],[-96.040174,41.141264],[-96.040131,41.141264],[-96.040127,41.141264],[-96.040085,41.141264],[-96.04008,41.141264],[-96.040038,41.141264],[-96.040034,41.141264],[-96.04002,41.141264],[-96.039991,41.141264],[-96.039987,41.141264],[-96.039945,41.141264],[-96.039942,41.141264],[-96.039942,41.141262],[-96.039942,41.141218],[-96.039942,41.141191]]],"type":"Polygon"},"type":"Feature"},{"properties":{"NCES_Type":"Elevator/Lift","Number":"184","Name":"ELEVATOR","NCES_Department":"Courthouse","Seat Count":"","Revit_UniqueId":"f5b64948-bc66-46c9-bd2a-91d13474d2aa-00595ea7","Workstations":"","Element":"Room","NCES_Occupancy Status":"","occupancyStatus":"Occupied","Level":"BASEMENT","RevitId":5856935,"Area_SF":47.84},"geometry":{"coordinates":[[[-96.039811,41.141356],[-96.039811,41.141355],[-96.039834,41.141355],[-96.039834,41.141354],[-96.039834,41.141334],[-96.039806,41.141334],[-96.039806,41.141352],[-96.039806,41.141356],[-96.039811,41.141356]]],"type":"Polygon"},"type":"Feature"},{"properties":{"NCES_Type":"Stair","Number":"185","Name":"STAIR","NCES_Department":"Courthouse","Seat Count":"","Revit_UniqueId":"f5b64948-bc66-46c9-bd2a-91d13474d2aa-00595ec3","Workstations":"","Element":"Room","NCES_Occupancy Status":"","occupancyStatus":"Occupied","Level":"BASEMENT","RevitId":5856963,"Area_SF":168.59},"geometry":{"coordinates":[[[-96.03984,41.141171],[-96.03992,41.141171],[-96.03992,41.141148],[-96.03984,41.141148],[-96.03984,41.141171],[-96.03984,41.141171]]],"type":"Polygon"},"type":"Feature"},{"properties":{"NCES_Type":"Stair","Number":"186","Name":"STAIR","NCES_Department":"Courthouse","Seat Count":"","Revit_UniqueId":"f5b64948-bc66-46c9-bd2a-91d13474d2aa-00595f18","Workstations":"","Element":"Room","NCES_Occupancy Status":"","occupancyStatus":"Occupied","Level":"BASEMENT","RevitId":5857048,"Area_SF":156.45},"geometry":{"coordinates":[[[-96.040316,41.141191],[-96.040316,41.141167],[-96.040243,41.141167],[-96.040243,41.141191],[-96.04026,41.141191],[-96.040314,41.141191],[-96.040316,41.141191]]],"type":"Polygon"},"type":"Feature"},{"properties":{"NCES_Type":"Womens Restroom","Number":"187","Name":"WOMEN'S RR","NCES_Department":"Courthouse","Seat Count":"","Revit_UniqueId":"f5b64948-bc66-46c9-bd2a-91d13474d2aa-00595f1b","Workstations":"","Element":"Room","NCES_Occupancy Status":"","occupancyStatus":"Occupied","Level":"BASEMENT","RevitId":5857051,"Area_SF":169.14},"geometry":{"coordinates":[[[-96.040316,41.141167],[-96.040316,41.141143],[-96.040252,41.141143],[-96.040239,41.141143],[-96.040239,41.141167],[-96.040243,41.141167],[-96.040316,41.141167]]],"type":"Polygon"},"type":"Feature"},{"properties":{"NCES_Type":"Mens Restroom","Number":"188","Name":"MEN'S RR","NCES_Department":"Courthouse","Seat Count":"","Revit_UniqueId":"f5b64948-bc66-46c9-bd2a-91d13474d2aa-00595f1e","Workstations":"","Element":"Room","NCES_Occupancy Status":"","occupancyStatus":"Occupied","Level":"BASEMENT","RevitId":5857054,"Area_SF":196.63},"geometry":{"coordinates":[[[-96.040316,41.141139],[-96.040316,41.141114],[-96.040222,41.141114],[-96.040222,41.141143],[-96.040239,41.141143],[-96.040239,41.141139],[-96.040316,41.141139]]],"type":"Polygon"},"type":"Feature"},{"properties":{"NCES_Type":"Private Restroom","Number":"189","Name":"EYE WASH AREA","NCES_Department":"Courthouse","Seat Count":"","Revit_UniqueId":"f5b64948-bc66-46c9-bd2a-91d13474d2aa-00595f8f","Workstations":"","Element":"Room","NCES_Occupancy Status":"","occupancyStatus":"Occupied","Level":"BASEMENT","RevitId":5857167,"Area_SF":11.8},"geometry":{"coordinates":[[[-96.039982,41.141282],[-96.039964,41.141282],[-96.039964,41.14129],[-96.039972,41.14129],[-96.039982,41.14129],[-96.039982,41.141282]]],"type":"Polygon"},"type":"Feature"},{"properties":{"NCES_Type":"Open Office - Workstations","Number":"295","Name":"OFFICE","NCES_Department":"","Seat Count":"","Revit_UniqueId":"c687cb8c-b07b-4f4a-a919-049ec613620a-005a11d4","Workstations":"","Element":"Room","NCES_Occupancy Status":"","occupancyStatus":"Occupied","Level":"BASEMENT","RevitId":5902804,"Area_SF":48.06},"geometry":{"coordinates":[[[-96.039386,41.140497],[-96.039386,41.14048],[-96.039358,41.14048],[-96.039358,41.140497],[-96.039386,41.140497]]],"type":"Polygon"},"type":"Feature"},{"properties":{"NCES_Type":"Open Office - Workstations","Number":"296","Name":"OFFICE","NCES_Department":"","Seat Count":"","Revit_UniqueId":"c687cb8c-b07b-4f4a-a919-049ec613620a-005a11d7","Workstations":"","Element":"Room","NCES_Occupancy Status":"","occupancyStatus":"Occupied","Level":"BASEMENT","RevitId":5902807,"Area_SF":48.06},"geometry":{"coordinates":[[[-96.039386,41.140515],[-96.039386,41.140497],[-96.039358,41.140497],[-96.039358,41.140515],[-96.039386,41.140515]]],"type":"Polygon"},"type":"Feature"},{"properties":{"NCES_Type":"Open Office - Workstations","Number":"297","Name":"OFFICE","NCES_Department":"","Seat Count":"","Revit_UniqueId":"c687cb8c-b07b-4f4a-a919-049ec613620a-005a11da","Workstations":"","Element":"Room","NCES_Occupancy Status":"","occupancyStatus":"Occupied","Level":"BASEMENT","RevitId":5902810,"Area_SF":48.06},"geometry":{"coordinates":[[[-96.039386,41.140532],[-96.039386,41.140515],[-96.039358,41.140515],[-96.039358,41.140532],[-96.039386,41.140532]]],"type":"Polygon"},"type":"Feature"},{"properties":{"NCES_Type":"Open Office - Workstations","Number":"298","Name":"OFFICE","NCES_Department":"","Seat Count":"","Revit_UniqueId":"c687cb8c-b07b-4f4a-a919-049ec613620a-005a12fb","Workstations":"","Element":"Room","NCES_Occupancy Status":"","occupancyStatus":"Occupied","Level":"BASEMENT","RevitId":5903099,"Area_SF":48.06},"geometry":{"coordinates":[[[-96.039294,41.140515],[-96.039294,41.140532],[-96.039322,41.140532],[-96.039322,41.140515],[-96.039294,41.140515]]],"type":"Polygon"},"type":"Feature"},{"properties":{"NCES_Type":"Open Office - Workstations","Number":"299","Name":"OFFICE","NCES_Department":"","Seat Count":"","Revit_UniqueId":"c687cb8c-b07b-4f4a-a919-049ec613620a-005a12fe","Workstations":"","Element":"Room","NCES_Occupancy Status":"","occupancyStatus":"Occupied","Level":"BASEMENT","RevitId":5903102,"Area_SF":48.06},"geometry":{"coordinates":[[[-96.039294,41.140497],[-96.039294,41.140511],[-96.039294,41.140515],[-96.039322,41.140515],[-96.039322,41.140497],[-96.039294,41.140497]]],"type":"Polygon"},"type":"Feature"},{"properties":{"NCES_Type":"Open Office - Workstations","Number":"300","Name":"OFFICE","NCES_Department":"","Seat Count":"","Revit_UniqueId":"c687cb8c-b07b-4f4a-a919-049ec613620a-005a13d1","Workstations":"","Element":"Room","NCES_Occupancy Status":"","occupancyStatus":"Occupied","Level":"BASEMENT","RevitId":5903313,"Area_SF":45.86},"geometry":{"coordinates":[[[-96.039025,41.140425],[-96.039002,41.140425],[-96.039002,41.140445],[-96.039025,41.140445],[-96.039025,41.140425]]],"type":"Polygon"},"type":"Feature"},{"properties":{"NCES_Type":"Open Office - Workstations","Number":"301","Name":"OFFICE","NCES_Department":"","Seat Count":"","Revit_UniqueId":"c687cb8c-b07b-4f4a-a919-049ec613620a-005a13d4","Workstations":"","Element":"Room","NCES_Occupancy Status":"","occupancyStatus":"Occupied","Level":"BASEMENT","RevitId":5903316,"Area_SF":45.25},"geometry":{"coordinates":[[[-96.039002,41.140425],[-96.038979,41.140425],[-96.038979,41.140445],[-96.039002,41.140445],[-96.039002,41.140425]]],"type":"Polygon"},"type":"Feature"},{"properties":{"NCES_Type":"Open Office - Workstations","Number":"302","Name":"OFFICE","NCES_Department":"","Seat Count":"","Revit_UniqueId":"c687cb8c-b07b-4f4a-a919-049ec613620a-005a13d7","Workstations":"","Element":"Room","NCES_Occupancy Status":"","occupancyStatus":"Occupied","Level":"BASEMENT","RevitId":5903319,"Area_SF":45.25},"geometry":{"coordinates":[[[-96.038979,41.140425],[-96.038957,41.140425],[-96.038957,41.140445],[-96.038979,41.140445],[-96.038979,41.140425]]],"type":"Polygon"},"type":"Feature"}],"type":"FeatureCollection"}