{
  "features": [
    {
      "geometry": {
        "coordinates": [
          [
            [
              -95.572233144418561, 
              42.756588737165558
            ], 
            [
              -95.572123890284857, 
              42.756588737165558
            ], 
            [
              -95.572123890284857, 
              42.756607967934791
            ], 
            [
              -95.572123890284857, 
              42.756630861707684
            ], 
            [
              -95.572143222096500, 
              42.756630861707684
            ], 
            [
              -95.572143222096500, 
              42.756648569606476
            ], 
            [
              -95.572233144418561, 
              42.756648569606476
            ], 
            [
              -95.572233144418561, 
              42.756588737165558
            ]
          ]
        ], 
        "type": "Polygon"
      }, 
      "properties": {
        "Seat Count": "", 
        "Number": "67", 
        "NCES_Type": "Program Service Room", 
        "Workstations": "", 
        "Element": "Room", 
        "RevitId": 5679258, 
        "occupancyStatus": "Occupied", 
        "Building": "Connected Core", 
        "Area_SF": 522.03999999999996, 
        "Name": "CLASSROOM", 
        "NCES_Occupancy Status": "", 
        "NCES_Department": "Administration", 
        "Level": "LEVEL 4", 
        "Revit_UniqueId": "1f9d7a8f-f265-4728-a925-62dafe2a6a5e-0056a89a"
      }, 
      "type": "Feature"
    }, 
    {
      "geometry": {
        "coordinates": [
          [
            [
              -95.572233144418561, 
              42.756706304544963
            ], 
            [
              -95.572233144418561, 
              42.756648569606476
            ], 
            [
              -95.572143222096500, 
              42.756648569606476
            ], 
            [
              -95.572143222096500, 
              42.756673795387456
            ], 
            [
              -95.572123890284857, 
              42.756673795387456
            ], 
            [
              -95.572123890284857, 
              42.756706304544963
            ], 
            [
              -95.572153511609159, 
              42.756706304544963
            ], 
            [
              -95.572233144418561, 
              42.756706304544963
            ]
          ]
        ], 
        "type": "Polygon"
      }, 
      "properties": {
        "Seat Count": "", 
        "Number": "68", 
        "NCES_Type": "Program Service Room", 
        "Workstations": "", 
        "Element": "Room", 
        "RevitId": 5679262, 
        "occupancyStatus": "Occupied", 
        "Building": "Connected Core", 
        "Area_SF": 495.17000000000002, 
        "Name": "CLASSROOM", 
        "NCES_Occupancy Status": "", 
        "NCES_Department": "Administration", 
        "Level": "LEVEL 4", 
        "Revit_UniqueId": "1f9d7a8f-f265-4728-a925-62dafe2a6a5e-0056a89e"
      }, 
      "type": "Feature"
    }, 
    {
      "geometry": {
        "coordinates": [
          [
            [
              -95.571940549877567, 
              42.756647583648132
            ], 
            [
              -95.571940549877567, 
              42.756706790539305
            ], 
            [
              -95.571949340048704, 
              42.756706790539305
            ], 
            [
              -95.572006088270001, 
              42.756706790539305
            ], 
            [
              -95.572050052551347, 
              42.756706790539305
            ], 
            [
              -95.572050052551347, 
              42.756647583648132
            ], 
            [
              -95.571940549877567, 
              42.756647583648132
            ]
          ]
        ], 
        "type": "Polygon"
      }, 
      "properties": {
        "Seat Count": "", 
        "Number": "69", 
        "NCES_Type": "Program Service Room", 
        "Workstations": "", 
        "Element": "Room", 
        "RevitId": 5679265, 
        "occupancyStatus": "Occupied", 
        "Building": "Connected Core", 
        "Area_SF": 558.61000000000001, 
        "Name": "CLASSROOM", 
        "NCES_Occupancy Status": "", 
        "NCES_Department": "Administration", 
        "Level": "LEVEL 4", 
        "Revit_UniqueId": "1f9d7a8f-f265-4728-a925-62dafe2a6a5e-0056a8a1"
      }, 
      "type": "Feature"
    }, 
    {
      "geometry": {
        "coordinates": [
          [
            [
              -95.572050052551347, 
              42.756588737165558
            ], 
            [
              -95.571940549877567, 
              42.756588737165558
            ], 
            [
              -95.571940549877567, 
              42.756647583648132
            ], 
            [
              -95.572050052551347, 
              42.756647583648132
            ], 
            [
              -95.572050052551347, 
              42.756607967934791
            ], 
            [
              -95.572050052551347, 
              42.756588737165558
            ]
          ]
        ], 
        "type": "Polygon"
      }, 
      "properties": {
        "Seat Count": "", 
        "Number": "70", 
        "NCES_Type": "Training Room", 
        "Workstations": "", 
        "Element": "Room", 
        "RevitId": 5679268, 
        "occupancyStatus": "Occupied", 
        "Building": "Connected Core", 
        "Area_SF": 541.24000000000001, 
        "Name": "SHARED TRAINING ROOM CPR", 
        "NCES_Occupancy Status": "", 
        "NCES_Department": "Administration", 
        "Level": "LEVEL 4", 
        "Revit_UniqueId": "1f9d7a8f-f265-4728-a925-62dafe2a6a5e-0056a8a4"
      }, 
      "type": "Feature"
    }, 
    {
      "geometry": {
        "coordinates": [
          [
            [
              -95.572233144418561, 
              42.756758936374155
            ], 
            [
              -95.572233144418561, 
              42.756755002207669
            ], 
            [
              -95.572233144418561, 
              42.756705445769988
            ], 
            [
              -95.572233144418561, 
              42.756706304544963
            ], 
            [
              -95.572229383194482, 
              42.756706304544963
            ], 
            [
              -95.572153511609159, 
              42.756706304544963
            ], 
            [
              -95.572153511609159, 
              42.756719811870973
            ], 
            [
              -95.572123890284857, 
              42.756719811870973
            ], 
            [
              -95.572123890284857, 
              42.756747742409480
            ], 
            [
              -95.572153511609159, 
              42.756747742409480
            ], 
            [
              -95.572153511609159, 
              42.756758936374155
            ], 
            [
              -95.572198846043051, 
              42.756758936374155
            ], 
            [
              -95.572233144418561, 
              42.756758936374155
            ]
          ]
        ], 
        "type": "Polygon"
      }, 
      "properties": {
        "Seat Count": "", 
        "Number": "71", 
        "NCES_Type": "Medical/Nurse Triage Room", 
        "Workstations": "", 
        "Element": "Room", 
        "RevitId": 5679280, 
        "occupancyStatus": "Occupied", 
        "Building": "Connected Core", 
        "Area_SF": 552.13000000000000, 
        "Name": "NURSING", 
        "NCES_Occupancy Status": "", 
        "NCES_Department": "Administration", 
        "Level": "LEVEL 4", 
        "Revit_UniqueId": "1f9d7a8f-f265-4728-a925-62dafe2a6a5e-0056a8b0"
      }, 
      "type": "Feature"
    }, 
    {
      "geometry": {
        "coordinates": [
          [
            [
              -95.572153511609159, 
              42.756706304544963
            ], 
            [
              -95.572123890284857, 
              42.756706304544963
            ], 
            [
              -95.572123890284857, 
              42.756719811870973
            ], 
            [
              -95.572153511609159, 
              42.756719811870973
            ], 
            [
              -95.572153511609159, 
              42.756706304544963
            ]
          ]
        ], 
        "type": "Polygon"
      }, 
      "properties": {
        "Seat Count": "", 
        "Number": "72", 
        "NCES_Type": "Closet", 
        "Workstations": "", 
        "Element": "Room", 
        "RevitId": 5679283, 
        "occupancyStatus": "Occupied", 
        "Building": "Connected Core", 
        "Area_SF": 27.090000000000000, 
        "Name": "CLOS", 
        "NCES_Occupancy Status": "", 
        "NCES_Department": "Administration", 
        "Level": "LEVEL 4", 
        "Revit_UniqueId": "1f9d7a8f-f265-4728-a925-62dafe2a6a5e-0056a8b3"
      }, 
      "type": "Feature"
    }, 
    {
      "geometry": {
        "coordinates": [
          [
            [
              -95.572050052551347, 
              42.756706790539305
            ], 
            [
              -95.572006088270001, 
              42.756706790539305
            ], 
            [
              -95.572006088270001, 
              42.756719382114390
            ], 
            [
              -95.572006088270001, 
              42.756735353924178
            ], 
            [
              -95.572050052551347, 
              42.756735353924178
            ], 
            [
              -95.572050052551347, 
              42.756706790539305
            ]
          ]
        ], 
        "type": "Polygon"
      }, 
      "properties": {
        "Seat Count": "", 
        "Number": "73", 
        "NCES_Type": "Corridor/Hallway", 
        "Workstations": "", 
        "Element": "Room", 
        "RevitId": 5679291, 
        "occupancyStatus": "Occupied", 
        "Building": "Connected Core", 
        "Area_SF": 98.329999999999998, 
        "Name": "CORRIDOR", 
        "NCES_Occupancy Status": "", 
        "NCES_Department": "Administration", 
        "Level": "LEVEL 4", 
        "Revit_UniqueId": "1f9d7a8f-f265-4728-a925-62dafe2a6a5e-0056a8bb"
      }, 
      "type": "Feature"
    }, 
    {
      "geometry": {
        "coordinates": [
          [
            [
              -95.572006088270001, 
              42.756706790539305
            ], 
            [
              -95.571949340048704, 
              42.756706790539305
            ], 
            [
              -95.571949340048704, 
              42.756719382114390
            ], 
            [
              -95.571968360056943, 
              42.756719382114390
            ], 
            [
              -95.571968360056943, 
              42.756727341103662
            ], 
            [
              -95.571982079407150, 
              42.756727341103662
            ], 
            [
              -95.571982079407150, 
              42.756719382114390
            ], 
            [
              -95.572006088270001, 
              42.756719382114390
            ], 
            [
              -95.572006088270001, 
              42.756706790539305
            ]
          ]
        ], 
        "type": "Polygon"
      }, 
      "properties": {
        "Seat Count": "", 
        "Number": "74", 
        "NCES_Type": "Corridor/Hallway", 
        "Workstations": "", 
        "Element": "Room", 
        "RevitId": 5679294, 
        "occupancyStatus": "Occupied", 
        "Building": "Connected Core", 
        "Area_SF": 65.400000000000006, 
        "Name": "CORR", 
        "NCES_Occupancy Status": "", 
        "NCES_Department": "Administration", 
        "Level": "LEVEL 4", 
        "Revit_UniqueId": "1f9d7a8f-f265-4728-a925-62dafe2a6a5e-0056a8be"
      }, 
      "type": "Feature"
    }, 
    {
      "geometry": {
        "coordinates": [
          [
            [
              -95.571940549877567, 
              42.756706790539305
            ], 
            [
              -95.571936808236600, 
              42.756706790539305
            ], 
            [
              -95.571936808236600, 
              42.756705416912929
            ], 
            [
              -95.571932693272473, 
              42.756705416912929
            ], 
            [
              -95.571911542910556, 
              42.756720946299744
            ], 
            [
              -95.571911542910556, 
              42.756735353924178
            ], 
            [
              -95.571949340048704, 
              42.756735353924178
            ], 
            [
              -95.571949340048704, 
              42.756719382114390
            ], 
            [
              -95.571949340048704, 
              42.756706790539305
            ], 
            [
              -95.571940549877567, 
              42.756706790539305
            ]
          ]
        ], 
        "type": "Polygon"
      }, 
      "properties": {
        "Seat Count": "", 
        "Number": "75", 
        "NCES_Type": "Restroom - Bath/Shower", 
        "Workstations": "", 
        "Element": "Room", 
        "RevitId": 5679297, 
        "occupancyStatus": "Occupied", 
        "Building": "Connected Core", 
        "Area_SF": 68.129999999999995, 
        "Name": "BATH", 
        "NCES_Occupancy Status": "", 
        "NCES_Department": "Administration", 
        "Level": "LEVEL 4", 
        "Revit_UniqueId": "1f9d7a8f-f265-4728-a925-62dafe2a6a5e-0056a8c1"
      }, 
      "type": "Feature"
    }, 
    {
      "geometry": {
        "coordinates": [
          [
            [
              -95.571982079407150, 
              42.756735353924178
            ], 
            [
              -95.572006088270001, 
              42.756735353924178
            ], 
            [
              -95.572006088270001, 
              42.756719382114390
            ], 
            [
              -95.571982079407150, 
              42.756719382114390
            ], 
            [
              -95.571982079407150, 
              42.756727341103662
            ], 
            [
              -95.571982079407150, 
              42.756730317294142
            ], 
            [
              -95.571982079407150, 
              42.756735353924178
            ]
          ]
        ], 
        "type": "Polygon"
      }, 
      "properties": {
        "Seat Count": "", 
        "Number": "76", 
        "NCES_Type": "Closet", 
        "Workstations": "", 
        "Element": "Room", 
        "RevitId": 5679318, 
        "occupancyStatus": "Occupied", 
        "Building": "Connected Core", 
        "Area_SF": 28.480000000000000, 
        "Name": "CLOSET", 
        "NCES_Occupancy Status": "", 
        "NCES_Department": "Administration", 
        "Level": "LEVEL 4", 
        "Revit_UniqueId": "1f9d7a8f-f265-4728-a925-62dafe2a6a5e-0056a8d6"
      }, 
      "type": "Feature"
    }, 
    {
      "geometry": {
        "coordinates": [
          [
            [
              -95.571949340048704, 
              42.756735353924178
            ], 
            [
              -95.571968360056943, 
              42.756735353924178
            ], 
            [
              -95.571968360056943, 
              42.756730317294142
            ], 
            [
              -95.571968360056943, 
              42.756727341103662
            ], 
            [
              -95.571968360056943, 
              42.756719382114390
            ], 
            [
              -95.571949340048704, 
              42.756719382114390
            ], 
            [
              -95.571949340048704, 
              42.756735353924178
            ]
          ]
        ], 
        "type": "Polygon"
      }, 
      "properties": {
        "Seat Count": "", 
        "Number": "77", 
        "NCES_Type": "Single Stall Restroom", 
        "Workstations": "", 
        "Element": "Room", 
        "RevitId": 5679321, 
        "occupancyStatus": "Occupied", 
        "Building": "Connected Core", 
        "Area_SF": 22.059999999999999, 
        "Name": "TOILET", 
        "NCES_Occupancy Status": "", 
        "NCES_Department": "Administration", 
        "Level": "LEVEL 4", 
        "Revit_UniqueId": "1f9d7a8f-f265-4728-a925-62dafe2a6a5e-0056a8d9"
      }, 
      "type": "Feature"
    }, 
    {
      "geometry": {
        "coordinates": [
          [
            [
              -95.571940408907238, 
              42.756755958319779
            ], 
            [
              -95.571940408907238, 
              42.756779309968131
            ], 
            [
              -95.572050052551347, 
              42.756779309968131
            ], 
            [
              -95.572050052551347, 
              42.756735353924178
            ], 
            [
              -95.572006088270001, 
              42.756735353924178
            ], 
            [
              -95.571982079407150, 
              42.756735353924178
            ], 
            [
              -95.571968360056943, 
              42.756735353924178
            ], 
            [
              -95.571949340048704, 
              42.756735353924178
            ], 
            [
              -95.571911542910556, 
              42.756735353924178
            ], 
            [
              -95.571911542910556, 
              42.756741550695345
            ], 
            [
              -95.571931165479995, 
              42.756755958319779
            ], 
            [
              -95.571940408907238, 
              42.756755958319779
            ]
          ]
        ], 
        "type": "Polygon"
      }, 
      "properties": {
        "Seat Count": "", 
        "Number": "78", 
        "NCES_Type": "Training Room", 
        "Workstations": "", 
        "Element": "Room", 
        "RevitId": 5679332, 
        "occupancyStatus": "Occupied", 
        "Building": "Connected Core", 
        "Area_SF": 433.04000000000002, 
        "Name": "TRAINING ROOM\r\n& APARTMENT", 
        "NCES_Occupancy Status": "", 
        "NCES_Department": "Administration", 
        "Level": "LEVEL 4", 
        "Revit_UniqueId": "1f9d7a8f-f265-4728-a925-62dafe2a6a5e-0056a8e4"
      }, 
      "type": "Feature"
    }, 
    {
      "geometry": {
        "coordinates": [
          [
            [
              -95.571940408907238, 
              42.756836831753311
            ], 
            [
              -95.571992424792981, 
              42.756836831753311
            ], 
            [
              -95.571992424792981, 
              42.756836144940124
            ], 
            [
              -95.571996186017074, 
              42.756836144940124
            ], 
            [
              -95.572023549261175, 
              42.756836144940124
            ], 
            [
              -95.572027914508965, 
              42.756836144940124
            ], 
            [
              -95.572049421461244, 
              42.756836144940124
            ], 
            [
              -95.572050052551347, 
              42.756836144940124
            ], 
            [
              -95.572050052551347, 
              42.756779309968131
            ], 
            [
              -95.571940408907238, 
              42.756779309968131
            ], 
            [
              -95.571940408907238, 
              42.756836831753311
            ]
          ]
        ], 
        "type": "Polygon"
      }, 
      "properties": {
        "Seat Count": "", 
        "Number": "79", 
        "NCES_Type": "Training Room", 
        "Workstations": "", 
        "Element": "Room", 
        "RevitId": 5679335, 
        "occupancyStatus": "Occupied", 
        "Building": "Connected Core", 
        "Area_SF": 528.70000000000005, 
        "Name": "TRAINING ROOM", 
        "NCES_Occupancy Status": "", 
        "NCES_Department": "Administration", 
        "Level": "LEVEL 4", 
        "Revit_UniqueId": "1f9d7a8f-f265-4728-a925-62dafe2a6a5e-0056a8e7"
      }, 
      "type": "Feature"
    }, 
    {
      "geometry": {
        "coordinates": [
          [
            [
              -95.572123890284857, 
              42.756837518566499
            ], 
            [
              -95.572123890284857, 
              42.756822937924056
            ], 
            [
              -95.572123890284857, 
              42.756795108535329
            ], 
            [
              -95.572153511609159, 
              42.756795108535329
            ], 
            [
              -95.572153511609159, 
              42.756782288022507
            ], 
            [
              -95.572153511609159, 
              42.756771070073789
            ], 
            [
              -95.572153511609159, 
              42.756758936374155
            ], 
            [
              -95.572153511609159, 
              42.756747742409480
            ], 
            [
              -95.572123890284857, 
              42.756747742409480
            ], 
            [
              -95.572123890284857, 
              42.756719811870973
            ], 
            [
              -95.572123890284857, 
              42.756706304544963
            ], 
            [
              -95.572123890284857, 
              42.756673795387456
            ], 
            [
              -95.572123890284857, 
              42.756648569606476
            ], 
            [
              -95.572123890284857, 
              42.756630861707684
            ], 
            [
              -95.572123890284857, 
              42.756607967934791
            ], 
            [
              -95.572050052551347, 
              42.756607967934791
            ], 
            [
              -95.572050052551347, 
              42.756647583648132
            ], 
            [
              -95.572050052551347, 
              42.756706790539305
            ], 
            [
              -95.572050052551347, 
              42.756735353924178
            ], 
            [
              -95.572050052551347, 
              42.756779309968131
            ], 
            [
              -95.572050052551347, 
              42.756837518566499
            ], 
            [
              -95.572085909943922, 
              42.756837518566499
            ], 
            [
              -95.572123890284857, 
              42.756837518566499
            ]
          ]
        ], 
        "type": "Polygon"
      }, 
      "properties": {
        "Seat Count": "", 
        "Number": "80", 
        "NCES_Type": "Training Room", 
        "Workstations": "", 
        "Element": "Room", 
        "RevitId": 5679351, 
        "occupancyStatus": "Occupied", 
        "Building": "Connected Core", 
        "Area_SF": 1640.4400000000001, 
        "Name": "LARGE TRAINING AREA", 
        "NCES_Occupancy Status": "", 
        "NCES_Department": "Administration", 
        "Level": "LEVEL 4", 
        "Revit_UniqueId": "1f9d7a8f-f265-4728-a925-62dafe2a6a5e-0056a8f7"
      }, 
      "type": "Feature"
    }, 
    {
      "geometry": {
        "coordinates": [
          [
            [
              -95.572179416048343, 
              42.756836317326531
            ], 
            [
              -95.572179416048343, 
              42.756837004139719
            ], 
            [
              -95.572233144418561, 
              42.756837004139719
            ], 
            [
              -95.572233144418561, 
              42.756782288022507
            ], 
            [
              -95.572198846043051, 
              42.756782288022507
            ], 
            [
              -95.572178455882252, 
              42.756782288022507
            ], 
            [
              -95.572166919155947, 
              42.756782288022507
            ], 
            [
              -95.572153511609159, 
              42.756782288022507
            ], 
            [
              -95.572153511609159, 
              42.756795108535329
            ], 
            [
              -95.572123890284857, 
              42.756795108535329
            ], 
            [
              -95.572123890284857, 
              42.756822937924056
            ], 
            [
              -95.572153511609159, 
              42.756822937924056
            ], 
            [
              -95.572153511609159, 
              42.756836317326531
            ], 
            [
              -95.572179416048343, 
              42.756836317326531
            ]
          ]
        ], 
        "type": "Polygon"
      }, 
      "properties": {
        "Seat Count": "", 
        "Number": "81", 
        "NCES_Type": "Break Room", 
        "Workstations": "", 
        "Element": "Room", 
        "RevitId": 5679360, 
        "occupancyStatus": "Occupied", 
        "Building": "Connected Core", 
        "Area_SF": 439.92000000000002, 
        "Name": "STUDENT BREAK ROOM", 
        "NCES_Occupancy Status": "", 
        "NCES_Department": "Administration", 
        "Level": "LEVEL 4", 
        "Revit_UniqueId": "1f9d7a8f-f265-4728-a925-62dafe2a6a5e-0056a900"
      }, 
      "type": "Feature"
    }, 
    {
      "geometry": {
        "coordinates": [
          [
            [
              -95.572233144418561, 
              42.756782288022507
            ], 
            [
              -95.572233144418561, 
              42.756758936374155
            ], 
            [
              -95.572198846043051, 
              42.756758936374155
            ], 
            [
              -95.572198846043051, 
              42.756771070073789
            ], 
            [
              -95.572198846043051, 
              42.756782288022507
            ], 
            [
              -95.572233144418561, 
              42.756782288022507
            ]
          ]
        ], 
        "type": "Polygon"
      }, 
      "properties": {
        "Seat Count": "", 
        "Number": "82", 
        "NCES_Type": "Restroom - Bath/Shower", 
        "Workstations": "", 
        "Element": "Room", 
        "RevitId": 5679367, 
        "occupancyStatus": "Occupied", 
        "Building": "Connected Core", 
        "Area_SF": 61.350000000000001, 
        "Name": "BATH", 
        "NCES_Occupancy Status": "", 
        "NCES_Department": "Administration", 
        "Level": "LEVEL 4", 
        "Revit_UniqueId": "1f9d7a8f-f265-4728-a925-62dafe2a6a5e-0056a907"
      }, 
      "type": "Feature"
    }, 
    {
      "geometry": {
        "coordinates": [
          [
            [
              -95.572166919155947, 
              42.756782288022507
            ], 
            [
              -95.572178455882252, 
              42.756782288022507
            ], 
            [
              -95.572178455882252, 
              42.756771070073789
            ], 
            [
              -95.572198846043051, 
              42.756771070073789
            ], 
            [
              -95.572198846043051, 
              42.756758936374155
            ], 
            [
              -95.572153511609159, 
              42.756758936374155
            ], 
            [
              -95.572153511609159, 
              42.756771070073789
            ], 
            [
              -95.572166919155947, 
              42.756771070073789
            ], 
            [
              -95.572166919155947, 
              42.756782288022507
            ]
          ]
        ], 
        "type": "Polygon"
      }, 
      "properties": {
        "Seat Count": "", 
        "Number": "83", 
        "NCES_Type": "Corridor/Hallway", 
        "Workstations": "", 
        "Element": "Room", 
        "RevitId": 5679370, 
        "occupancyStatus": "Occupied", 
        "Building": "Connected Core", 
        "Area_SF": 55.399999999999999, 
        "Name": "CORR", 
        "NCES_Occupancy Status": "", 
        "NCES_Department": "Administration", 
        "Level": "LEVEL 4", 
        "Revit_UniqueId": "1f9d7a8f-f265-4728-a925-62dafe2a6a5e-0056a90a"
      }, 
      "type": "Feature"
    }, 
    {
      "geometry": {
        "coordinates": [
          [
            [
              -95.572178455882252, 
              42.756782288022507
            ], 
            [
              -95.572198846043051, 
              42.756782288022507
            ], 
            [
              -95.572198846043051, 
              42.756771070073789
            ], 
            [
              -95.572178455882252, 
              42.756771070073789
            ], 
            [
              -95.572178455882252, 
              42.756782288022507
            ]
          ]
        ], 
        "type": "Polygon"
      }, 
      "properties": {
        "Seat Count": "", 
        "Number": "84", 
        "NCES_Type": "Staff Toilet/Changing", 
        "Workstations": "", 
        "Element": "Room", 
        "RevitId": 5679373, 
        "occupancyStatus": "Occupied", 
        "Building": "Connected Core", 
        "Area_SF": 16.5, 
        "Name": "RR", 
        "NCES_Occupancy Status": "", 
        "NCES_Department": "Administration", 
        "Level": "LEVEL 4", 
        "Revit_UniqueId": "1f9d7a8f-f265-4728-a925-62dafe2a6a5e-0056a90d"
      }, 
      "type": "Feature"
    }, 
    {
      "geometry": {
        "coordinates": [
          [
            [
              -95.572153511609159, 
              42.756782288022507
            ], 
            [
              -95.572166919155947, 
              42.756782288022507
            ], 
            [
              -95.572166919155947, 
              42.756771070073789
            ], 
            [
              -95.572153511609159, 
              42.756771070073789
            ], 
            [
              -95.572153511609159, 
              42.756782288022507
            ]
          ]
        ], 
        "type": "Polygon"
      }, 
      "properties": {
        "Seat Count": "", 
        "Number": "85", 
        "NCES_Type": "Closet", 
        "Workstations": "", 
        "Element": "Room", 
        "RevitId": 5679376, 
        "occupancyStatus": "Occupied", 
        "Building": "Connected Core", 
        "Area_SF": 10.279999999999999, 
        "Name": "CLOS", 
        "NCES_Occupancy Status": "", 
        "NCES_Department": "Administration", 
        "Level": "LEVEL 4", 
        "Revit_UniqueId": "1f9d7a8f-f265-4728-a925-62dafe2a6a5e-0056a910"
      }, 
      "type": "Feature"
    }, 
    {
      "geometry": {
        "coordinates": [
          [
            [
              -95.572123890284857, 
              42.756836139445625
            ], 
            [
              -95.572123890284857, 
              42.756836317326531
            ], 
            [
              -95.572153511609159, 
              42.756836317326531
            ], 
            [
              -95.572153511609159, 
              42.756822937924056
            ], 
            [
              -95.572123890284857, 
              42.756822937924056
            ], 
            [
              -95.572123890284857, 
              42.756836139445625
            ]
          ]
        ], 
        "type": "Polygon"
      }, 
      "properties": {
        "Seat Count": "", 
        "Number": "86", 
        "NCES_Type": "Closet", 
        "Workstations": "", 
        "Element": "Room", 
        "RevitId": 5679386, 
        "occupancyStatus": "Occupied", 
        "Building": "Connected Core", 
        "Area_SF": 26.770000000000000, 
        "Name": "CLOS", 
        "NCES_Occupancy Status": "", 
        "NCES_Department": "Administration", 
        "Level": "LEVEL 4", 
        "Revit_UniqueId": "1f9d7a8f-f265-4728-a925-62dafe2a6a5e-0056a91a"
      }, 
      "type": "Feature"
    }, 
    {
      "geometry": {
        "coordinates": [
          [
            [
              -95.572128801567189, 
              42.756891666436417
            ], 
            [
              -95.572179416048343, 
              42.756891666436417
            ], 
            [
              -95.572179416048343, 
              42.756837004139719
            ], 
            [
              -95.572179416048343, 
              42.756836317326531
            ], 
            [
              -95.572153511609159, 
              42.756836317326531
            ], 
            [
              -95.572123890284857, 
              42.756836317326531
            ], 
            [
              -95.572123890284857, 
              42.756837518566499
            ], 
            [
              -95.572122011981079, 
              42.756837518566499
            ], 
            [
              -95.572085909943922, 
              42.756837518566499
            ], 
            [
              -95.572085909943922, 
              42.756856749335732
            ], 
            [
              -95.572085909943922, 
              42.756873351418108
            ], 
            [
              -95.572131014674412, 
              42.756873351418108
            ], 
            [
              -95.572131014674412, 
              42.756853945531660
            ], 
            [
              -95.572155095382072, 
              42.756853945531660
            ], 
            [
              -95.572155095382072, 
              42.756873351418108
            ], 
            [
              -95.572131014674412, 
              42.756873351418108
            ], 
            [
              -95.572129979015202, 
              42.756873351418108
            ], 
            [
              -95.572129136370634, 
              42.756873351418108
            ], 
            [
              -95.572085909943922, 
              42.756873351418108
            ], 
            [
              -95.572085909943922, 
              42.756904944824697
            ], 
            [
              -95.572110716969192, 
              42.756904944824697
            ], 
            [
              -95.572128801567189, 
              42.756891666436417
            ]
          ]
        ], 
        "type": "Polygon"
      }, 
      "properties": {
        "Seat Count": "", 
        "Number": "87", 
        "NCES_Type": "Stair", 
        "Workstations": "", 
        "Element": "Room", 
        "RevitId": 5679401, 
        "occupancyStatus": "Occupied", 
        "Building": "Connected Core", 
        "Area_SF": 417.42000000000002, 
        "Name": "STAIR HALL", 
        "NCES_Occupancy Status": "", 
        "NCES_Department": "Administration", 
        "Level": "LEVEL 4", 
        "Revit_UniqueId": "1f9d7a8f-f265-4728-a925-62dafe2a6a5e-0056a929"
      }, 
      "type": "Feature"
    }, 
    {
      "geometry": {
        "coordinates": [
          [
            [
              -95.571992424792981, 
              42.756891666436417
            ], 
            [
              -95.572042680866716, 
              42.756891666436417
            ], 
            [
              -95.572060765464713, 
              42.756904944824697
            ], 
            [
              -95.572085909943922, 
              42.756904944824697
            ], 
            [
              -95.572085909943922, 
              42.756873351418108
            ], 
            [
              -95.572085909943922, 
              42.756856749335732
            ], 
            [
              -95.572051299765008, 
              42.756856749335732
            ], 
            [
              -95.572023549261175, 
              42.756856749335732
            ], 
            [
              -95.571992424792981, 
              42.756856749335732
            ], 
            [
              -95.571992424792981, 
              42.756891666436417
            ]
          ]
        ], 
        "type": "Polygon"
      }, 
      "properties": {
        "Seat Count": "", 
        "Number": "88", 
        "NCES_Type": "Private Office - Enclosed", 
        "Workstations": "", 
        "Element": "Room", 
        "RevitId": 5679404, 
        "occupancyStatus": "Occupied", 
        "Building": "Connected Core", 
        "Area_SF": 314.43000000000001, 
        "Name": "OFFICE", 
        "NCES_Occupancy Status": "", 
        "NCES_Department": "Administration", 
        "Level": "LEVEL 4", 
        "Revit_UniqueId": "1f9d7a8f-f265-4728-a925-62dafe2a6a5e-0056a92c"
      }, 
      "type": "Feature"
    }, 
    {
      "geometry": {
        "coordinates": [
          [
            [
              -95.572085909943922, 
              42.756837518566499
            ], 
            [
              -95.572051930855110, 
              42.756837518566499
            ], 
            [
              -95.572051299765008, 
              42.756837518566499
            ], 
            [
              -95.572051299765008, 
              42.756856749335732
            ], 
            [
              -95.572085909943922, 
              42.756856749335732
            ], 
            [
              -95.572085909943922, 
              42.756837518566499
            ]
          ]
        ], 
        "type": "Polygon"
      }, 
      "properties": {
        "Seat Count": "", 
        "Number": "89", 
        "NCES_Type": "Closet", 
        "Workstations": "", 
        "Element": "Room", 
        "RevitId": 5679407, 
        "occupancyStatus": "Occupied", 
        "Building": "Connected Core", 
        "Area_SF": 56.880000000000003, 
        "Name": "CLOSET", 
        "NCES_Occupancy Status": "", 
        "NCES_Department": "Administration", 
        "Level": "LEVEL 4", 
        "Revit_UniqueId": "1f9d7a8f-f265-4728-a925-62dafe2a6a5e-0056a92f"
      }, 
      "type": "Feature"
    }, 
    {
      "geometry": {
        "coordinates": [
          [
            [
              -95.572051299765008, 
              42.756836144940124
            ], 
            [
              -95.572027914508965, 
              42.756836144940124
            ], 
            [
              -95.572027914508965, 
              42.756849595714812
            ], 
            [
              -95.572023549261175, 
              42.756849595714812
            ], 
            [
              -95.572023549261175, 
              42.756856749335732
            ], 
            [
              -95.572051299765008, 
              42.756856749335732
            ], 
            [
              -95.572051299765008, 
              42.756836144940124
            ]
          ]
        ], 
        "type": "Polygon"
      }, 
      "properties": {
        "Seat Count": "", 
        "Number": "90", 
        "NCES_Type": "Closet", 
        "Workstations": "", 
        "Element": "Room", 
        "RevitId": 5679410, 
        "occupancyStatus": "Occupied", 
        "Building": "Connected Core", 
        "Area_SF": 39.829999999999998, 
        "Name": "CLOSET", 
        "NCES_Occupancy Status": "", 
        "NCES_Department": "Administration", 
        "Level": "LEVEL 4", 
        "Revit_UniqueId": "1f9d7a8f-f265-4728-a925-62dafe2a6a5e-0056a932"
      }, 
      "type": "Feature"
    }, 
    {
      "geometry": {
        "coordinates": [
          [
            [
              -95.571992424792981, 
              42.756836144940124
            ], 
            [
              -95.571992424792981, 
              42.756856749335732
            ], 
            [
              -95.572023549261175, 
              42.756856749335732
            ], 
            [
              -95.572023549261175, 
              42.756849595714812
            ], 
            [
              -95.572023549261175, 
              42.756836144940124
            ], 
            [
              -95.571992424792981, 
              42.756836144940124
            ]
          ]
        ], 
        "type": "Polygon"
      }, 
      "properties": {
        "Seat Count": "", 
        "Number": "91", 
        "NCES_Type": "Closet", 
        "Workstations": "", 
        "Element": "Room", 
        "RevitId": 5679413, 
        "occupancyStatus": "Occupied", 
        "Building": "Connected Core", 
        "Area_SF": 45.939999999999998, 
        "Name": "CLOSET", 
        "NCES_Occupancy Status": "", 
        "NCES_Department": "Administration", 
        "Level": "LEVEL 4", 
        "Revit_UniqueId": "1f9d7a8f-f265-4728-a925-62dafe2a6a5e-0056a935"
      }, 
      "type": "Feature"
    }, 
    {
      "geometry": {
        "coordinates": [
          [
            [
              -95.572155095382072, 
              42.756873351418108
            ], 
            [
              -95.572155095382072, 
              42.756853945531660
            ], 
            [
              -95.572131014674412, 
              42.756853945531660
            ], 
            [
              -95.572131014674412, 
              42.756871972297226
            ], 
            [
              -95.572131014674412, 
              42.756873351418108
            ], 
            [
              -95.572155095382072, 
              42.756873351418108
            ]
          ]
        ], 
        "type": "Polygon"
      }, 
      "properties": {
        "Seat Count": "", 
        "Number": "92", 
        "NCES_Type": "Elevator/Lift", 
        "Workstations": "", 
        "Element": "Room", 
        "RevitId": 5679432, 
        "occupancyStatus": "Occupied", 
        "Building": "Connected Core", 
        "Area_SF": 35.899999999999999, 
        "Name": "ELEVATOR", 
        "NCES_Occupancy Status": "", 
        "NCES_Department": "Administration", 
        "Level": "LEVEL 4", 
        "Revit_UniqueId": "1f9d7a8f-f265-4728-a925-62dafe2a6a5e-0056a948"
      }, 
      "type": "Feature"
    }
  ], 
  "type": "FeatureCollection", 
  "name": "Connected Core - LEVEL 4"
}