{"type":"FeatureCollection","name":"633004_SarpyMP Springfield Public Works_R26 - LEVEL 1","features":[{"properties":{"Revit_UniqueId":"8a69d776-c04f-4f8e-b774-424ae4cee5cd-00523911","Element":"Room","Workstations":"","Area_SF":1379,"Number":"281","RevitId":5388561,"NCES_Type":"Garage/Vehicle Bay","NCES_Department":"Public Works","NCES_Occupancy Status":"","Name":"GARAGE/VEHICLE BAY","Seat Count":"","occupancyStatus":"Occupied","Level":"LEVEL 1"},"type":"Feature","geometry":{"type":"Polygon","coordinates":[[[-96.134473,41.081174],[-96.134327,41.081174],[-96.134327,41.081256],[-96.134357,41.081256],[-96.134357,41.081279],[-96.134473,41.081279],[-96.134473,41.081174]]]}},{"properties":{"Revit_UniqueId":"8a69d776-c04f-4f8e-b774-424ae4cee5cd-00523914","Element":"Room","Workstations":"","Area_SF":56.25,"Number":"282","RevitId":5388564,"NCES_Type":"","NCES_Department":"","NCES_Occupancy Status":"","Name":"ROOM","Seat Count":"","occupancyStatus":"Occupied","Level":"LEVEL 1"},"type":"Feature","geometry":{"type":"Polygon","coordinates":[[[-96.134327,41.081256],[-96.134327,41.081279],[-96.134357,41.081279],[-96.134357,41.081256],[-96.134327,41.081256]]]}}]}