{"type":"FeatureCollection","name":"633004_SarpyMP Sheriff's Garage_R26 - LEVEL 1","features":[{"properties":{"Revit_UniqueId":"80924290-597b-458f-91c2-33868e51a1d4-0052034d","Element":"Room","Workstations":"","Area_SF":333.66,"Number":"105","RevitId":5374797,"NCES_Type":"Wash Bay","NCES_Department":"Sherrif's Garage","NCES_Occupancy Status":"","Name":"WASH BAY","Seat Count":"","occupancyStatus":"Occupied","Level":"LEVEL 1"},"type":"Feature","geometry":{"type":"Polygon","coordinates":[[[-96.042282,41.089327],[-96.042253,41.089327],[-96.042238,41.089327],[-96.042238,41.089352],[-96.042238,41.089409],[-96.042282,41.089409],[-96.042282,41.089327]]]}},{"properties":{"Revit_UniqueId":"80924290-597b-458f-91c2-33868e51a1d4-005205e4","Element":"Room","Workstations":"","Area_SF":228.84,"Number":"104","RevitId":5375460,"NCES_Type":"Radio/IT Communications Room","NCES_Department":"Sherrif's Garage","NCES_Occupancy Status":"","Name":"MDC/RADIO/VIDEO MAINTENANCE","Seat Count":"","occupancyStatus":"Occupied","Level":"LEVEL 1"},"type":"Feature","geometry":{"type":"Polygon","coordinates":[[[-96.042238,41.089409],[-96.042238,41.089352],[-96.042196,41.089352],[-96.042196,41.089409],[-96.042238,41.089409]]]}},{"properties":{"Revit_UniqueId":"80924290-597b-458f-91c2-33868e51a1d4-00520bf9","Element":"Room","Workstations":"","Area_SF":668.92,"Number":"103","RevitId":5377017,"NCES_Type":"Garage/Vehicle Bay","NCES_Department":"Sherrif's Garage","NCES_Occupancy Status":"","Name":"GARAGE BAY 3","Seat Count":"","occupancyStatus":"Occupied","Level":"LEVEL 1"},"type":"Feature","geometry":{"type":"Polygon","coordinates":[[[-96.042112,41.089409],[-96.042196,41.089409],[-96.042196,41.089352],[-96.042196,41.089328],[-96.042112,41.089328],[-96.042112,41.089409]]]}},{"properties":{"Revit_UniqueId":"80924290-597b-458f-91c2-33868e51a1d4-00520bff","Element":"Room","Workstations":"","Area_SF":670.73,"Number":"102","RevitId":5377023,"NCES_Type":"Garage/Vehicle Bay","NCES_Department":"Sherrif's Garage","NCES_Occupancy Status":"","Name":"GARAGE BAY 2","Seat Count":"","occupancyStatus":"Occupied","Level":"LEVEL 1"},"type":"Feature","geometry":{"type":"Polygon","coordinates":[[[-96.042028,41.089409],[-96.042112,41.089409],[-96.042112,41.089328],[-96.042028,41.089328],[-96.042028,41.089409]]]}},{"properties":{"Revit_UniqueId":"80924290-597b-458f-91c2-33868e51a1d4-00520c02","Element":"Room","Workstations":"","Area_SF":679.22,"Number":"101","RevitId":5377026,"NCES_Type":"Garage/Vehicle Bay","NCES_Department":"Sherrif's Garage","NCES_Occupancy Status":"","Name":"GARAGE BAY 1","Seat Count":"","occupancyStatus":"Occupied","Level":"LEVEL 1"},"type":"Feature","geometry":{"type":"Polygon","coordinates":[[[-96.041942,41.089328],[-96.041942,41.089409],[-96.042028,41.089409],[-96.042028,41.089328],[-96.041942,41.089328]]]}},{"properties":{"Revit_UniqueId":"80924290-597b-458f-91c2-33868e51a1d4-00520f3d","Element":"Room","Workstations":"","Area_SF":84.81,"Number":"106","RevitId":5377853,"NCES_Type":"Mechanical Room","NCES_Department":"Sherrif's Garage","NCES_Occupancy Status":"","Name":"MECH. ROOM","Seat Count":"","occupancyStatus":"Occupied","Level":"LEVEL 1"},"type":"Feature","geometry":{"type":"Polygon","coordinates":[[[-96.042238,41.089301],[-96.042238,41.089315],[-96.042253,41.089315],[-96.042253,41.089327],[-96.042282,41.089327],[-96.042282,41.089301],[-96.042238,41.089301]]]}},{"properties":{"Revit_UniqueId":"80924290-597b-458f-91c2-33868e51a1d4-00520f60","Element":"Room","Workstations":"","Area_SF":1358.26,"Number":"101","RevitId":5377888,"NCES_Type":"Maintenance Shop","NCES_Department":"Sherrif's Garage","NCES_Occupancy Status":"","Name":"MAINTENANCE WORKSHOP AREA","Seat Count":"","occupancyStatus":"Occupied","Level":"LEVEL 1"},"type":"Feature","geometry":{"type":"Polygon","coordinates":[[[-96.042238,41.089315],[-96.042238,41.089301],[-96.042155,41.089301],[-96.042155,41.089274],[-96.042155,41.089247],[-96.042028,41.089247],[-96.042028,41.089328],[-96.042112,41.089328],[-96.042196,41.089328],[-96.042196,41.089352],[-96.042238,41.089352],[-96.042238,41.089327],[-96.042253,41.089327],[-96.042253,41.089315],[-96.042238,41.089315]]]}},{"properties":{"Revit_UniqueId":"80924290-597b-458f-91c2-33868e51a1d4-005211ee","Element":"Room","Workstations":"","Area_SF":124.12,"Number":"108","RevitId":5378542,"NCES_Type":"Equipment Storage","NCES_Department":"Sherrif's Garage","NCES_Occupancy Status":"","Name":"MAINTENANCE STORAGE AREA","Seat Count":"","occupancyStatus":"Occupied","Level":"LEVEL 1"},"type":"Feature","geometry":{"type":"Polygon","coordinates":[[[-96.042203,41.089247],[-96.042155,41.089247],[-96.042155,41.089274],[-96.042203,41.089274],[-96.042203,41.089247]]]}},{"properties":{"Revit_UniqueId":"80924290-597b-458f-91c2-33868e51a1d4-00521223","Element":"Room","Workstations":"","Area_SF":540.37,"Number":"107","RevitId":5378595,"NCES_Type":"Evidence Storage","NCES_Department":"Sherrif's Garage","NCES_Occupancy Status":"","Name":"EVIDENCE STORAGE AREA","Seat Count":"","occupancyStatus":"Occupied","Level":"LEVEL 1"},"type":"Feature","geometry":{"type":"Polygon","coordinates":[[[-96.042238,41.089301],[-96.042282,41.089301],[-96.042282,41.089247],[-96.042203,41.089247],[-96.042203,41.089274],[-96.042155,41.089274],[-96.042155,41.089301],[-96.042238,41.089301]]]}},{"properties":{"Revit_UniqueId":"80924290-597b-458f-91c2-33868e51a1d4-0052122a","Element":"Room","Workstations":"","Area_SF":685.63,"Number":"109","RevitId":5378602,"NCES_Type":"Garage/Vehicle Bay","NCES_Department":"Sherrif's Garage","NCES_Occupancy Status":"","Name":"GARAGE BAY 4","Seat Count":"","occupancyStatus":"Occupied","Level":"LEVEL 1"},"type":"Feature","geometry":{"type":"Polygon","coordinates":[[[-96.042028,41.089247],[-96.041942,41.089247],[-96.041942,41.089328],[-96.042028,41.089328],[-96.042028,41.089247]]]}}]}