{"type":"FeatureCollection","name":"633004_SarpyMP 180th Public Works_R26 - LEVEL 1","features":[{"properties":{"Revit_UniqueId":"af52e5dd-040e-4700-8b82-b3ea04382122-00523b58","Element":"Room","Workstations":"","Area_SF":1115.33,"Number":"281","RevitId":5389144,"NCES_Type":"Garage/Vehicle Bay","NCES_Department":"Public Works","NCES_Occupancy Status":"","Name":"GARAGE/VEHICLE BAY","Seat Count":"","occupancyStatus":"Occupied","Level":"LEVEL 1"},"type":"Feature","geometry":{"type":"Polygon","coordinates":[[[-96.202692,41.177042],[-96.202797,41.177042],[-96.202797,41.176929],[-96.202692,41.176929],[-96.202692,41.177042]]]}},{"properties":{"Revit_UniqueId":"af52e5dd-040e-4700-8b82-b3ea04382122-00523b5b","Element":"Room","Workstations":"","Area_SF":1991.67,"Number":"282","RevitId":5389147,"NCES_Type":"Garage/Vehicle Bay","NCES_Department":"Public Works","NCES_Occupancy Status":"","Name":"GARAGE/VEHICLE BAY","Seat Count":"","occupancyStatus":"Occupied","Level":"LEVEL 1"},"type":"Feature","geometry":{"type":"Polygon","coordinates":[[[-96.202797,41.177042],[-96.202982,41.177042],[-96.202982,41.176929],[-96.202797,41.176929],[-96.202797,41.177042]]]}}]}