{
  "type": "FeatureCollection", 
  "features": [
    {
      "type": "Feature", 
      "geometry": {
        "type": "Point", 
        "coordinates": [
          -95.574195169848551, 
          42.758652624764345
        ]
      }, 
      "properties": {
        "Name": "Stair", 
        "Element": "Stair", 
        "Level": "BASEMENT", 
        "Type": "Stair", 
        "RevitId": 5491181, 
        "Family": "Assembled Stair", 
        "kind": "stair", 
        "Revit_UniqueId": "83a586d2-70d1-46f5-a19f-b7b2ff6eaee5-0053c9ed", 
        "interactive": false
      }
    }, 
    {
      "type": "Feature", 
      "geometry": {
        "type": "Point", 
        "coordinates": [
          -95.574040880503929, 
          42.758652624764345
        ]
      }, 
      "properties": {
        "Name": "Stair", 
        "Element": "Stair", 
        "Level": "BASEMENT", 
        "Type": "Stair", 
        "RevitId": 5491212, 
        "Family": "Assembled Stair", 
        "kind": "stair", 
        "Revit_UniqueId": "83a586d2-70d1-46f5-a19f-b7b2ff6eaee5-0053ca0c", 
        "interactive": false
      }
    }, 
    {
      "type": "Feature", 
      "geometry": {
        "type": "Point", 
        "coordinates": [
          -95.574123919715959, 
          42.758538182893261
        ]
      }, 
      "properties": {
        "Name": "Stair", 
        "Element": "Stair", 
        "Level": "BASEMENT", 
        "Type": "Stair", 
        "RevitId": 5492336, 
        "Family": "Assembled Stair", 
        "kind": "stair", 
        "Revit_UniqueId": "83a586d2-70d1-46f5-a19f-b7b2ff6eaee5-0053ce70", 
        "interactive": false
      }
    }, 
    {
      "type": "Feature", 
      "geometry": {
        "type": "Point", 
        "coordinates": [
          -95.574133476638323, 
          42.758588807386424
        ]
      }, 
      "properties": {
        "Name": "Stair", 
        "Element": "Stair", 
        "Level": "BASEMENT", 
        "Type": "Stair", 
        "RevitId": 5494090, 
        "Family": "Assembled Stair", 
        "kind": "stair", 
        "Revit_UniqueId": "83a586d2-70d1-46f5-a19f-b7b2ff6eaee5-0053d54a", 
        "interactive": false
      }
    }, 
    {
      "type": "Feature", 
      "geometry": {
        "type": "Point", 
        "coordinates": [
          -95.574117995323448, 
          42.758588807386424
        ]
      }, 
      "properties": {
        "Name": "Stair", 
        "Element": "Stair", 
        "Level": "BASEMENT", 
        "Type": "Stair", 
        "RevitId": 5494294, 
        "Family": "Assembled Stair", 
        "kind": "stair", 
        "Revit_UniqueId": "83a586d2-70d1-46f5-a19f-b7b2ff6eaee5-0053d616", 
        "interactive": false
      }
    }, 
    {
      "type": "Feature", 
      "geometry": {
        "type": "Point", 
        "coordinates": [
          -95.574195169848551, 
          42.758652491732647
        ]
      }, 
      "properties": {
        "Name": "Stair", 
        "Element": "Stair", 
        "Level": "BASEMENT", 
        "Type": "Stair", 
        "RevitId": 5491182, 
        "Family": "Non-Monolithic Run", 
        "kind": "stair", 
        "Revit_UniqueId": "83a586d2-70d1-46f5-a19f-b7b2ff6eaee5-0053c9ee", 
        "interactive": false
      }
    }, 
    {
      "type": "Feature", 
      "geometry": {
        "type": "Point", 
        "coordinates": [
          -95.574209513114624, 
          42.758652205560480
        ]
      }, 
      "properties": {
        "Name": "Stair", 
        "Element": "Stair", 
        "Level": "BASEMENT", 
        "Type": "Stair", 
        "RevitId": 5491186, 
        "Family": "Non-Monolithic Run", 
        "kind": "stair", 
        "Revit_UniqueId": "83a586d2-70d1-46f5-a19f-b7b2ff6eaee5-0053c9f2", 
        "interactive": false
      }
    }, 
    {
      "type": "Feature", 
      "geometry": {
        "type": "Point", 
        "coordinates": [
          -95.574040880503929, 
          42.758652491732647
        ]
      }, 
      "properties": {
        "Name": "Stair", 
        "Element": "Stair", 
        "Level": "BASEMENT", 
        "Type": "Stair", 
        "RevitId": 5491213, 
        "Family": "Non-Monolithic Run", 
        "kind": "stair", 
        "Revit_UniqueId": "83a586d2-70d1-46f5-a19f-b7b2ff6eaee5-0053ca0d", 
        "interactive": false
      }
    }, 
    {
      "type": "Feature", 
      "geometry": {
        "type": "Point", 
        "coordinates": [
          -95.574055223770017, 
          42.758652205560480
        ]
      }, 
      "properties": {
        "Name": "Stair", 
        "Element": "Stair", 
        "Level": "BASEMENT", 
        "Type": "Stair", 
        "RevitId": 5491217, 
        "Family": "Non-Monolithic Run", 
        "kind": "stair", 
        "Revit_UniqueId": "83a586d2-70d1-46f5-a19f-b7b2ff6eaee5-0053ca11", 
        "interactive": false
      }
    }, 
    {
      "type": "Feature", 
      "geometry": {
        "type": "Point", 
        "coordinates": [
          -95.574138886602313, 
          42.758523332497411
        ]
      }, 
      "properties": {
        "Name": "Stair", 
        "Element": "Stair", 
        "Level": "BASEMENT", 
        "Type": "Stair", 
        "RevitId": 5492424, 
        "Family": "Non-Monolithic Run", 
        "kind": "stair", 
        "Revit_UniqueId": "83a586d2-70d1-46f5-a19f-b7b2ff6eaee5-0053cec8", 
        "interactive": false
      }
    }, 
    {
      "type": "Feature", 
      "geometry": {
        "type": "Point", 
        "coordinates": [
          -95.574133476638323, 
          42.758588950472500
        ]
      }, 
      "properties": {
        "Name": "Stair", 
        "Element": "Stair", 
        "Level": "BASEMENT", 
        "Type": "Stair", 
        "RevitId": 5494134, 
        "Family": "Non-Monolithic Run", 
        "kind": "stair", 
        "Revit_UniqueId": "83a586d2-70d1-46f5-a19f-b7b2ff6eaee5-0053d576", 
        "interactive": false
      }
    }, 
    {
      "type": "Feature", 
      "geometry": {
        "type": "Point", 
        "coordinates": [
          -95.574124543336225, 
          42.758573697496317
        ]
      }, 
      "properties": {
        "Name": "Stair", 
        "Element": "Stair", 
        "Level": "BASEMENT", 
        "Type": "Stair", 
        "RevitId": 5494295, 
        "Family": "Non-Monolithic Run", 
        "kind": "stair", 
        "Revit_UniqueId": "83a586d2-70d1-46f5-a19f-b7b2ff6eaee5-0053d617", 
        "interactive": false
      }
    }, 
    {
      "type": "Feature", 
      "geometry": {
        "type": "Point", 
        "coordinates": [
          -95.574202341481595, 
          42.758669887886761
        ]
      }, 
      "properties": {
        "Name": "Stair", 
        "Element": "Stair", 
        "Level": "BASEMENT", 
        "Type": "Stair", 
        "RevitId": 5491188, 
        "Family": "Non-Monolithic Landing", 
        "kind": "stair", 
        "Revit_UniqueId": "83a586d2-70d1-46f5-a19f-b7b2ff6eaee5-0053c9f4", 
        "interactive": false
      }
    }, 
    {
      "type": "Feature", 
      "geometry": {
        "type": "Point", 
        "coordinates": [
          -95.574048052136973, 
          42.758669887886761
        ]
      }, 
      "properties": {
        "Name": "Stair", 
        "Element": "Stair", 
        "Level": "BASEMENT", 
        "Type": "Stair", 
        "RevitId": 5491219, 
        "Family": "Non-Monolithic Landing", 
        "kind": "stair", 
        "Revit_UniqueId": "83a586d2-70d1-46f5-a19f-b7b2ff6eaee5-0053ca13", 
        "interactive": false
      }
    }, 
    {
      "type": "Feature", 
      "geometry": {
        "type": "Point", 
        "coordinates": [
          -95.574138886602313, 
          42.758540960702540
        ]
      }, 
      "properties": {
        "Name": "Stair", 
        "Element": "Stair", 
        "Level": "BASEMENT", 
        "Type": "Stair", 
        "RevitId": 5492676, 
        "Family": "Non-Monolithic Landing", 
        "kind": "stair", 
        "Revit_UniqueId": "83a586d2-70d1-46f5-a19f-b7b2ff6eaee5-0053cfc4", 
        "interactive": false
      }
    }
  ], 
  "name": "738001_Cherokee MH_Wirth Hall - BASEMENT Stairs"
}