{
  "features": [
    {
      "properties": {
        "interactive": false, 
        "Name": "Stair", 
        "Family": "Assembled Stair", 
        "Level": "LEVEL 1", 
        "Element": "Stair", 
        "Type": "Stair", 
        "kind": "stair", 
        "RevitId": 5472062, 
        "Revit_UniqueId": "162ae29c-8511-41cf-979f-a659d04cfabf-00537f3e"
      }, 
      "type": "Feature", 
      "geometry": {
        "type": "Point", 
        "coordinates": [
          254.15859801802128, 
          -117.23872769215383
        ]
      }
    }, 
    {
      "properties": {
        "interactive": false, 
        "Name": "Stair", 
        "Family": "Non-Monolithic Run", 
        "Level": "LEVEL 1", 
        "Element": "Stair", 
        "Type": "Stair", 
        "kind": "stair", 
        "RevitId": 5472093, 
        "Revit_UniqueId": "162ae29c-8511-41cf-979f-a659d04cfabf-00537f5d"
      }, 
      "type": "Feature", 
      "geometry": {
        "type": "Point", 
        "coordinates": [
          254.15859801802128, 
          -117.24792009605049
        ]
      }
    }
  ], 
  "type": "FeatureCollection", 
  "name": "633004_SarpyMP Sheriff's Office_R26 - LEVEL 1 Stairs"
}