{"type":"FeatureCollection","name":"633004_SarpyMP Vehicle Maintenance Bldg_R26 - LEVEL 1","features":[{"properties":{"Revit_UniqueId":"4c0c5afb-151a-45d4-9ad5-42ac155b6965-00522806","Element":"Room","Workstations":"","Area_SF":12044.13,"Number":"001","RevitId":5384198,"NCES_Type":"Maintenance Shop","NCES_Department":"Fleet Vehicle Maintenance","NCES_Occupancy Status":"","Name":"MAINTENANCE BAYS","Seat Count":"","occupancyStatus":"Occupied","Level":"LEVEL 1"},"type":"Feature","geometry":{"type":"Polygon","coordinates":[[[-96.044001,41.089446],[-96.043541,41.089446],[-96.043541,41.089485],[-96.043514,41.089485],[-96.043504,41.089485],[-96.043504,41.089497],[-96.043504,41.08953],[-96.043504,41.089562],[-96.043544,41.089562],[-96.043544,41.089585],[-96.043544,41.089665],[-96.043544,41.089697],[-96.043544,41.08972],[-96.04391,41.08972],[-96.04391,41.089658],[-96.044001,41.089658],[-96.044001,41.089446]]]}},{"properties":{"Revit_UniqueId":"4c0c5afb-151a-45d4-9ad5-42ac155b6965-0052280d","Element":"Room","Workstations":"","Area_SF":531.59,"Number":"002","RevitId":5384205,"NCES_Type":"Parts/Tool Storage","NCES_Department":"Fleet Vehicle Maintenance","NCES_Occupancy Status":"","Name":"PARTS CAGE","Seat Count":"","occupancyStatus":"Occupied","Level":"LEVEL 1"},"type":"Feature","geometry":{"type":"Polygon","coordinates":[[[-96.04391,41.08972],[-96.044001,41.08972],[-96.044001,41.089658],[-96.04391,41.089658],[-96.04391,41.08972]]]}},{"properties":{"Revit_UniqueId":"4c0c5afb-151a-45d4-9ad5-42ac155b6965-00522815","Element":"Room","Workstations":"","Area_SF":102.34,"Number":"003","RevitId":5384213,"NCES_Type":"Mens Restroom","NCES_Department":"Fleet Vehicle Maintenance","NCES_Occupancy Status":"","Name":"MENS","Seat Count":"","occupancyStatus":"Occupied","Level":"LEVEL 1"},"type":"Feature","geometry":{"type":"Polygon","coordinates":[[[-96.043491,41.08972],[-96.043544,41.08972],[-96.043544,41.089697],[-96.043491,41.089697],[-96.043491,41.08972]]]}},{"properties":{"Revit_UniqueId":"4c0c5afb-151a-45d4-9ad5-42ac155b6965-00522818","Element":"Room","Workstations":"","Area_SF":71.29,"Number":"004","RevitId":5384216,"NCES_Type":"Womens Restroom","NCES_Department":"Fleet Vehicle Maintenance","NCES_Occupancy Status":"","Name":"WOMENS","Seat Count":"","occupancyStatus":"Occupied","Level":"LEVEL 1"},"type":"Feature","geometry":{"type":"Polygon","coordinates":[[[-96.043454,41.08972],[-96.043491,41.08972],[-96.043491,41.089697],[-96.043454,41.089697],[-96.043454,41.0897],[-96.043454,41.08972]]]}},{"properties":{"Revit_UniqueId":"4c0c5afb-151a-45d4-9ad5-42ac155b6965-0052281b","Element":"Room","Workstations":"","Area_SF":128.45,"Number":"005","RevitId":5384219,"NCES_Type":"Lobby/Reception","NCES_Department":"Fleet Vehicle Maintenance","NCES_Occupancy Status":"","Name":"LOBBY/VEST","Seat Count":"","occupancyStatus":"Occupied","Level":"LEVEL 1"},"type":"Feature","geometry":{"type":"Polygon","coordinates":[[[-96.043379,41.08972],[-96.043454,41.08972],[-96.043454,41.0897],[-96.04343,41.0897],[-96.043428,41.0897],[-96.043379,41.0897],[-96.043379,41.08972]]]}},{"properties":{"Revit_UniqueId":"4c0c5afb-151a-45d4-9ad5-42ac155b6965-0052281e","Element":"Room","Workstations":"1","Area_SF":120.86,"Number":"006","RevitId":5384222,"NCES_Type":"Private Office - Enclosed","NCES_Department":"Fleet Vehicle Maintenance","NCES_Occupancy Status":"","Name":"CHIEF DEPUTY OFFICE","Seat Count":"","occupancyStatus":"Occupied","Level":"LEVEL 1"},"type":"Feature","geometry":{"type":"Polygon","coordinates":[[[-96.043331,41.08972],[-96.043379,41.08972],[-96.043379,41.0897],[-96.043379,41.089691],[-96.043331,41.089691],[-96.043331,41.08972]]]}},{"properties":{"Revit_UniqueId":"4c0c5afb-151a-45d4-9ad5-42ac155b6965-00522821","Element":"Room","Workstations":"1","Area_SF":130.82,"Number":"007","RevitId":5384225,"NCES_Type":"Private Office - Enclosed","NCES_Department":"Fleet Vehicle Maintenance","NCES_Occupancy Status":"","Name":"CNTY ENGINEER OFFICE","Seat Count":"","occupancyStatus":"Occupied","Level":"LEVEL 1"},"type":"Feature","geometry":{"type":"Polygon","coordinates":[[[-96.043273,41.089696],[-96.043273,41.08972],[-96.043331,41.08972],[-96.043331,41.089691],[-96.043312,41.089691],[-96.043301,41.089691],[-96.043301,41.089696],[-96.043273,41.089696]]]}},{"properties":{"Revit_UniqueId":"4c0c5afb-151a-45d4-9ad5-42ac155b6965-00522824","Element":"Room","Workstations":"1","Area_SF":115.5,"Number":"008","RevitId":5384228,"NCES_Type":"Private Office - Enclosed","NCES_Department":"Fleet Vehicle Maintenance","NCES_Occupancy Status":"","Name":"OFFICE","Seat Count":"","occupancyStatus":"Occupied","Level":"LEVEL 1"},"type":"Feature","geometry":{"type":"Polygon","coordinates":[[[-96.043273,41.089662],[-96.043273,41.089696],[-96.043301,41.089696],[-96.043301,41.089691],[-96.043312,41.089691],[-96.043312,41.089662],[-96.043273,41.089662]]]}},{"properties":{"Revit_UniqueId":"4c0c5afb-151a-45d4-9ad5-42ac155b6965-00522827","Element":"Room","Workstations":"1","Area_SF":108.45,"Number":"009","RevitId":5384231,"NCES_Type":"Private Office - Enclosed","NCES_Department":"Fleet Vehicle Maintenance","NCES_Occupancy Status":"","Name":"OFFICE","Seat Count":"","occupancyStatus":"Occupied","Level":"LEVEL 1"},"type":"Feature","geometry":{"type":"Polygon","coordinates":[[[-96.043273,41.08963],[-96.043273,41.089662],[-96.043312,41.089662],[-96.043312,41.08963],[-96.043273,41.08963]]]}},{"properties":{"Revit_UniqueId":"4c0c5afb-151a-45d4-9ad5-42ac155b6965-0052282a","Element":"Room","Workstations":"1","Area_SF":102.58,"Number":"010","RevitId":5384234,"NCES_Type":"Private Office - Enclosed","NCES_Department":"Fleet Vehicle Maintenance","NCES_Occupancy Status":"","Name":"OFFICE","Seat Count":"","occupancyStatus":"Occupied","Level":"LEVEL 1"},"type":"Feature","geometry":{"type":"Polygon","coordinates":[[[-96.043273,41.089601],[-96.043273,41.08963],[-96.043312,41.08963],[-96.043312,41.089601],[-96.043273,41.089601]]]}},{"properties":{"Revit_UniqueId":"4c0c5afb-151a-45d4-9ad5-42ac155b6965-0052282d","Element":"Room","Workstations":"1","Area_SF":101.61,"Number":"011","RevitId":5384237,"NCES_Type":"Private Office - Enclosed","NCES_Department":"Fleet Vehicle Maintenance","NCES_Occupancy Status":"","Name":"OFFICE","Seat Count":"","occupancyStatus":"Occupied","Level":"LEVEL 1"},"type":"Feature","geometry":{"type":"Polygon","coordinates":[[[-96.043364,41.089585],[-96.043351,41.089585],[-96.043327,41.089585],[-96.043327,41.089616],[-96.043364,41.089616],[-96.043364,41.089585]]]}},{"properties":{"Revit_UniqueId":"4c0c5afb-151a-45d4-9ad5-42ac155b6965-0052283c","Element":"Room","Workstations":"1","Area_SF":101.57,"Number":"012","RevitId":5384252,"NCES_Type":"Private Office - Enclosed","NCES_Department":"Fleet Vehicle Maintenance","NCES_Occupancy Status":"","Name":"OFFICE","Seat Count":"","occupancyStatus":"Occupied","Level":"LEVEL 1"},"type":"Feature","geometry":{"type":"Polygon","coordinates":[[[-96.0434,41.089585],[-96.043364,41.089585],[-96.043364,41.089616],[-96.0434,41.089616],[-96.0434,41.089585]]]}},{"properties":{"Revit_UniqueId":"4c0c5afb-151a-45d4-9ad5-42ac155b6965-0052283f","Element":"Room","Workstations":"1","Area_SF":102.56,"Number":"013","RevitId":5384255,"NCES_Type":"Private Office - Enclosed","NCES_Department":"Fleet Vehicle Maintenance","NCES_Occupancy Status":"","Name":"OFFICE","Seat Count":"","occupancyStatus":"Occupied","Level":"LEVEL 1"},"type":"Feature","geometry":{"type":"Polygon","coordinates":[[[-96.043437,41.089585],[-96.0434,41.089585],[-96.0434,41.089616],[-96.043437,41.089616],[-96.043437,41.089607],[-96.043437,41.089585]]]}},{"properties":{"Revit_UniqueId":"4c0c5afb-151a-45d4-9ad5-42ac155b6965-00522842","Element":"Room","Workstations":"2","Area_SF":203.05,"Number":"014","RevitId":5384258,"NCES_Type":"Open Office - Workstations","NCES_Department":"Fleet Vehicle Maintenance","NCES_Occupancy Status":"","Name":"OPEN OFFICE SPACE","Seat Count":"","occupancyStatus":"Occupied","Level":"LEVEL 1"},"type":"Feature","geometry":{"type":"Polygon","coordinates":[[[-96.043437,41.089667],[-96.043437,41.089634],[-96.043374,41.089634],[-96.043374,41.089667],[-96.043437,41.089667]]]}},{"properties":{"Revit_UniqueId":"4c0c5afb-151a-45d4-9ad5-42ac155b6965-00522845","Element":"Room","Workstations":"","Area_SF":685.17,"Number":"015","RevitId":5384261,"NCES_Type":"Break Room","NCES_Department":"Fleet Vehicle Maintenance","NCES_Occupancy Status":"","Name":"BREAK ROOM","Seat Count":"12-20","occupancyStatus":"Occupied","Level":"LEVEL 1"},"type":"Feature","geometry":{"type":"Polygon","coordinates":[[[-96.043544,41.089665],[-96.043544,41.089585],[-96.043495,41.089585],[-96.043454,41.089585],[-96.043454,41.089607],[-96.043454,41.089665],[-96.043524,41.089665],[-96.043544,41.089665]]]}},{"properties":{"Revit_UniqueId":"4c0c5afb-151a-45d4-9ad5-42ac155b6965-00522848","Element":"Room","Workstations":"","Area_SF":31.99,"Number":"016","RevitId":5384264,"NCES_Type":"IT/Telecom Room","NCES_Department":"Fleet Vehicle Maintenance","NCES_Occupancy Status":"","Name":"DATA","Seat Count":"","occupancyStatus":"Occupied","Level":"LEVEL 1"},"type":"Feature","geometry":{"type":"Polygon","coordinates":[[[-96.043454,41.089585],[-96.043437,41.089585],[-96.043437,41.089607],[-96.043454,41.089607],[-96.043454,41.089585]]]}},{"properties":{"Revit_UniqueId":"4c0c5afb-151a-45d4-9ad5-42ac155b6965-0052284b","Element":"Room","Workstations":"","Area_SF":110.61,"Number":"017","RevitId":5384267,"NCES_Type":"General Storage","NCES_Department":"Fleet Vehicle Maintenance","NCES_Occupancy Status":"","Name":"STORAGE","Seat Count":"","occupancyStatus":"Occupied","Level":"LEVEL 1"},"type":"Feature","geometry":{"type":"Polygon","coordinates":[[[-96.043454,41.089665],[-96.043454,41.089679],[-96.043454,41.089682],[-96.043524,41.089682],[-96.043524,41.089665],[-96.043454,41.089665]]]}},{"properties":{"Revit_UniqueId":"4c0c5afb-151a-45d4-9ad5-42ac155b6965-0052284e","Element":"Room","Workstations":"","Area_SF":244.46,"Number":"018","RevitId":5384270,"NCES_Type":"Copy/Print/Mail Area","NCES_Department":"Fleet Vehicle Maintenance","NCES_Occupancy Status":"","Name":"PRINTER/STOR","Seat Count":"","occupancyStatus":"Occupied","Level":"LEVEL 1"},"type":"Feature","geometry":{"type":"Polygon","coordinates":[[[-96.043273,41.089512],[-96.043273,41.089566],[-96.043279,41.089566],[-96.043279,41.089585],[-96.043311,41.089585],[-96.043311,41.089512],[-96.043299,41.089512],[-96.043273,41.089512]]]}},{"properties":{"Revit_UniqueId":"4c0c5afb-151a-45d4-9ad5-42ac155b6965-00522851","Element":"Room","Workstations":"","Area_SF":219.13,"Number":"019","RevitId":5384273,"NCES_Type":"Conference Room","NCES_Department":"Fleet Vehicle Maintenance","NCES_Occupancy Status":"","Name":"CONF ROOM","Seat Count":"8","occupancyStatus":"Occupied","Level":"LEVEL 1"},"type":"Feature","geometry":{"type":"Polygon","coordinates":[[[-96.043316,41.089446],[-96.043273,41.089446],[-96.043273,41.089502],[-96.043299,41.089502],[-96.043316,41.089502],[-96.043316,41.089488],[-96.043316,41.089477],[-96.043316,41.089446]]]}},{"properties":{"Revit_UniqueId":"4c0c5afb-151a-45d4-9ad5-42ac155b6965-00522854","Element":"Room","Workstations":"","Area_SF":108.66,"Number":"020","RevitId":5384276,"NCES_Type":"Mechanical Room","NCES_Department":"Fleet Vehicle Maintenance","NCES_Occupancy Status":"","Name":"MECH","Seat Count":"","occupancyStatus":"Occupied","Level":"LEVEL 1"},"type":"Feature","geometry":{"type":"Polygon","coordinates":[[[-96.04341,41.089446],[-96.043402,41.089446],[-96.043316,41.089446],[-96.043316,41.089477],[-96.043324,41.089477],[-96.04335,41.089477],[-96.04335,41.089451],[-96.04341,41.089451],[-96.04341,41.089446]]]}},{"properties":{"Revit_UniqueId":"4c0c5afb-151a-45d4-9ad5-42ac155b6965-00522857","Element":"Room","Workstations":"2","Area_SF":142.6,"Number":"021","RevitId":5384279,"NCES_Type":"Shared Office - Enclosed","NCES_Department":"Fleet Vehicle Maintenance","NCES_Occupancy Status":"","Name":"HWY OFFICE","Seat Count":"","occupancyStatus":"Occupied","Level":"LEVEL 1"},"type":"Feature","geometry":{"type":"Polygon","coordinates":[[[-96.04341,41.089477],[-96.04341,41.089451],[-96.04335,41.089451],[-96.04335,41.089477],[-96.04341,41.089477]]]}},{"properties":{"Revit_UniqueId":"4c0c5afb-151a-45d4-9ad5-42ac155b6965-0052285a","Element":"Room","Workstations":"1","Area_SF":119.58,"Number":"022","RevitId":5384282,"NCES_Type":"Private Office - Enclosed","NCES_Department":"Fleet Vehicle Maintenance","NCES_Occupancy Status":"","Name":"FLEET ADMIN. ASST.","Seat Count":"","occupancyStatus":"Occupied","Level":"LEVEL 1"},"type":"Feature","geometry":{"type":"Polygon","coordinates":[[[-96.043453,41.089446],[-96.043433,41.089446],[-96.043426,41.089446],[-96.043426,41.089485],[-96.043463,41.089485],[-96.043463,41.089454],[-96.043453,41.089454],[-96.043453,41.089446]]]}},{"properties":{"Revit_UniqueId":"4c0c5afb-151a-45d4-9ad5-42ac155b6965-0052285d","Element":"Room","Workstations":"1","Area_SF":268.81,"Number":"023","RevitId":5384285,"NCES_Type":"Private Office - Enclosed","NCES_Department":"Fleet Vehicle Maintenance","NCES_Occupancy Status":"","Name":"OFFICE","Seat Count":"","occupancyStatus":"Occupied","Level":"LEVEL 1"},"type":"Feature","geometry":{"type":"Polygon","coordinates":[[[-96.043541,41.089446],[-96.043463,41.089446],[-96.043463,41.089454],[-96.043463,41.089485],[-96.043504,41.089485],[-96.043504,41.089477],[-96.043514,41.089477],[-96.043514,41.089485],[-96.043541,41.089485],[-96.043541,41.089446]]]}},{"properties":{"Revit_UniqueId":"4c0c5afb-151a-45d4-9ad5-42ac155b6965-00522860","Element":"Room","Workstations":"1","Area_SF":107.3,"Number":"024","RevitId":5384288,"NCES_Type":"Vehicle Service/Fueling Support","NCES_Department":"Fleet Vehicle Maintenance","NCES_Occupancy Status":"","Name":"FLEET SERVICE","Seat Count":"","occupancyStatus":"Occupied","Level":"LEVEL 1"},"type":"Feature","geometry":{"type":"Polygon","coordinates":[[[-96.043504,41.089497],[-96.043468,41.089497],[-96.043468,41.089512],[-96.043468,41.08953],[-96.043504,41.08953],[-96.043504,41.089497]]]}},{"properties":{"Revit_UniqueId":"4c0c5afb-151a-45d4-9ad5-42ac155b6965-00522863","Element":"Room","Workstations":"","Area_SF":38.32,"Number":"025","RevitId":5384291,"NCES_Type":"General Storage","NCES_Department":"Fleet Vehicle Maintenance","NCES_Occupancy Status":"","Name":"STORAGE","Seat Count":"","occupancyStatus":"Occupied","Level":"LEVEL 1"},"type":"Feature","geometry":{"type":"Polygon","coordinates":[[[-96.043468,41.089497],[-96.043437,41.089497],[-96.043437,41.089512],[-96.043468,41.089512],[-96.043468,41.089497]]]}},{"properties":{"Revit_UniqueId":"4c0c5afb-151a-45d4-9ad5-42ac155b6965-00522866","Element":"Room","Workstations":"","Area_SF":1308.36,"Number":"026","RevitId":5384294,"NCES_Type":"Parts/Tool Storage","NCES_Department":"Fleet Vehicle Maintenance","NCES_Occupancy Status":"","Name":"PARTS ROOM","Seat Count":"","occupancyStatus":"Occupied","Level":"LEVEL 1"},"type":"Feature","geometry":{"type":"Polygon","coordinates":[[[-96.043495,41.089562],[-96.043504,41.089562],[-96.043504,41.08953],[-96.043468,41.08953],[-96.043468,41.089512],[-96.043437,41.089512],[-96.043437,41.089497],[-96.043426,41.089497],[-96.04341,41.089497],[-96.04341,41.08949],[-96.04335,41.08949],[-96.043339,41.08949],[-96.043339,41.089523],[-96.043323,41.089523],[-96.043323,41.089559],[-96.043351,41.089559],[-96.043351,41.089585],[-96.043364,41.089585],[-96.0434,41.089585],[-96.043437,41.089585],[-96.043454,41.089585],[-96.043495,41.089585],[-96.043495,41.089562]]]}},{"properties":{"Revit_UniqueId":"4c0c5afb-151a-45d4-9ad5-42ac155b6965-00522869","Element":"Room","Workstations":"","Area_SF":63.79,"Number":"027","RevitId":5384297,"NCES_Type":"File Room - Active","NCES_Department":"Fleet Vehicle Maintenance","NCES_Occupancy Status":"","Name":"FILES","Seat Count":"","occupancyStatus":"Occupied","Level":"LEVEL 1"},"type":"Feature","geometry":{"type":"Polygon","coordinates":[[[-96.043327,41.089585],[-96.043351,41.089585],[-96.043351,41.089559],[-96.043323,41.089559],[-96.043323,41.089585],[-96.043327,41.089585]]]}},{"properties":{"Revit_UniqueId":"4c0c5afb-151a-45d4-9ad5-42ac155b6965-0052286c","Element":"Room","Workstations":"1","Area_SF":99.92,"Number":"028","RevitId":5384300,"NCES_Type":"Private Office - Enclosed","NCES_Department":"Fleet Vehicle Maintenance","NCES_Occupancy Status":"","Name":"FLEET OFFICE","Seat Count":"","occupancyStatus":"Occupied","Level":"LEVEL 1"},"type":"Feature","geometry":{"type":"Polygon","coordinates":[[[-96.043544,41.089585],[-96.043544,41.089562],[-96.043504,41.089562],[-96.043495,41.089562],[-96.043495,41.089585],[-96.043544,41.089585]]]}},{"properties":{"Revit_UniqueId":"4c0c5afb-151a-45d4-9ad5-42ac155b6965-005229ae","Element":"Room","Workstations":"","Area_SF":45.92,"Number":"029","RevitId":5384622,"NCES_Type":"Lobby/Reception","NCES_Department":"Fleet Vehicle Maintenance","NCES_Occupancy Status":"","Name":"SECURE LOBBY","Seat Count":"","occupancyStatus":"Occupied","Level":"LEVEL 1"},"type":"Feature","geometry":{"type":"Polygon","coordinates":[[[-96.043454,41.089682],[-96.043454,41.089679],[-96.043429,41.089679],[-96.043429,41.0897],[-96.043454,41.0897],[-96.043454,41.089697],[-96.043454,41.089682]]]}},{"properties":{"Revit_UniqueId":"235cfeec-823a-438e-9b6a-43c758aecbfa-0052607e","Element":"Room","Workstations":"3","Area_SF":208.37,"Number":"1","RevitId":5398654,"NCES_Type":"Open Office - Workstations","NCES_Department":"Fleet Vehicle Maintenance","NCES_Occupancy Status":"","Name":"OPEN OFFICE SPACE","Seat Count":"","occupancyStatus":"Occupied","Level":"LEVEL 1"},"type":"Feature","geometry":{"type":"Polygon","coordinates":[[[-96.043374,41.089667],[-96.043374,41.089634],[-96.043326,41.089634],[-96.043326,41.089656],[-96.043326,41.089667],[-96.043326,41.089667],[-96.043326,41.089681],[-96.043342,41.089681],[-96.043368,41.089681],[-96.043368,41.089678],[-96.043368,41.089667],[-96.043374,41.089667]]]}},{"properties":{"Revit_UniqueId":"235cfeec-823a-438e-9b6a-43c758aecbfa-00527798","Element":"Room","Workstations":"1","Area_SF":97.17,"Number":"2","RevitId":5404568,"NCES_Type":"Open Office - Cubicles","NCES_Department":"Fleet Vehicle Maintenance","NCES_Occupancy Status":"","Name":"OFFICE","Seat Count":"","occupancyStatus":"Occupied","Level":"LEVEL 1"},"type":"Feature","geometry":{"type":"Polygon","coordinates":[[[-96.043429,41.089679],[-96.043379,41.089679],[-96.043379,41.089691],[-96.043379,41.0897],[-96.043429,41.0897],[-96.043429,41.089679]]]}},{"properties":{"Revit_UniqueId":"235cfeec-823a-438e-9b6a-43c758aecbfa-005277f4","Element":"Room","Workstations":"","Area_SF":29.04,"Number":"3","RevitId":5404660,"NCES_Type":"Waiting/Queue Area","NCES_Department":"Fleet Vehicle Maintenance","NCES_Occupancy Status":"","Name":"VESTIBULE","Seat Count":"","occupancyStatus":"Occupied","Level":"LEVEL 1"},"type":"Feature","geometry":{"type":"Polygon","coordinates":[[[-96.043426,41.089446],[-96.043433,41.089446],[-96.043433,41.089433],[-96.043424,41.089433],[-96.043412,41.089433],[-96.043402,41.089433],[-96.043402,41.089446],[-96.04341,41.089446],[-96.043426,41.089446]]]}},{"properties":{"Revit_UniqueId":"47097001-724b-4ad1-b943-680f13da0c75-0052788d","Element":"Room","Workstations":"","Area_SF":622.86,"Number":"4","RevitId":5404813,"NCES_Type":"Corridor/Hallway","NCES_Department":"Fleet Vehicle Maintenance","NCES_Occupancy Status":"","Name":"CORRIDOR","Seat Count":"","occupancyStatus":"Occupied","Level":"LEVEL 1"},"type":"Feature","geometry":{"type":"MultiPolygon","coordinates":[[[[-96.043273,41.089585],[-96.043273,41.089601],[-96.043312,41.089601],[-96.043312,41.08963],[-96.043312,41.089662],[-96.043312,41.089691],[-96.043331,41.089691],[-96.043379,41.089691],[-96.043379,41.089679],[-96.043429,41.089679],[-96.043454,41.089679],[-96.043454,41.089665],[-96.043454,41.089607],[-96.043437,41.089607],[-96.043437,41.089616],[-96.0434,41.089616],[-96.043364,41.089616],[-96.043327,41.089616],[-96.043327,41.089585],[-96.043323,41.089585],[-96.043311,41.089585],[-96.043279,41.089585],[-96.043273,41.089585]]],[[[-96.043437,41.089634],[-96.043437,41.089667],[-96.043374,41.089667],[-96.043368,41.089667],[-96.043368,41.089678],[-96.043368,41.089681],[-96.043342,41.089681],[-96.043328,41.089681],[-96.043326,41.089681],[-96.043326,41.089679],[-96.043326,41.089667],[-96.043326,41.089667],[-96.043326,41.089656],[-96.043326,41.089634],[-96.043374,41.089634],[-96.043437,41.089634]]]]}},{"properties":{"Revit_UniqueId":"47097001-724b-4ad1-b943-680f13da0c75-00527890","Element":"Room","Workstations":"","Area_SF":67.15,"Number":"5","RevitId":5404816,"NCES_Type":"Corridor/Hallway","NCES_Department":"Fleet Vehicle Maintenance","NCES_Occupancy Status":"","Name":"HALLWAY","Seat Count":"","occupancyStatus":"Occupied","Level":"LEVEL 1"},"type":"Feature","geometry":{"type":"Polygon","coordinates":[[[-96.04335,41.08949],[-96.04341,41.08949],[-96.04341,41.089477],[-96.04335,41.089477],[-96.04335,41.08949]]]}},{"properties":{"Revit_UniqueId":"47097001-724b-4ad1-b943-680f13da0c75-00527893","Element":"Room","Workstations":"","Area_SF":84.91,"Number":"6","RevitId":5404819,"NCES_Type":"Corridor/Hallway","NCES_Department":"Fleet Vehicle Maintenance","NCES_Occupancy Status":"","Name":"HALLWAY","Seat Count":"","occupancyStatus":"Occupied","Level":"LEVEL 1"},"type":"Feature","geometry":{"type":"Polygon","coordinates":[[[-96.043426,41.089497],[-96.043437,41.089497],[-96.043468,41.089497],[-96.043504,41.089497],[-96.043504,41.089485],[-96.043463,41.089485],[-96.043426,41.089485],[-96.043426,41.089497]]]}},{"properties":{"Revit_UniqueId":"47097001-724b-4ad1-b943-680f13da0c75-00527896","Element":"Room","Workstations":"","Area_SF":71.03,"Number":"7","RevitId":5404822,"NCES_Type":"Corridor/Hallway","NCES_Department":"Fleet Vehicle Maintenance","NCES_Occupancy Status":"","Name":"HALLWAY","Seat Count":"","occupancyStatus":"Occupied","Level":"LEVEL 1"},"type":"Feature","geometry":{"type":"Polygon","coordinates":[[[-96.043426,41.089446],[-96.04341,41.089446],[-96.04341,41.089451],[-96.04341,41.089477],[-96.04341,41.08949],[-96.04341,41.089497],[-96.043426,41.089497],[-96.043426,41.089485],[-96.043426,41.089446]]]}},{"properties":{"Revit_UniqueId":"47097001-724b-4ad1-b943-680f13da0c75-00527899","Element":"Room","Workstations":"","Area_SF":87.1,"Number":"8","RevitId":5404825,"NCES_Type":"Corridor/Hallway","NCES_Department":"Fleet Vehicle Maintenance","NCES_Occupancy Status":"","Name":"HALLWAY","Seat Count":"","occupancyStatus":"Occupied","Level":"LEVEL 1"},"type":"Feature","geometry":{"type":"Polygon","coordinates":[[[-96.043323,41.089512],[-96.043323,41.089523],[-96.043339,41.089523],[-96.043339,41.08949],[-96.04335,41.08949],[-96.04335,41.089477],[-96.043324,41.089477],[-96.043324,41.089488],[-96.043316,41.089488],[-96.043316,41.089502],[-96.043318,41.089502],[-96.043318,41.089512],[-96.043323,41.089512]]]}},{"properties":{"Revit_UniqueId":"47097001-724b-4ad1-b943-680f13da0c75-0052789c","Element":"Room","Workstations":"","Area_SF":72.63,"Number":"9","RevitId":5404828,"NCES_Type":"Corridor/Hallway","NCES_Department":"Fleet Vehicle Maintenance","NCES_Occupancy Status":"","Name":"HALLWAY","Seat Count":"","occupancyStatus":"Occupied","Level":"LEVEL 1"},"type":"Feature","geometry":{"type":"Polygon","coordinates":[[[-96.043311,41.089585],[-96.043323,41.089585],[-96.043323,41.089559],[-96.043323,41.089523],[-96.043323,41.089512],[-96.043318,41.089512],[-96.043311,41.089512],[-96.043311,41.089585]]]}},{"properties":{"Revit_UniqueId":"47097001-724b-4ad1-b943-680f13da0c75-0052789f","Element":"Room","Workstations":"","Area_SF":14.48,"Number":"10","RevitId":5404831,"NCES_Type":"General Storage","NCES_Department":"Fleet Vehicle Maintenance","NCES_Occupancy Status":"","Name":"STOR","Seat Count":"","occupancyStatus":"Occupied","Level":"LEVEL 1"},"type":"Feature","geometry":{"type":"Polygon","coordinates":[[[-96.043311,41.089512],[-96.043318,41.089512],[-96.043318,41.089502],[-96.043316,41.089502],[-96.043299,41.089502],[-96.043299,41.089512],[-96.043311,41.089512]]]}},{"properties":{"Revit_UniqueId":"47097001-724b-4ad1-b943-680f13da0c75-005278a2","Element":"Room","Workstations":"","Area_SF":18.95,"Number":"11","RevitId":5404834,"NCES_Type":"General Storage","NCES_Department":"Fleet Vehicle Maintenance","NCES_Occupancy Status":"","Name":"STOR","Seat Count":"","occupancyStatus":"Occupied","Level":"LEVEL 1"},"type":"Feature","geometry":{"type":"Polygon","coordinates":[[[-96.043273,41.089502],[-96.043273,41.089512],[-96.043299,41.089512],[-96.043299,41.089502],[-96.043273,41.089502]]]}},{"properties":{"Revit_UniqueId":"47097001-724b-4ad1-b943-680f13da0c75-005278a5","Element":"Room","Workstations":"","Area_SF":151.11,"Number":"12","RevitId":5404837,"NCES_Type":"Corridor/Hallway","NCES_Department":"Fleet Vehicle Maintenance","NCES_Occupancy Status":"","Name":"HALLWAY","Seat Count":"","occupancyStatus":"Occupied","Level":"LEVEL 1"},"type":"Feature","geometry":{"type":"Polygon","coordinates":[[[-96.043544,41.089697],[-96.043544,41.089665],[-96.043524,41.089665],[-96.043524,41.089682],[-96.043454,41.089682],[-96.043454,41.089697],[-96.043491,41.089697],[-96.043544,41.089697]]]}}]}