{"type":"FeatureCollection","name":"633004_SarpyMP La Platte Public Works_R26 - LEVEL 1","features":[{"properties":{"Revit_UniqueId":"fbf3e2c4-dd7f-4845-b731-378f9ba08f93-00523a51","Element":"Room","Workstations":"","Area_SF":195.81,"Number":"281","RevitId":5388881,"NCES_Type":"","NCES_Department":"Public Works","NCES_Occupancy Status":"","Name":"ROOM","Seat Count":"","occupancyStatus":"Occupied","Level":"LEVEL 1"},"type":"Feature","geometry":{"type":"Polygon","coordinates":[[[-95.933591,41.067534],[-95.933659,41.067534],[-95.933659,41.067502],[-95.93364,41.067502],[-95.933619,41.067502],[-95.933591,41.067502],[-95.933591,41.067534]]]}},{"properties":{"Revit_UniqueId":"fbf3e2c4-dd7f-4845-b731-378f9ba08f93-00523a54","Element":"Room","Workstations":"","Area_SF":2012.5,"Number":"282","RevitId":5388884,"NCES_Type":"Garage/Vehicle Bay","NCES_Department":"Public Works","NCES_Occupancy Status":"","Name":"GARAGE/VEHICLE BAY","Seat Count":"","occupancyStatus":"Occupied","Level":"LEVEL 1"},"type":"Feature","geometry":{"type":"Polygon","coordinates":[[[-95.933591,41.067373],[-95.933461,41.067373],[-95.933461,41.067534],[-95.933591,41.067534],[-95.933591,41.067502],[-95.933591,41.067373]]]}},{"properties":{"Revit_UniqueId":"fbf3e2c4-dd7f-4845-b731-378f9ba08f93-00523a57","Element":"Room","Workstations":"","Area_SF":814.15,"Number":"283","RevitId":5388887,"NCES_Type":"Garage/Vehicle Bay","NCES_Department":"Public Works","NCES_Occupancy Status":"","Name":"GARAGE/VEHICLE BAY","Seat Count":"","occupancyStatus":"Occupied","Level":"LEVEL 1"},"type":"Feature","geometry":{"type":"Polygon","coordinates":[[[-95.933659,41.067373],[-95.933591,41.067373],[-95.933591,41.067502],[-95.933619,41.067502],[-95.93364,41.067502],[-95.933659,41.067502],[-95.933659,41.067373]]]}}]}