{"type":"FeatureCollection","name":"633004_SarpyMP 180th Public Works_R26 - LEVEL 1","features":[{"type":"Feature","properties":{"type":"drawing","level":"LEVEL 1","Text":"SOLID","Layer":"A-WALL-PATT","source":"LEVEL_1_-_OVERALL.dxf","SubClasses":"AcDbEntity:AcDbHatch","EntityHandle":"8F","interactive":false},"geometry":{"type":"MultiLineString","coordinates":[[[-96.202694,41.17704],[-96.20269,41.17704],[-96.20269,41.177043],[-96.202984,41.177043],[-96.202984,41.17704],[-96.202768,41.17704],[-96.202694,41.17704]]]}},{"type":"Feature","properties":{"type":"drawing","level":"LEVEL 1","Text":"SOLID","Layer":"A-WALL-PATT","source":"LEVEL_1_-_OVERALL.dxf","SubClasses":"AcDbEntity:AcDbHatch","EntityHandle":"94","interactive":false},"geometry":{"type":"MultiLineString","coordinates":[[[-96.20269,41.176928],[-96.20269,41.17704],[-96.202694,41.17704],[-96.202694,41.176928],[-96.20269,41.176928]]]}},{"type":"Feature","properties":{"type":"drawing","level":"LEVEL 1","Text":"SOLID","Layer":"A-WALL-PATT","source":"LEVEL_1_-_OVERALL.dxf","SubClasses":"AcDbEntity:AcDbHatch","EntityHandle":"A8","interactive":false},"geometry":{"type":"MultiLineString","coordinates":[[[-96.202694,41.176928],[-96.202694,41.176931],[-96.202711,41.176931],[-96.202711,41.176928],[-96.202706,41.176928],[-96.202694,41.176928]],[[-96.202727,41.176928],[-96.202723,41.176928],[-96.202723,41.176931],[-96.202727,41.176931],[-96.202727,41.176928]],[[-96.202763,41.176928],[-96.202763,41.176931],[-96.202871,41.176931],[-96.202871,41.176928],[-96.202768,41.176928],[-96.202763,41.176928]],[[-96.202907,41.176928],[-96.202907,41.176931],[-96.202984,41.176931],[-96.202984,41.176928],[-96.202909,41.176928],[-96.202907,41.176928]]]}},{"type":"Feature","properties":{"type":"drawing","level":"LEVEL 1","Text":"SOLID","Layer":"A-WALL-PATT","source":"LEVEL_1_-_OVERALL.dxf","SubClasses":"AcDbEntity:AcDbHatch","EntityHandle":"AD","interactive":false},"geometry":{"type":"MultiLineString","coordinates":[[[-96.20298,41.176931],[-96.20298,41.17704],[-96.202984,41.17704],[-96.202984,41.176931],[-96.20298,41.176931]]]}},{"type":"Feature","properties":{"type":"drawing","level":"LEVEL 1","Text":"SOLID","Layer":"A-WALL-PATT","source":"LEVEL_1_-_OVERALL.dxf","SubClasses":"AcDbEntity:AcDbHatch","EntityHandle":"B6","interactive":false},"geometry":{"type":"MultiLineString","coordinates":[[[-96.202798,41.176931],[-96.202796,41.176931],[-96.202796,41.176934],[-96.202798,41.176934],[-96.202798,41.176931]],[[-96.202796,41.176943],[-96.202796,41.17704],[-96.202798,41.17704],[-96.202798,41.176943],[-96.202796,41.176943]]]}},{"type":"Feature","properties":{"type":"drawing","level":"LEVEL 1","Layer":"A-WALL","source":"LEVEL_1_-_OVERALL.dxf","SubClasses":"AcDbEntity:AcDbLine","EntityHandle":"B7","interactive":false},"geometry":{"type":"MultiLineString","coordinates":[[[-96.20298,41.17704],[-96.202798,41.17704]]]}},{"type":"Feature","properties":{"type":"drawing","level":"LEVEL 1","Layer":"A-WALL","source":"LEVEL_1_-_OVERALL.dxf","SubClasses":"AcDbEntity:AcDbLine","EntityHandle":"B8","interactive":false},"geometry":{"type":"MultiLineString","coordinates":[[[-96.202796,41.17704],[-96.202694,41.17704]]]}},{"type":"Feature","properties":{"type":"drawing","level":"LEVEL 1","Layer":"A-WALL","source":"LEVEL_1_-_OVERALL.dxf","SubClasses":"AcDbEntity:AcDbLine","EntityHandle":"BA","interactive":false},"geometry":{"type":"MultiLineString","coordinates":[[[-96.20269,41.177043],[-96.202984,41.177043]]]}},{"type":"Feature","properties":{"type":"drawing","level":"LEVEL 1","Layer":"A-WALL","source":"LEVEL_1_-_OVERALL.dxf","SubClasses":"AcDbEntity:AcDbLine","EntityHandle":"BC","interactive":false},"geometry":{"type":"MultiLineString","coordinates":[[[-96.202694,41.17704],[-96.202694,41.176931]]]}},{"type":"Feature","properties":{"type":"drawing","level":"LEVEL 1","Layer":"A-WALL","source":"LEVEL_1_-_OVERALL.dxf","SubClasses":"AcDbEntity:AcDbLine","EntityHandle":"BE","interactive":false},"geometry":{"type":"MultiLineString","coordinates":[[[-96.20269,41.176928],[-96.20269,41.177043]]]}},{"type":"Feature","properties":{"type":"drawing","level":"LEVEL 1","Layer":"A-WALL","source":"LEVEL_1_-_OVERALL.dxf","SubClasses":"AcDbEntity:AcDbLine","EntityHandle":"BF","interactive":false},"geometry":{"type":"MultiLineString","coordinates":[[[-96.202694,41.176931],[-96.202711,41.176931]]]}},{"type":"Feature","properties":{"type":"drawing","level":"LEVEL 1","Layer":"A-WALL","source":"LEVEL_1_-_OVERALL.dxf","SubClasses":"AcDbEntity:AcDbLine","EntityHandle":"C0","interactive":false},"geometry":{"type":"MultiLineString","coordinates":[[[-96.202711,41.176931],[-96.202711,41.176928]]]}},{"type":"Feature","properties":{"type":"drawing","level":"LEVEL 1","Layer":"A-WALL","source":"LEVEL_1_-_OVERALL.dxf","SubClasses":"AcDbEntity:AcDbLine","EntityHandle":"C1","interactive":false},"geometry":{"type":"MultiLineString","coordinates":[[[-96.202711,41.176928],[-96.20269,41.176928]]]}},{"type":"Feature","properties":{"type":"drawing","level":"LEVEL 1","Layer":"A-WALL","source":"LEVEL_1_-_OVERALL.dxf","SubClasses":"AcDbEntity:AcDbLine","EntityHandle":"C2","interactive":false},"geometry":{"type":"MultiLineString","coordinates":[[[-96.202723,41.176931],[-96.202727,41.176931]]]}},{"type":"Feature","properties":{"type":"drawing","level":"LEVEL 1","Layer":"A-WALL","source":"LEVEL_1_-_OVERALL.dxf","SubClasses":"AcDbEntity:AcDbLine","EntityHandle":"C3","interactive":false},"geometry":{"type":"MultiLineString","coordinates":[[[-96.202727,41.176931],[-96.202727,41.176928]]]}},{"type":"Feature","properties":{"type":"drawing","level":"LEVEL 1","Layer":"A-WALL","source":"LEVEL_1_-_OVERALL.dxf","SubClasses":"AcDbEntity:AcDbLine","EntityHandle":"C4","interactive":false},"geometry":{"type":"MultiLineString","coordinates":[[[-96.202727,41.176928],[-96.202723,41.176928]]]}},{"type":"Feature","properties":{"type":"drawing","level":"LEVEL 1","Layer":"A-WALL","source":"LEVEL_1_-_OVERALL.dxf","SubClasses":"AcDbEntity:AcDbLine","EntityHandle":"C5","interactive":false},"geometry":{"type":"MultiLineString","coordinates":[[[-96.202723,41.176928],[-96.202723,41.176931]]]}},{"type":"Feature","properties":{"type":"drawing","level":"LEVEL 1","Layer":"A-WALL","source":"LEVEL_1_-_OVERALL.dxf","SubClasses":"AcDbEntity:AcDbLine","EntityHandle":"C6","interactive":false},"geometry":{"type":"MultiLineString","coordinates":[[[-96.202763,41.176931],[-96.202796,41.176931]]]}},{"type":"Feature","properties":{"type":"drawing","level":"LEVEL 1","Layer":"A-WALL","source":"LEVEL_1_-_OVERALL.dxf","SubClasses":"AcDbEntity:AcDbLine","EntityHandle":"C7","interactive":false},"geometry":{"type":"MultiLineString","coordinates":[[[-96.202798,41.176931],[-96.202871,41.176931]]]}},{"type":"Feature","properties":{"type":"drawing","level":"LEVEL 1","Layer":"A-WALL","source":"LEVEL_1_-_OVERALL.dxf","SubClasses":"AcDbEntity:AcDbLine","EntityHandle":"C8","interactive":false},"geometry":{"type":"MultiLineString","coordinates":[[[-96.202871,41.176931],[-96.202871,41.176928]]]}},{"type":"Feature","properties":{"type":"drawing","level":"LEVEL 1","Layer":"A-WALL","source":"LEVEL_1_-_OVERALL.dxf","SubClasses":"AcDbEntity:AcDbLine","EntityHandle":"C9","interactive":false},"geometry":{"type":"MultiLineString","coordinates":[[[-96.202871,41.176928],[-96.202763,41.176928]]]}},{"type":"Feature","properties":{"type":"drawing","level":"LEVEL 1","Layer":"A-WALL","source":"LEVEL_1_-_OVERALL.dxf","SubClasses":"AcDbEntity:AcDbLine","EntityHandle":"CA","interactive":false},"geometry":{"type":"MultiLineString","coordinates":[[[-96.202763,41.176928],[-96.202763,41.176931]]]}},{"type":"Feature","properties":{"type":"drawing","level":"LEVEL 1","Layer":"A-WALL","source":"LEVEL_1_-_OVERALL.dxf","SubClasses":"AcDbEntity:AcDbLine","EntityHandle":"CB","interactive":false},"geometry":{"type":"MultiLineString","coordinates":[[[-96.202907,41.176931],[-96.20298,41.176931]]]}},{"type":"Feature","properties":{"type":"drawing","level":"LEVEL 1","Layer":"A-WALL","source":"LEVEL_1_-_OVERALL.dxf","SubClasses":"AcDbEntity:AcDbLine","EntityHandle":"CD","interactive":false},"geometry":{"type":"MultiLineString","coordinates":[[[-96.202984,41.176928],[-96.202907,41.176928]]]}},{"type":"Feature","properties":{"type":"drawing","level":"LEVEL 1","Layer":"A-WALL","source":"LEVEL_1_-_OVERALL.dxf","SubClasses":"AcDbEntity:AcDbLine","EntityHandle":"CE","interactive":false},"geometry":{"type":"MultiLineString","coordinates":[[[-96.202907,41.176928],[-96.202907,41.176931]]]}},{"type":"Feature","properties":{"type":"drawing","level":"LEVEL 1","Layer":"A-WALL","source":"LEVEL_1_-_OVERALL.dxf","SubClasses":"AcDbEntity:AcDbLine","EntityHandle":"CF","interactive":false},"geometry":{"type":"MultiLineString","coordinates":[[[-96.20298,41.176931],[-96.20298,41.17704]]]}},{"type":"Feature","properties":{"type":"drawing","level":"LEVEL 1","Layer":"A-WALL","source":"LEVEL_1_-_OVERALL.dxf","SubClasses":"AcDbEntity:AcDbLine","EntityHandle":"D0","interactive":false},"geometry":{"type":"MultiLineString","coordinates":[[[-96.202984,41.177043],[-96.202984,41.176928]]]}},{"type":"Feature","properties":{"type":"drawing","level":"LEVEL 1","Layer":"A-WALL","source":"LEVEL_1_-_OVERALL.dxf","SubClasses":"AcDbEntity:AcDbLine","EntityHandle":"D1","interactive":false},"geometry":{"type":"MultiLineString","coordinates":[[[-96.202798,41.17704],[-96.202798,41.176943]]]}},{"type":"Feature","properties":{"type":"drawing","level":"LEVEL 1","Layer":"A-WALL","source":"LEVEL_1_-_OVERALL.dxf","SubClasses":"AcDbEntity:AcDbLine","EntityHandle":"D2","interactive":false},"geometry":{"type":"MultiLineString","coordinates":[[[-96.202798,41.176943],[-96.202796,41.176943]]]}},{"type":"Feature","properties":{"type":"drawing","level":"LEVEL 1","Layer":"A-WALL","source":"LEVEL_1_-_OVERALL.dxf","SubClasses":"AcDbEntity:AcDbLine","EntityHandle":"D3","interactive":false},"geometry":{"type":"MultiLineString","coordinates":[[[-96.202796,41.176943],[-96.202796,41.17704]]]}},{"type":"Feature","properties":{"type":"drawing","level":"LEVEL 1","Layer":"A-WALL","source":"LEVEL_1_-_OVERALL.dxf","SubClasses":"AcDbEntity:AcDbLine","EntityHandle":"D4","interactive":false},"geometry":{"type":"MultiLineString","coordinates":[[[-96.202798,41.176934],[-96.202798,41.176931]]]}},{"type":"Feature","properties":{"type":"drawing","level":"LEVEL 1","Layer":"A-WALL","source":"LEVEL_1_-_OVERALL.dxf","SubClasses":"AcDbEntity:AcDbLine","EntityHandle":"D5","interactive":false},"geometry":{"type":"MultiLineString","coordinates":[[[-96.202796,41.176931],[-96.202796,41.176934]]]}},{"type":"Feature","properties":{"type":"drawing","level":"LEVEL 1","Layer":"A-WALL","source":"LEVEL_1_-_OVERALL.dxf","SubClasses":"AcDbEntity:AcDbLine","EntityHandle":"D6","interactive":false},"geometry":{"type":"MultiLineString","coordinates":[[[-96.202796,41.176934],[-96.202798,41.176934]]]}}]}