{
  "features": [
    {
      "geometry": {
        "coordinates": [
          [
            [
              -95.571606245747375, 
              42.757015154561813
            ], 
            [
              -95.571606245747375, 
              42.757008973243131
            ], 
            [
              -95.571608116567859, 
              42.757008973243131
            ], 
            [
              -95.571608116567859, 
              42.756989821230285
            ], 
            [
              -95.571643662157030, 
              42.756989821230285
            ], 
            [
              -95.571680031593928, 
              42.756989821230285
            ], 
            [
              -95.571738465951213, 
              42.756989821230285
            ], 
            [
              -95.571775866804458, 
              42.756989821230285
            ], 
            [
              -95.571790319382089, 
              42.756989821230285
            ], 
            [
              -95.571803929111695, 
              42.756989821230285
            ], 
            [
              -95.571803929111695, 
              42.756975398153365
            ], 
            [
              -95.571839490257261, 
              42.756975398153365
            ], 
            [
              -95.571839490257261, 
              42.756952275710603
            ], 
            [
              -95.571798332206654, 
              42.756952275710603
            ], 
            [
              -95.571759044976517, 
              42.756952275710603
            ], 
            [
              -95.571717136200164, 
              42.756952275710603
            ], 
            [
              -95.571605304320698, 
              42.756952275710603
            ], 
            [
              -95.571605304320698, 
              42.756924024434660
            ], 
            [
              -95.571605304320698, 
              42.756921262803253
            ], 
            [
              -95.571543815188846, 
              42.756921262803253
            ], 
            [
              -95.571540989374995, 
              42.756921262803253
            ], 
            [
              -95.571540989374995, 
              42.756952275710603
            ], 
            [
              -95.571430368005934, 
              42.756952275710603
            ], 
            [
              -95.571388877433762, 
              42.756952275710603
            ], 
            [
              -95.571348703468445, 
              42.756952275710603
            ], 
            [
              -95.571348703468445, 
              42.756989821230285
            ], 
            [
              -95.571407585638582, 
              42.756989821230285
            ], 
            [
              -95.571439701390204, 
              42.756989821230285
            ], 
            [
              -95.571465581073539, 
              42.756989821230285
            ], 
            [
              -95.571474623372538, 
              42.756989821230285
            ], 
            [
              -95.571541349303089, 
              42.756989821230285
            ], 
            [
              -95.571541349303089, 
              42.757008973243131
            ], 
            [
              -95.571543220123573, 
              42.757008973243131
            ], 
            [
              -95.571543220123573, 
              42.757015154561813
            ], 
            [
              -95.571606245747375, 
              42.757015154561813
            ]
          ]
        ], 
        "type": "Polygon"
      }, 
      "properties": {
        "Seat Count": "", 
        "Number": "010Q", 
        "NCES_Type": "Corridor/Hallway", 
        "Workstations": "", 
        "Element": "Room", 
        "RevitId": 5912641, 
        "occupancyStatus": "Occupied", 
        "Building": "North A", 
        "Area_SF": 1888.0400000000000, 
        "Name": "CORRIDOR", 
        "NCES_Occupancy Status": "", 
        "NCES_Department": "General", 
        "Level": "BASEMENT", 
        "Revit_UniqueId": "2185f381-91b6-46de-ae2c-9c7a9c7be50e-0059fdc4"
      }, 
      "type": "Feature"
    }, 
    {
      "geometry": {
        "coordinates": [
          [
            [
              -95.571608116567859, 
              42.757035758957414
            ], 
            [
              -95.571805285945942, 
              42.757035758957414
            ], 
            [
              -95.571805285945942, 
              42.757035072144227
            ], 
            [
              -95.571839490257261, 
              42.757035072144227
            ], 
            [
              -95.571839490257261, 
              42.757005617933579
            ], 
            [
              -95.571839490257261, 
              42.756989821230285
            ], 
            [
              -95.571839490257261, 
              42.756975398153365
            ], 
            [
              -95.571803929111695, 
              42.756975398153365
            ], 
            [
              -95.571803929111695, 
              42.756989821230285
            ], 
            [
              -95.571803929111695, 
              42.757008365186330
            ], 
            [
              -95.571790319382089, 
              42.757008365186330
            ], 
            [
              -95.571775866804458, 
              42.757008365186330
            ], 
            [
              -95.571775866804458, 
              42.756989821230285
            ], 
            [
              -95.571738465951213, 
              42.756989821230285
            ], 
            [
              -95.571680031593928, 
              42.756989821230285
            ], 
            [
              -95.571643662157030, 
              42.756989821230285
            ], 
            [
              -95.571608116567859, 
              42.756989821230285
            ], 
            [
              -95.571608116567859, 
              42.757008973243131
            ], 
            [
              -95.571606245747375, 
              42.757008973243131
            ], 
            [
              -95.571606245747375, 
              42.757015154561813
            ], 
            [
              -95.571543220123573, 
              42.757015154561813
            ], 
            [
              -95.571543220123573, 
              42.757008973243131
            ], 
            [
              -95.571541349303089, 
              42.757008973243131
            ], 
            [
              -95.571541349303089, 
              42.756989821230285
            ], 
            [
              -95.571474623372538, 
              42.756989821230285
            ], 
            [
              -95.571474623372538, 
              42.756999207677168
            ], 
            [
              -95.571465581073539, 
              42.756999207677168
            ], 
            [
              -95.571465581073539, 
              42.756989821230285
            ], 
            [
              -95.571439701390204, 
              42.756989821230285
            ], 
            [
              -95.571407585638582, 
              42.756989821230285
            ], 
            [
              -95.571348703468445, 
              42.756989821230285
            ], 
            [
              -95.571343091006995, 
              42.756989821230285
            ], 
            [
              -95.571343091006995, 
              42.757004473244940
            ], 
            [
              -95.571343091006995, 
              42.757035758957414
            ], 
            [
              -95.571541349303089, 
              42.757035758957414
            ], 
            [
              -95.571541349303089, 
              42.757040108774270
            ], 
            [
              -95.571608116567859, 
              42.757040108774270
            ], 
            [
              -95.571608116567859, 
              42.757035758957414
            ]
          ]
        ], 
        "type": "Polygon"
      }, 
      "properties": {
        "Seat Count": "", 
        "Number": "010R", 
        "NCES_Type": "Corridor/Hallway", 
        "Workstations": "", 
        "Element": "Room", 
        "RevitId": 5912645, 
        "occupancyStatus": "Occupied", 
        "Building": "North A", 
        "Area_SF": 1901.6400000000001, 
        "Name": "CORRIDOR", 
        "NCES_Occupancy Status": "", 
        "NCES_Department": "General", 
        "Level": "BASEMENT", 
        "Revit_UniqueId": "2185f381-91b6-46de-ae2c-9c7a9c7be50e-0059ff81"
      }, 
      "type": "Feature"
    }, 
    {
      "geometry": {
        "coordinates": [
          [
            [
              -95.571343091006995, 
              42.756989821230285
            ], 
            [
              -95.571317019610220, 
              42.756989821230285
            ], 
            [
              -95.571317019610220, 
              42.756999207677168
            ], 
            [
              -95.571307665507803, 
              42.756999207677168
            ], 
            [
              -95.571307665507803, 
              42.757042019032482
            ], 
            [
              -95.571308600918044, 
              42.757042019032482
            ], 
            [
              -95.571308600918044, 
              42.757091760856071
            ], 
            [
              -95.571309536328286, 
              42.757091760856071
            ], 
            [
              -95.571309536328286, 
              42.757093835674290
            ], 
            [
              -95.571309536328286, 
              42.757126330453140
            ], 
            [
              -95.571283344841532, 
              42.757126330453140
            ], 
            [
              -95.571283344841532, 
              42.757140524592330
            ], 
            [
              -95.571310471738528, 
              42.757140524592330
            ], 
            [
              -95.571310471738528, 
              42.757178070379879
            ], 
            [
              -95.571247480444768, 
              42.757178070379879
            ], 
            [
              -95.571222847975079, 
              42.757178070379879
            ], 
            [
              -95.571222847975079, 
              42.757191806643618
            ], 
            [
              -95.571206322394147, 
              42.757191806643618
            ], 
            [
              -95.571206322394147, 
              42.757178070379879
            ], 
            [
              -95.571103092247398, 
              42.757178070379879
            ], 
            [
              -95.571103092247398, 
              42.757199590526398
            ], 
            [
              -95.571035810282240, 
              42.757199590526398
            ], 
            [
              -95.571035810282240, 
              42.757178070379879
            ], 
            [
              -95.570994303076972, 
              42.757178070379879
            ], 
            [
              -95.570969358803879, 
              42.757178070379879
            ], 
            [
              -95.570969358803879, 
              42.757187685764492
            ], 
            [
              -95.570960004701462, 
              42.757187685764492
            ], 
            [
              -95.570960004701462, 
              42.757178070379879
            ], 
            [
              -95.570935181711505, 
              42.757178070379879
            ], 
            [
              -95.570901506942818, 
              42.757178070379879
            ], 
            [
              -95.570837963269298, 
              42.757178070379879
            ], 
            [
              -95.570837963269298, 
              42.757192099257139
            ], 
            [
              -95.570837963269298, 
              42.757223879426405
            ], 
            [
              -95.571035810282240, 
              42.757223879426405
            ], 
            [
              -95.571035810282240, 
              42.757228102621006
            ], 
            [
              -95.571055781333797, 
              42.757242766114047
            ], 
            [
              -95.571083843641034, 
              42.757242766114047
            ], 
            [
              -95.571103092247398, 
              42.757228633067285
            ], 
            [
              -95.571103092247398, 
              42.757223879426405
            ], 
            [
              -95.571344961827478, 
              42.757223879426405
            ], 
            [
              -95.571344961827478, 
              42.757178757193067
            ], 
            [
              -95.571344961827478, 
              42.757178264807699
            ], 
            [
              -95.571350886092347, 
              42.757139837779150
            ], 
            [
              -95.571344961827478, 
              42.757139837779150
            ], 
            [
              -95.571344961827478, 
              42.757089013603320
            ], 
            [
              -95.571344026417236, 
              42.757089013603320
            ], 
            [
              -95.571344026417236, 
              42.757035758957414
            ], 
            [
              -95.571343091006995, 
              42.757035758957414
            ], 
            [
              -95.571343091006995, 
              42.757032997326007
            ], 
            [
              -95.571343091006995, 
              42.757004473244940
            ], 
            [
              -95.571343091006995, 
              42.756989821230285
            ]
          ]
        ], 
        "type": "Polygon"
      }, 
      "properties": {
        "Seat Count": "", 
        "Number": "010S", 
        "NCES_Type": "Corridor/Hallway", 
        "Workstations": "", 
        "Element": "Room", 
        "RevitId": 5912682, 
        "occupancyStatus": "Occupied", 
        "Building": "North A", 
        "Area_SF": 2545.8400000000001, 
        "Name": "CORRIDOR", 
        "NCES_Occupancy Status": "", 
        "NCES_Department": "General", 
        "Level": "BASEMENT", 
        "Revit_UniqueId": "38cda8e2-ff42-4d55-87d6-6d7e72c24dbd-005a0ff7"
      }, 
      "type": "Feature"
    }, 
    {
      "geometry": {
        "coordinates": [
          [
            [
              -95.571283344841532, 
              42.757108743741540
            ], 
            [
              -95.571210382842708, 
              42.757108743741540
            ], 
            [
              -95.571119959852723, 
              42.757108743741540
            ], 
            [
              -95.571101875254726, 
              42.757108743741540
            ], 
            [
              -95.571101875254726, 
              42.757105080737873
            ], 
            [
              -95.571036396537835, 
              42.757105080737873
            ], 
            [
              -95.571036396537835, 
              42.757108743741540
            ], 
            [
              -95.571036396537835, 
              42.757140524592330
            ], 
            [
              -95.570927698429571, 
              42.757140524592330
            ], 
            [
              -95.570802541985472, 
              42.757140524592330
            ], 
            [
              -95.570801861919463, 
              42.757140394231826
            ], 
            [
              -95.570795625851190, 
              42.757178070379879
            ], 
            [
              -95.570802729483546, 
              42.757178070379879
            ], 
            [
              -95.570813086842364, 
              42.757178070379879
            ], 
            [
              -95.570837963269298, 
              42.757178070379879
            ], 
            [
              -95.570901506942818, 
              42.757178070379879
            ], 
            [
              -95.570935181711505, 
              42.757178070379879
            ], 
            [
              -95.570960004701462, 
              42.757178070379879
            ], 
            [
              -95.570969358803879, 
              42.757178070379879
            ], 
            [
              -95.570994303076972, 
              42.757178070379879
            ], 
            [
              -95.571035810282240, 
              42.757178070379879
            ], 
            [
              -95.571103092247398, 
              42.757178070379879
            ], 
            [
              -95.571206322394147, 
              42.757178070379879
            ], 
            [
              -95.571222847975079, 
              42.757178070379879
            ], 
            [
              -95.571247480444768, 
              42.757178070379879
            ], 
            [
              -95.571310471738528, 
              42.757178070379879
            ], 
            [
              -95.571310471738528, 
              42.757140524592330
            ], 
            [
              -95.571283344841532, 
              42.757140524592330
            ], 
            [
              -95.571283344841532, 
              42.757126330453140
            ], 
            [
              -95.571283344841532, 
              42.757108743741540
            ]
          ]
        ], 
        "type": "Polygon"
      }, 
      "properties": {
        "Seat Count": "", 
        "Number": "010T", 
        "NCES_Type": "General Storage", 
        "Workstations": "", 
        "Element": "Room", 
        "RevitId": 5912684, 
        "occupancyStatus": "Occupied", 
        "Building": "North A", 
        "Area_SF": 2428.7600000000002, 
        "Name": "STORAGE", 
        "NCES_Occupancy Status": "", 
        "NCES_Department": "General", 
        "Level": "BASEMENT", 
        "Revit_UniqueId": "38cda8e2-ff42-4d55-87d6-6d7e72c24dbd-005a0ffa"
      }, 
      "type": "Feature"
    }, 
    {
      "geometry": {
        "coordinates": [
          [
            [
              -95.571607175141182, 
              42.756921262803253
            ], 
            [
              -95.571607175141182, 
              42.756889080244854
            ], 
            [
              -95.571607175141182, 
              42.756886332992110
            ], 
            [
              -95.571540053964753, 
              42.756886332992110
            ], 
            [
              -95.571540053964753, 
              42.756889080244854
            ], 
            [
              -95.571540053964753, 
              42.756921262803253
            ], 
            [
              -95.571605304320698, 
              42.756921262803253
            ], 
            [
              -95.571607175141182, 
              42.756921262803253
            ]
          ]
        ], 
        "type": "Polygon"
      }, 
      "properties": {
        "Seat Count": "", 
        "Number": "010X", 
        "NCES_Type": "Maintenance Shop", 
        "Workstations": "", 
        "Element": "Room", 
        "RevitId": 5913640, 
        "occupancyStatus": "Occupied", 
        "Building": "North A", 
        "Area_SF": 302.42000000000002, 
        "Name": "PLUMBING SHOP", 
        "NCES_Occupancy Status": "", 
        "NCES_Department": "General", 
        "Level": "BASEMENT", 
        "Revit_UniqueId": "89d251c2-ec05-4b1d-b2d1-943037ba2510-005a3c28"
      }, 
      "type": "Feature"
    }, 
    {
      "geometry": {
        "coordinates": [
          [
            [
              -95.571348703468445, 
              42.756952275710603
            ], 
            [
              -95.571307665507803, 
              42.756952275710603
            ], 
            [
              -95.571307665507803, 
              42.756951982066099
            ], 
            [
              -95.571307665507803, 
              42.756990114874789
            ], 
            [
              -95.571309343930267, 
              42.756989821230285
            ], 
            [
              -95.571317019610220, 
              42.756989821230285
            ], 
            [
              -95.571343091006995, 
              42.756989821230285
            ], 
            [
              -95.571348703468445, 
              42.756989821230285
            ], 
            [
              -95.571348703468445, 
              42.756952275710603
            ]
          ]
        ], 
        "type": "Polygon"
      }, 
      "properties": {
        "Seat Count": "", 
        "Number": "010Y", 
        "NCES_Type": "Maintenance Shop", 
        "Workstations": "", 
        "Element": "Room", 
        "RevitId": 5913643, 
        "occupancyStatus": "Occupied", 
        "Building": "North A", 
        "Area_SF": 208.59999999999999, 
        "Name": "OLD MASON SHOP", 
        "NCES_Occupancy Status": "", 
        "NCES_Department": "General", 
        "Level": "BASEMENT", 
        "Revit_UniqueId": "89d251c2-ec05-4b1d-b2d1-943037ba2510-005a3c2b"
      }, 
      "type": "Feature"
    }, 
    {
      "geometry": {
        "coordinates": [
          [
            [
              -95.571805285945942, 
              42.757150348903224
            ], 
            [
              -95.571835219073662, 
              42.757150348903224
            ], 
            [
              -95.571835219073662, 
              42.757125394690767
            ], 
            [
              -95.571850185637530, 
              42.757125394690767
            ], 
            [
              -95.571867958432108, 
              42.757125394690767
            ], 
            [
              -95.571867958432108, 
              42.757081492068373
            ], 
            [
              -95.571805285945942, 
              42.757081492068373
            ], 
            [
              -95.571805285945942, 
              42.757150348903224
            ]
          ]
        ], 
        "type": "Polygon"
      }, 
      "properties": {
        "Seat Count": "", 
        "Number": "255", 
        "NCES_Type": "General Storage", 
        "Workstations": "", 
        "Element": "Room", 
        "RevitId": 6010675, 
        "occupancyStatus": "Occupied", 
        "Building": "North A", 
        "Area_SF": 296.16000000000003, 
        "Name": "MAINT\r\nSTOR", 
        "NCES_Occupancy Status": "", 
        "NCES_Department": "General", 
        "Level": "BASEMENT", 
        "Revit_UniqueId": "568ae92b-a280-451e-8461-f6d387948176-005bb053"
      }, 
      "type": "Feature"
    }, 
    {
      "geometry": {
        "coordinates": [
          [
            [
              -95.571839490257261, 
              42.757035072144227
            ], 
            [
              -95.571805285945942, 
              42.757035072144227
            ], 
            [
              -95.571805285945942, 
              42.757035758957414
            ], 
            [
              -95.571805285945942, 
              42.757081492068373
            ], 
            [
              -95.571867958432108, 
              42.757081492068373
            ], 
            [
              -95.571867958432108, 
              42.757035072144227
            ], 
            [
              -95.571839490257261, 
              42.757035072144227
            ]
          ]
        ], 
        "type": "Polygon"
      }, 
      "properties": {
        "Seat Count": "", 
        "Number": "256", 
        "NCES_Type": "General Storage", 
        "Workstations": "", 
        "Element": "Room", 
        "RevitId": 6010677, 
        "occupancyStatus": "Occupied", 
        "Building": "North A", 
        "Area_SF": 242.53000000000000, 
        "Name": "MAINT\r\nSTOR", 
        "NCES_Occupancy Status": "", 
        "NCES_Department": "General", 
        "Level": "BASEMENT", 
        "Revit_UniqueId": "568ae92b-a280-451e-8461-f6d387948176-005bb05c"
      }, 
      "type": "Feature"
    }, 
    {
      "geometry": {
        "coordinates": [
          [
            [
              -95.571936555183143, 
              42.757035072144227
            ], 
            [
              -95.571888537457426, 
              42.757035072144227
            ], 
            [
              -95.571888537457426, 
              42.757074220495880
            ], 
            [
              -95.571936555183143, 
              42.757074220495880
            ], 
            [
              -95.571936555183143, 
              42.757035072144227
            ]
          ]
        ], 
        "type": "Polygon"
      }, 
      "properties": {
        "Seat Count": "", 
        "Number": "257", 
        "NCES_Type": "General Storage", 
        "Workstations": "", 
        "Element": "Room", 
        "RevitId": 6010679, 
        "occupancyStatus": "Occupied", 
        "Building": "North A", 
        "Area_SF": 150.58000000000001, 
        "Name": "MAINT\r\nSTOR", 
        "NCES_Occupancy Status": "", 
        "NCES_Department": "General", 
        "Level": "BASEMENT", 
        "Revit_UniqueId": "568ae92b-a280-451e-8461-f6d387948176-005bb05f"
      }, 
      "type": "Feature"
    }, 
    {
      "geometry": {
        "coordinates": [
          [
            [
              -95.571936555183143, 
              42.757111308407964
            ], 
            [
              -95.571936555183143, 
              42.757074220495880
            ], 
            [
              -95.571888537457426, 
              42.757074220495880
            ], 
            [
              -95.571888537457426, 
              42.757102379836539
            ], 
            [
              -95.571888537457426, 
              42.757111308407964
            ], 
            [
              -95.571888537457426, 
              42.757150348903224
            ], 
            [
              -95.571936555183143, 
              42.757150348903224
            ], 
            [
              -95.571936555183143, 
              42.757111308407964
            ]
          ]
        ], 
        "type": "Polygon"
      }, 
      "properties": {
        "Seat Count": "", 
        "Number": "258", 
        "NCES_Type": "General Storage", 
        "Workstations": "", 
        "Element": "Room", 
        "RevitId": 6010682, 
        "occupancyStatus": "Occupied", 
        "Building": "North A", 
        "Area_SF": 299.88000000000000, 
        "Name": "MAINT\r\nSTOR", 
        "NCES_Occupancy Status": "", 
        "NCES_Department": "General", 
        "Level": "BASEMENT", 
        "Revit_UniqueId": "568ae92b-a280-451e-8461-f6d387948176-005bb0a5"
      }, 
      "type": "Feature"
    }, 
    {
      "geometry": {
        "coordinates": [
          [
            [
              -95.572066578132279, 
              42.756994100477655
            ], 
            [
              -95.572050891848960, 
              42.757005617933579
            ], 
            [
              -95.571839490257261, 
              42.757005617933579
            ], 
            [
              -95.571839490257261, 
              42.757035072144227
            ], 
            [
              -95.571867958432108, 
              42.757035072144227
            ], 
            [
              -95.571888537457426, 
              42.757035072144227
            ], 
            [
              -95.571933729369292, 
              42.757035072144227
            ], 
            [
              -95.571936555183143, 
              42.757035072144227
            ], 
            [
              -95.571936555183143, 
              42.757035758957414
            ], 
            [
              -95.572014309158206, 
              42.757035758957414
            ], 
            [
              -95.572049387042256, 
              42.757035758957414
            ], 
            [
              -95.572051147925521, 
              42.757035758957414
            ], 
            [
              -95.572052651991172, 
              42.757036863298666
            ], 
            [
              -95.572068718853899, 
              42.757048660190250
            ], 
            [
              -95.572068718853899, 
              42.757052242473904
            ], 
            [
              -95.572068718853899, 
              42.757091377233188
            ], 
            [
              -95.572068718853899, 
              42.757150348903224
            ], 
            [
              -95.572069654264141, 
              42.757150348903224
            ], 
            [
              -95.572069654264141, 
              42.757151736908256
            ], 
            [
              -95.572069654264141, 
              42.757210458456541
            ], 
            [
              -95.572069654264141, 
              42.757245195238887
            ], 
            [
              -95.572104480900919, 
              42.757245195238887
            ], 
            [
              -95.572104480900919, 
              42.757210458456541
            ], 
            [
              -95.572104480900919, 
              42.757151736908256
            ], 
            [
              -95.572104480900919, 
              42.757150348903224
            ], 
            [
              -95.572105416311160, 
              42.757150348903224
            ], 
            [
              -95.572105416311160, 
              42.757090690420000
            ], 
            [
              -95.572105416311160, 
              42.757054989726647
            ], 
            [
              -95.572105416311160, 
              42.757049458889867
            ], 
            [
              -95.572125010444566, 
              42.757035072144227
            ], 
            [
              -95.572163411746118, 
              42.757035072144227
            ], 
            [
              -95.572163411746118, 
              42.757035758957414
            ], 
            [
              -95.572237351442993, 
              42.757035758957414
            ], 
            [
              -95.572237351442993, 
              42.757035072144227
            ], 
            [
              -95.572285877932600, 
              42.757035072144227
            ], 
            [
              -95.572304586137420, 
              42.757035072144227
            ], 
            [
              -95.572333916996058, 
              42.757035072144227
            ], 
            [
              -95.572333916996058, 
              42.757005617933579
            ], 
            [
              -95.572122973414949, 
              42.757005617933579
            ], 
            [
              -95.572107287131644, 
              42.756994100477655
            ], 
            [
              -95.572107287131644, 
              42.756904944824697
            ], 
            [
              -95.572066578132279, 
              42.756904944824697
            ], 
            [
              -95.572066578132279, 
              42.756994100477655
            ]
          ]
        ], 
        "type": "Polygon"
      }, 
      "properties": {
        "Seat Count": "", 
        "Number": "348", 
        "NCES_Type": "Corridor/Hallway", 
        "Workstations": "", 
        "Element": "Room", 
        "RevitId": 6024679, 
        "occupancyStatus": "Occupied", 
        "Building": "North A", 
        "Area_SF": 2208.2100000000000, 
        "Name": "CORRIDOR", 
        "NCES_Occupancy Status": "", 
        "NCES_Department": "General", 
        "Level": "BASEMENT", 
        "Revit_UniqueId": "eef478cf-42ac-44fb-8ec0-2d083b00022a-005bede7"
      }, 
      "type": "Feature"
    }
  ], 
  "type": "FeatureCollection", 
  "name": "North A - BASEMENT"
}