{
  "features": [
    {
      "geometry": {
        "coordinates": [
          [
            [
              -95.571408881527304, 
              42.757035758957414
            ], 
            [
              -95.571426030715060, 
              42.757035758957414
            ], 
            [
              -95.571426030715060, 
              42.757030951265108
            ], 
            [
              -95.571440997278913, 
              42.757030951265108
            ], 
            [
              -95.571440997278913, 
              42.757028661887823
            ], 
            [
              -95.571440997278913, 
              42.757015841375001
            ], 
            [
              -95.571440997278913, 
              42.757014560025979
            ], 
            [
              -95.571440997278913, 
              42.757006547205464
            ], 
            [
              -95.571440997278913, 
              42.756996931820851
            ], 
            [
              -95.571429460552608, 
              42.756996931820851
            ], 
            [
              -95.571429460552608, 
              42.756989821230285
            ], 
            [
              -95.571394538570274, 
              42.756989821230285
            ], 
            [
              -95.571394538570274, 
              42.757004028890449
            ], 
            [
              -95.571392667749791, 
              42.757004028890449
            ], 
            [
              -95.571392667749791, 
              42.757014102150521
            ], 
            [
              -95.571387678895164, 
              42.757014102150521
            ], 
            [
              -95.571385808074680, 
              42.757014102150521
            ], 
            [
              -95.571385808074680, 
              42.757035758957414
            ], 
            [
              -95.571408881527304, 
              42.757035758957414
            ]
          ]
        ], 
        "type": "Polygon"
      }, 
      "properties": {
        "Seat Count": "", 
        "Number": "104", 
        "NCES_Type": "Restroom - Bath/Shower", 
        "Workstations": "", 
        "Element": "Room", 
        "RevitId": 5700458, 
        "occupancyStatus": "Occupied", 
        "Building": "North A", 
        "Area_SF": 174.87000000000000, 
        "Name": "RR", 
        "NCES_Occupancy Status": "", 
        "NCES_Department": "CCUSO", 
        "Level": "LEVEL 2", 
        "Revit_UniqueId": "f14b4bf3-3578-4404-90ce-ac1312a9460f-0056fb6a"
      }, 
      "type": "Feature"
    }, 
    {
      "geometry": {
        "coordinates": [
          [
            [
              -95.571344026417236, 
              42.757035758957414
            ], 
            [
              -95.571376453972263, 
              42.757035758957414
            ], 
            [
              -95.571376453972263, 
              42.757023900334190
            ], 
            [
              -95.571376453972263, 
              42.757014102150521
            ], 
            [
              -95.571365852656200, 
              42.757014102150521
            ], 
            [
              -95.571365852656200, 
              42.757004028890449
            ], 
            [
              -95.571360551998168, 
              42.757004028890449
            ], 
            [
              -95.571360551998168, 
              42.756989821230285
            ], 
            [
              -95.571343091006995, 
              42.756989821230285
            ], 
            [
              -95.571343091006995, 
              42.757035758957414
            ], 
            [
              -95.571344026417236, 
              42.757035758957414
            ]
          ]
        ], 
        "type": "Polygon"
      }, 
      "properties": {
        "Seat Count": "", 
        "Number": "105", 
        "NCES_Type": "Restroom - Bath/Shower", 
        "Workstations": "", 
        "Element": "Room", 
        "RevitId": 5700461, 
        "occupancyStatus": "Occupied", 
        "Building": "North A", 
        "Area_SF": 90.400000000000006, 
        "Name": "RR", 
        "NCES_Occupancy Status": "", 
        "NCES_Department": "CCUSO", 
        "Level": "LEVEL 2", 
        "Revit_UniqueId": "f14b4bf3-3578-4404-90ce-ac1312a9460f-0056fb6d"
      }, 
      "type": "Feature"
    }, 
    {
      "geometry": {
        "coordinates": [
          [
            [
              -95.571737738329020, 
              42.757035758957414
            ], 
            [
              -95.571764657437967, 
              42.757035758957414
            ], 
            [
              -95.571764657437967, 
              42.757024541008697
            ], 
            [
              -95.571776505967691, 
              42.757024541008697
            ], 
            [
              -95.571776505967691, 
              42.757006533684496
            ], 
            [
              -95.571776505967691, 
              42.757006304746767
            ], 
            [
              -95.571761227600405, 
              42.757006304746767
            ], 
            [
              -95.571761227600405, 
              42.756989821230285
            ], 
            [
              -95.571721836354925, 
              42.756989821230285
            ], 
            [
              -95.571721836354925, 
              42.757006304746767
            ], 
            [
              -95.571737738329020, 
              42.757006304746767
            ], 
            [
              -95.571737738329020, 
              42.757035758957414
            ]
          ]
        ], 
        "type": "Polygon"
      }, 
      "properties": {
        "Seat Count": "", 
        "Number": "106", 
        "NCES_Type": "Restroom - Bath/Shower", 
        "Workstations": "", 
        "Element": "Room", 
        "RevitId": 5700469, 
        "occupancyStatus": "Occupied", 
        "Building": "North A", 
        "Area_SF": 134.34000000000000, 
        "Name": "BATHROOM", 
        "NCES_Occupancy Status": "", 
        "NCES_Department": "CCUSO", 
        "Level": "LEVEL 2", 
        "Revit_UniqueId": "f14b4bf3-3578-4404-90ce-ac1312a9460f-0056fb75"
      }, 
      "type": "Feature"
    }, 
    {
      "geometry": {
        "coordinates": [
          [
            [
              -95.571715265379680, 
              42.756906148996016
            ], 
            [
              -95.571715265379680, 
              42.756889080244854
            ], 
            [
              -95.571607175141182, 
              42.756889080244854
            ], 
            [
              -95.571607175141182, 
              42.756920563508864
            ], 
            [
              -95.571607194724308, 
              42.756920563508864
            ], 
            [
              -95.571643967943999, 
              42.756920563508864
            ], 
            [
              -95.571680343397333, 
              42.756920563508864
            ], 
            [
              -95.571715245796554, 
              42.756920563508864
            ], 
            [
              -95.571715265379680, 
              42.756920563508864
            ], 
            [
              -95.571715265379680, 
              42.756906148996016
            ]
          ]
        ], 
        "type": "Polygon"
      }, 
      "properties": {
        "Seat Count": "", 
        "Number": "111", 
        "NCES_Type": "Porch/Balcony", 
        "Workstations": "", 
        "Element": "Room", 
        "RevitId": 5701226, 
        "occupancyStatus": "Occupied", 
        "Building": "North A", 
        "Area_SF": 254.36000000000001, 
        "Name": "BALCONY", 
        "NCES_Occupancy Status": "", 
        "NCES_Department": "CCUSO", 
        "Level": "LEVEL 2", 
        "Revit_UniqueId": "f14b4bf3-3578-4404-90ce-ac1312a9460f-0056fe6a"
      }, 
      "type": "Feature"
    }, 
    {
      "geometry": {
        "coordinates": [
          [
            [
              -95.571432238826418, 
              42.756907255303958
            ], 
            [
              -95.571432238826418, 
              42.756921262803253
            ], 
            [
              -95.571432258409544, 
              42.756921262803253
            ], 
            [
              -95.571467624053085, 
              42.756921262803253
            ], 
            [
              -95.571503884768759, 
              42.756921262803253
            ], 
            [
              -95.571538163561158, 
              42.756921262803253
            ], 
            [
              -95.571540053964753, 
              42.756921262803253
            ], 
            [
              -95.571540053964753, 
              42.756889080244854
            ], 
            [
              -95.571432238826418, 
              42.756889080244854
            ], 
            [
              -95.571432238826418, 
              42.756907255303958
            ]
          ]
        ], 
        "type": "Polygon"
      }, 
      "properties": {
        "Seat Count": "", 
        "Number": "112", 
        "NCES_Type": "Porch/Balcony", 
        "Workstations": "", 
        "Element": "Room", 
        "RevitId": 5701229, 
        "occupancyStatus": "Occupied", 
        "Building": "North A", 
        "Area_SF": 260.49000000000001, 
        "Name": "PATIENT PATIO (W/ STAFF ONLY)", 
        "NCES_Occupancy Status": "", 
        "NCES_Department": "CCUSO", 
        "Level": "LEVEL 2", 
        "Revit_UniqueId": "f14b4bf3-3578-4404-90ce-ac1312a9460f-0056fe6d"
      }, 
      "type": "Feature"
    }, 
    {
      "geometry": {
        "coordinates": [
          [
            [
              -95.571608116567859, 
              42.757035758957414
            ], 
            [
              -95.571606245747375, 
              42.757035758957414
            ], 
            [
              -95.571606245747375, 
              42.757032997326007
            ], 
            [
              -95.571606245747375, 
              42.757008973243131
            ], 
            [
              -95.571608116567859, 
              42.757008973243131
            ], 
            [
              -95.571608116567859, 
              42.756989821230285
            ], 
            [
              -95.571644197304892, 
              42.756989821230285
            ], 
            [
              -95.571680678304304, 
              42.756989821230285
            ], 
            [
              -95.571721836354925, 
              42.756989821230285
            ], 
            [
              -95.571761227600405, 
              42.756989821230285
            ], 
            [
              -95.571774615564081, 
              42.756989821230285
            ], 
            [
              -95.571776505967691, 
              42.756989821230285
            ], 
            [
              -95.571776505967691, 
              42.756990508043472
            ], 
            [
              -95.571789913514479, 
              42.756990508043472
            ], 
            [
              -95.571798332206654, 
              42.756990508043472
            ], 
            [
              -95.571798332206654, 
              42.756989821230285
            ], 
            [
              -95.571839490257261, 
              42.756989821230285
            ], 
            [
              -95.571839490257261, 
              42.756952275710603
            ], 
            [
              -95.571797229232317, 
              42.756952275710603
            ], 
            [
              -95.571757630198775, 
              42.756952275710603
            ], 
            [
              -95.571717136200164, 
              42.756952275710603
            ], 
            [
              -95.571680343397333, 
              42.756952275710603
            ], 
            [
              -95.571643967943999, 
              42.756952275710603
            ], 
            [
              -95.571605304320698, 
              42.756952275710603
            ], 
            [
              -95.571605304320698, 
              42.756923325140271
            ], 
            [
              -95.571605304320698, 
              42.756920563508864
            ], 
            [
              -95.571607175141182, 
              42.756920563508864
            ], 
            [
              -95.571607175141182, 
              42.756889080244854
            ], 
            [
              -95.571607175141182, 
              42.756886332992110
            ], 
            [
              -95.571540053964753, 
              42.756886332992110
            ], 
            [
              -95.571540053964753, 
              42.756889080244854
            ], 
            [
              -95.571540053964753, 
              42.756921262803253
            ], 
            [
              -95.571540989374995, 
              42.756921262803253
            ], 
            [
              -95.571540989374995, 
              42.756924024434660
            ], 
            [
              -95.571540989374995, 
              42.756952275710603
            ], 
            [
              -95.571503884768759, 
              42.756952275710603
            ], 
            [
              -95.571467624053085, 
              42.756952275710603
            ], 
            [
              -95.571430368005934, 
              42.756952275710603
            ], 
            [
              -95.571389981609030, 
              42.756952275710603
            ], 
            [
              -95.571350070772070, 
              42.756952275710603
            ], 
            [
              -95.571307665507803, 
              42.756952275710603
            ], 
            [
              -95.571303923866836, 
              42.756952275710603
            ], 
            [
              -95.571303923866836, 
              42.756951588897415
            ], 
            [
              -95.571302364849771, 
              42.756951588897415
            ], 
            [
              -95.571302364849771, 
              42.756990508043472
            ], 
            [
              -95.571307665507803, 
              42.756990508043472
            ], 
            [
              -95.571307665507803, 
              42.756989821230285
            ], 
            [
              -95.571318578627285, 
              42.756989821230285
            ], 
            [
              -95.571343091006995, 
              42.756989821230285
            ], 
            [
              -95.571360551998168, 
              42.756989821230285
            ], 
            [
              -95.571394538570274, 
              42.756989821230285
            ], 
            [
              -95.571429460552608, 
              42.756989821230285
            ], 
            [
              -95.571440997278913, 
              42.756989821230285
            ], 
            [
              -95.571466253355425, 
              42.756989821230285
            ], 
            [
              -95.571491839444349, 
              42.756989821230285
            ], 
            [
              -95.571541349303089, 
              42.756989821230285
            ], 
            [
              -95.571541349303089, 
              42.757008973243131
            ], 
            [
              -95.571543220123573, 
              42.757008973243131
            ], 
            [
              -95.571543220123573, 
              42.757032997326007
            ], 
            [
              -95.571543220123573, 
              42.757035758957414
            ], 
            [
              -95.571541349303089, 
              42.757035758957414
            ], 
            [
              -95.571541349303089, 
              42.757040108774270
            ], 
            [
              -95.571608116567859, 
              42.757040108774270
            ], 
            [
              -95.571608116567859, 
              42.757035758957414
            ]
          ]
        ], 
        "type": "Polygon"
      }, 
      "properties": {
        "Seat Count": "", 
        "Number": "156", 
        "NCES_Type": "Corridor/Hallway", 
        "Workstations": "", 
        "Element": "Room", 
        "RevitId": 5702656, 
        "occupancyStatus": "Occupied", 
        "Building": "North A", 
        "Area_SF": 2687.3200000000002, 
        "Name": "CORRIDOR", 
        "NCES_Occupancy Status": "", 
        "NCES_Department": "CCUSO", 
        "Level": "LEVEL 2", 
        "Revit_UniqueId": "7b110d46-b9ca-4cf5-900e-4d5b9f499b2a-00570400"
      }, 
      "type": "Feature"
    }, 
    {
      "geometry": {
        "coordinates": [
          [
            [
              -95.571680678304304, 
              42.757035758957414
            ], 
            [
              -95.571737738329020, 
              42.757035758957414
            ], 
            [
              -95.571737738329020, 
              42.757006304746767
            ], 
            [
              -95.571721836354925, 
              42.757006304746767
            ], 
            [
              -95.571721836354925, 
              42.756989821230285
            ], 
            [
              -95.571680678304304, 
              42.756989821230285
            ], 
            [
              -95.571680678304304, 
              42.757035758957414
            ]
          ]
        ], 
        "type": "Polygon"
      }, 
      "properties": {
        "Seat Count": "", 
        "Number": "157", 
        "NCES_Type": "Laundry", 
        "Workstations": "", 
        "Element": "Room", 
        "RevitId": 5702659, 
        "occupancyStatus": "Occupied", 
        "Building": "North A", 
        "Area_SF": 196.19999999999999, 
        "Name": "LAUNDRY", 
        "NCES_Occupancy Status": "", 
        "NCES_Department": "CCUSO", 
        "Level": "LEVEL 2", 
        "Revit_UniqueId": "7b110d46-b9ca-4cf5-900e-4d5b9f499b2a-00570403"
      }, 
      "type": "Feature"
    }, 
    {
      "geometry": {
        "coordinates": [
          [
            [
              -95.571644197304892, 
              42.757035758957414
            ], 
            [
              -95.571680678304304, 
              42.757035758957414
            ], 
            [
              -95.571680678304304, 
              42.756989821230285
            ], 
            [
              -95.571644197304892, 
              42.756989821230285
            ], 
            [
              -95.571644197304892, 
              42.757035758957414
            ]
          ]
        ], 
        "type": "Polygon"
      }, 
      "properties": {
        "Seat Count": "", 
        "Number": "158", 
        "NCES_Type": "Patient Room", 
        "Workstations": "", 
        "Element": "Room", 
        "RevitId": 5702662, 
        "occupancyStatus": "Occupied", 
        "Building": "North A", 
        "Area_SF": 135.99000000000001, 
        "Name": "PATIENT\r\nROOM", 
        "NCES_Occupancy Status": "", 
        "NCES_Department": "CCUSO", 
        "Level": "LEVEL 2", 
        "Revit_UniqueId": "7b110d46-b9ca-4cf5-900e-4d5b9f499b2a-00570406"
      }, 
      "type": "Feature"
    }, 
    {
      "geometry": {
        "coordinates": [
          [
            [
              -95.571606245747375, 
              42.757035758957414
            ], 
            [
              -95.571644197304892, 
              42.757035758957414
            ], 
            [
              -95.571644197304892, 
              42.756989821230285
            ], 
            [
              -95.571608116567859, 
              42.756989821230285
            ], 
            [
              -95.571608116567859, 
              42.757008973243131
            ], 
            [
              -95.571606245747375, 
              42.757008973243131
            ], 
            [
              -95.571606245747375, 
              42.757035758957414
            ]
          ]
        ], 
        "type": "Polygon"
      }, 
      "properties": {
        "Seat Count": "", 
        "Number": "159", 
        "NCES_Type": "Patient Room", 
        "Workstations": "", 
        "Element": "Room", 
        "RevitId": 5702665, 
        "occupancyStatus": "Occupied", 
        "Building": "North A", 
        "Area_SF": 133.16000000000000, 
        "Name": "PATIENT\r\nROOM", 
        "NCES_Occupancy Status": "", 
        "NCES_Department": "CCUSO", 
        "Level": "LEVEL 2", 
        "Revit_UniqueId": "7b110d46-b9ca-4cf5-900e-4d5b9f499b2a-00570409"
      }, 
      "type": "Feature"
    }, 
    {
      "geometry": {
        "coordinates": [
          [
            [
              -95.571491839444349, 
              42.757035758957414
            ], 
            [
              -95.571543220123573, 
              42.757035758957414
            ], 
            [
              -95.571543220123573, 
              42.757008973243131
            ], 
            [
              -95.571541349303089, 
              42.757008973243131
            ], 
            [
              -95.571541349303089, 
              42.756989821230285
            ], 
            [
              -95.571491839444349, 
              42.756989821230285
            ], 
            [
              -95.571491839444349, 
              42.757035758957414
            ]
          ]
        ], 
        "type": "Polygon"
      }, 
      "properties": {
        "Seat Count": "", 
        "Number": "160", 
        "NCES_Type": "Medical/Nurse Triage Room", 
        "Workstations": "", 
        "Element": "Room", 
        "RevitId": 5702668, 
        "occupancyStatus": "Occupied", 
        "Building": "North A", 
        "Area_SF": 188.13999999999999, 
        "Name": "NURSE STATION", 
        "NCES_Occupancy Status": "", 
        "NCES_Department": "CCUSO", 
        "Level": "LEVEL 2", 
        "Revit_UniqueId": "7b110d46-b9ca-4cf5-900e-4d5b9f499b2a-0057040c"
      }, 
      "type": "Feature"
    }, 
    {
      "geometry": {
        "coordinates": [
          [
            [
              -95.571465941552020, 
              42.757035758957414
            ], 
            [
              -95.571491839444349, 
              42.757035758957414
            ], 
            [
              -95.571491839444349, 
              42.756989821230285
            ], 
            [
              -95.571466253355425, 
              42.756989821230285
            ], 
            [
              -95.571466253355425, 
              42.756998749801717
            ], 
            [
              -95.571465941552020, 
              42.756998749801717
            ], 
            [
              -95.571465941552020, 
              42.757035758957414
            ]
          ]
        ], 
        "type": "Polygon"
      }, 
      "properties": {
        "Seat Count": "", 
        "Number": "161", 
        "NCES_Type": "Medical/Nurse Triage Room", 
        "Workstations": "", 
        "Element": "Room", 
        "RevitId": 5702671, 
        "occupancyStatus": "Occupied", 
        "Building": "North A", 
        "Area_SF": 95.719999999999999, 
        "Name": "MED\r\nROOM", 
        "NCES_Occupancy Status": "", 
        "NCES_Department": "CCUSO", 
        "Level": "LEVEL 2", 
        "Revit_UniqueId": "7b110d46-b9ca-4cf5-900e-4d5b9f499b2a-0057040f"
      }, 
      "type": "Feature"
    }, 
    {
      "geometry": {
        "coordinates": [
          [
            [
              -95.571440997278913, 
              42.757035758957414
            ], 
            [
              -95.571465941552020, 
              42.757035758957414
            ], 
            [
              -95.571465941552020, 
              42.756998749801717
            ], 
            [
              -95.571466253355425, 
              42.756998749801717
            ], 
            [
              -95.571466253355425, 
              42.756989821230285
            ], 
            [
              -95.571440997278913, 
              42.756989821230285
            ], 
            [
              -95.571440997278913, 
              42.756996931820851
            ], 
            [
              -95.571440997278913, 
              42.757006547205464
            ], 
            [
              -95.571440997278913, 
              42.757014560025979
            ], 
            [
              -95.571445362526717, 
              42.757014560025979
            ], 
            [
              -95.571445362526717, 
              42.757028661887823
            ], 
            [
              -95.571440997278913, 
              42.757028661887823
            ], 
            [
              -95.571440997278913, 
              42.757030951265108
            ], 
            [
              -95.571440997278913, 
              42.757035758957414
            ]
          ]
        ], 
        "type": "Polygon"
      }, 
      "properties": {
        "Seat Count": "", 
        "Number": "162", 
        "NCES_Type": "", 
        "Workstations": "", 
        "Element": "Room", 
        "RevitId": 5702674, 
        "occupancyStatus": "Occupied", 
        "Building": "North A", 
        "Area_SF": 85.75, 
        "Name": "Room", 
        "NCES_Occupancy Status": "", 
        "NCES_Department": "CCUSO", 
        "Level": "LEVEL 2", 
        "Revit_UniqueId": "7b110d46-b9ca-4cf5-900e-4d5b9f499b2a-00570412"
      }, 
      "type": "Feature"
    }, 
    {
      "geometry": {
        "coordinates": [
          [
            [
              -95.571387678895164, 
              42.757004028890449
            ], 
            [
              -95.571365852656200, 
              42.757004028890449
            ], 
            [
              -95.571365852656200, 
              42.757014102150521
            ], 
            [
              -95.571376453972263, 
              42.757014102150521
            ], 
            [
              -95.571385808074680, 
              42.757014102150521
            ], 
            [
              -95.571387678895164, 
              42.757014102150521
            ], 
            [
              -95.571387678895164, 
              42.757004028890449
            ]
          ]
        ], 
        "type": "Polygon"
      }, 
      "properties": {
        "Seat Count": "", 
        "Number": "163", 
        "NCES_Type": "", 
        "Workstations": "", 
        "Element": "Room", 
        "RevitId": 5702677, 
        "occupancyStatus": "Occupied", 
        "Building": "North A", 
        "Area_SF": 16.440000000000001, 
        "Name": "Room", 
        "NCES_Occupancy Status": "", 
        "NCES_Department": "CCUSO", 
        "Level": "LEVEL 2", 
        "Revit_UniqueId": "7b110d46-b9ca-4cf5-900e-4d5b9f499b2a-00570415"
      }, 
      "type": "Feature"
    }, 
    {
      "geometry": {
        "coordinates": [
          [
            [
              -95.571394538570274, 
              42.756989821230285
            ], 
            [
              -95.571360551998168, 
              42.756989821230285
            ], 
            [
              -95.571360551998168, 
              42.757004028890449
            ], 
            [
              -95.571365852656200, 
              42.757004028890449
            ], 
            [
              -95.571387678895164, 
              42.757004028890449
            ], 
            [
              -95.571392667749791, 
              42.757004028890449
            ], 
            [
              -95.571394538570274, 
              42.757004028890449
            ], 
            [
              -95.571394538570274, 
              42.756989821230285
            ]
          ]
        ], 
        "type": "Polygon"
      }, 
      "properties": {
        "Seat Count": "", 
        "Number": "164", 
        "NCES_Type": "", 
        "Workstations": "", 
        "Element": "Room", 
        "RevitId": 5702683, 
        "occupancyStatus": "Occupied", 
        "Building": "North A", 
        "Area_SF": 35.090000000000003, 
        "Name": "Room", 
        "NCES_Occupancy Status": "", 
        "NCES_Department": "CCUSO", 
        "Level": "LEVEL 2", 
        "Revit_UniqueId": "7b110d46-b9ca-4cf5-900e-4d5b9f499b2a-0057041b"
      }, 
      "type": "Feature"
    }, 
    {
      "geometry": {
        "coordinates": [
          [
            [
              -95.571307665507803, 
              42.756952275710603
            ], 
            [
              -95.571350070772070, 
              42.756952275710603
            ], 
            [
              -95.571350070772070, 
              42.756907255303958
            ], 
            [
              -95.571307665507803, 
              42.756907255303958
            ], 
            [
              -95.571307665507803, 
              42.756952275710603
            ]
          ]
        ], 
        "type": "Polygon"
      }, 
      "properties": {
        "Seat Count": "", 
        "Number": "165", 
        "NCES_Type": "Patient Room", 
        "Workstations": "", 
        "Element": "Room", 
        "RevitId": 5702686, 
        "occupancyStatus": "Occupied", 
        "Building": "North A", 
        "Area_SF": 143.93000000000001, 
        "Name": "PATIENT\r\nROOM", 
        "NCES_Occupancy Status": "", 
        "NCES_Department": "CCUSO", 
        "Level": "LEVEL 2", 
        "Revit_UniqueId": "7b110d46-b9ca-4cf5-900e-4d5b9f499b2a-0057041e"
      }, 
      "type": "Feature"
    }, 
    {
      "geometry": {
        "coordinates": [
          [
            [
              -95.571350070772070, 
              42.756952275710603
            ], 
            [
              -95.571389981609030, 
              42.756952275710603
            ], 
            [
              -95.571389981609030, 
              42.756907255303958
            ], 
            [
              -95.571350070772070, 
              42.756907255303958
            ], 
            [
              -95.571350070772070, 
              42.756952275710603
            ]
          ]
        ], 
        "type": "Polygon"
      }, 
      "properties": {
        "Seat Count": "", 
        "Number": "166", 
        "NCES_Type": "Patient Room", 
        "Workstations": "", 
        "Element": "Room", 
        "RevitId": 5702689, 
        "occupancyStatus": "Occupied", 
        "Building": "North A", 
        "Area_SF": 141.5, 
        "Name": "PATIENT\r\nROOM", 
        "NCES_Occupancy Status": "", 
        "NCES_Department": "CCUSO", 
        "Level": "LEVEL 2", 
        "Revit_UniqueId": "7b110d46-b9ca-4cf5-900e-4d5b9f499b2a-00570421"
      }, 
      "type": "Feature"
    }, 
    {
      "geometry": {
        "coordinates": [
          [
            [
              -95.571389981609030, 
              42.756952275710603
            ], 
            [
              -95.571430368005934, 
              42.756952275710603
            ], 
            [
              -95.571430368005934, 
              42.756924024434660
            ], 
            [
              -95.571430368005934, 
              42.756921262803253
            ], 
            [
              -95.571432238826418, 
              42.756921262803253
            ], 
            [
              -95.571432238826418, 
              42.756907255303958
            ], 
            [
              -95.571389981609030, 
              42.756907255303958
            ], 
            [
              -95.571389981609030, 
              42.756952275710603
            ]
          ]
        ], 
        "type": "Polygon"
      }, 
      "properties": {
        "Seat Count": "", 
        "Number": "167", 
        "NCES_Type": "Patient Room", 
        "Workstations": "", 
        "Element": "Room", 
        "RevitId": 5702692, 
        "occupancyStatus": "Occupied", 
        "Building": "North A", 
        "Area_SF": 143.36000000000001, 
        "Name": "PATIENT\r\nROOM", 
        "NCES_Occupancy Status": "", 
        "NCES_Department": "CCUSO", 
        "Level": "LEVEL 2", 
        "Revit_UniqueId": "7b110d46-b9ca-4cf5-900e-4d5b9f499b2a-00570424"
      }, 
      "type": "Feature"
    }, 
    {
      "geometry": {
        "coordinates": [
          [
            [
              -95.571430368005934, 
              42.756952275710603
            ], 
            [
              -95.571467624053085, 
              42.756952275710603
            ], 
            [
              -95.571467624053085, 
              42.756921262803253
            ], 
            [
              -95.571430368005934, 
              42.756921262803253
            ], 
            [
              -95.571430368005934, 
              42.756952275710603
            ]
          ]
        ], 
        "type": "Polygon"
      }, 
      "properties": {
        "Seat Count": "", 
        "Number": "168", 
        "NCES_Type": "Patient Room", 
        "Workstations": "", 
        "Element": "Room", 
        "RevitId": 5702695, 
        "occupancyStatus": "Occupied", 
        "Building": "North A", 
        "Area_SF": 85.439999999999998, 
        "Name": "PATIENT\r\nROOM", 
        "NCES_Occupancy Status": "", 
        "NCES_Department": "CCUSO", 
        "Level": "LEVEL 2", 
        "Revit_UniqueId": "7b110d46-b9ca-4cf5-900e-4d5b9f499b2a-00570427"
      }, 
      "type": "Feature"
    }, 
    {
      "geometry": {
        "coordinates": [
          [
            [
              -95.571467624053085, 
              42.756952275710603
            ], 
            [
              -95.571503884768759, 
              42.756952275710603
            ], 
            [
              -95.571503884768759, 
              42.756921262803253
            ], 
            [
              -95.571467624053085, 
              42.756921262803253
            ], 
            [
              -95.571467624053085, 
              42.756952275710603
            ]
          ]
        ], 
        "type": "Polygon"
      }, 
      "properties": {
        "Seat Count": "", 
        "Number": "169", 
        "NCES_Type": "", 
        "Workstations": "", 
        "Element": "Room", 
        "RevitId": 5702698, 
        "occupancyStatus": "Occupied", 
        "Building": "North A", 
        "Area_SF": 82.900000000000006, 
        "Name": "Room", 
        "NCES_Occupancy Status": "", 
        "NCES_Department": "CCUSO", 
        "Level": "LEVEL 2", 
        "Revit_UniqueId": "7b110d46-b9ca-4cf5-900e-4d5b9f499b2a-0057042a"
      }, 
      "type": "Feature"
    }, 
    {
      "geometry": {
        "coordinates": [
          [
            [
              -95.571503884768759, 
              42.756952275710603
            ], 
            [
              -95.571540989374995, 
              42.756952275710603
            ], 
            [
              -95.571540989374995, 
              42.756921262803253
            ], 
            [
              -95.571503884768759, 
              42.756921262803253
            ], 
            [
              -95.571503884768759, 
              42.756952275710603
            ]
          ]
        ], 
        "type": "Polygon"
      }, 
      "properties": {
        "Seat Count": "", 
        "Number": "170", 
        "NCES_Type": "", 
        "Workstations": "", 
        "Element": "Room", 
        "RevitId": 5702701, 
        "occupancyStatus": "Occupied", 
        "Building": "North A", 
        "Area_SF": 82.670000000000002, 
        "Name": "Room", 
        "NCES_Occupancy Status": "", 
        "NCES_Department": "CCUSO", 
        "Level": "LEVEL 2", 
        "Revit_UniqueId": "7b110d46-b9ca-4cf5-900e-4d5b9f499b2a-0057042d"
      }, 
      "type": "Feature"
    }, 
    {
      "geometry": {
        "coordinates": [
          [
            [
              -95.571605304320698, 
              42.756952275710603
            ], 
            [
              -95.571643967943999, 
              42.756952275710603
            ], 
            [
              -95.571643967943999, 
              42.756920563508864
            ], 
            [
              -95.571605304320698, 
              42.756920563508864
            ], 
            [
              -95.571605304320698, 
              42.756952275710603
            ]
          ]
        ], 
        "type": "Polygon"
      }, 
      "properties": {
        "Seat Count": "", 
        "Number": "171", 
        "NCES_Type": "Mechanical Room", 
        "Workstations": "", 
        "Element": "Room", 
        "RevitId": 5702704, 
        "occupancyStatus": "Occupied", 
        "Building": "North A", 
        "Area_SF": 91.400000000000006, 
        "Name": "AHU ROOM", 
        "NCES_Occupancy Status": "", 
        "NCES_Department": "CCUSO", 
        "Level": "LEVEL 2", 
        "Revit_UniqueId": "7b110d46-b9ca-4cf5-900e-4d5b9f499b2a-00570430"
      }, 
      "type": "Feature"
    }, 
    {
      "geometry": {
        "coordinates": [
          [
            [
              -95.571643967943999, 
              42.756952275710603
            ], 
            [
              -95.571680343397333, 
              42.756952275710603
            ], 
            [
              -95.571680343397333, 
              42.756920563508864
            ], 
            [
              -95.571643967943999, 
              42.756920563508864
            ], 
            [
              -95.571643967943999, 
              42.756952275710603
            ]
          ]
        ], 
        "type": "Polygon"
      }, 
      "properties": {
        "Seat Count": "", 
        "Number": "172", 
        "NCES_Type": "Patient Room", 
        "Workstations": "", 
        "Element": "Room", 
        "RevitId": 5702707, 
        "occupancyStatus": "Occupied", 
        "Building": "North A", 
        "Area_SF": 85.409999999999997, 
        "Name": "PATIENT\r\nROOM", 
        "NCES_Occupancy Status": "", 
        "NCES_Department": "CCUSO", 
        "Level": "LEVEL 2", 
        "Revit_UniqueId": "7b110d46-b9ca-4cf5-900e-4d5b9f499b2a-00570433"
      }, 
      "type": "Feature"
    }, 
    {
      "geometry": {
        "coordinates": [
          [
            [
              -95.571680343397333, 
              42.756952275710603
            ], 
            [
              -95.571717136200164, 
              42.756952275710603
            ], 
            [
              -95.571717136200164, 
              42.756920563508864
            ], 
            [
              -95.571680343397333, 
              42.756920563508864
            ], 
            [
              -95.571680343397333, 
              42.756952275710603
            ]
          ]
        ], 
        "type": "Polygon"
      }, 
      "properties": {
        "Seat Count": "", 
        "Number": "173", 
        "NCES_Type": "Patient Room", 
        "Workstations": "", 
        "Element": "Room", 
        "RevitId": 5702710, 
        "occupancyStatus": "Occupied", 
        "Building": "North A", 
        "Area_SF": 86.510000000000005, 
        "Name": "PATIENT\r\nROOM", 
        "NCES_Occupancy Status": "", 
        "NCES_Department": "CCUSO", 
        "Level": "LEVEL 2", 
        "Revit_UniqueId": "7b110d46-b9ca-4cf5-900e-4d5b9f499b2a-00570436"
      }, 
      "type": "Feature"
    }, 
    {
      "geometry": {
        "coordinates": [
          [
            [
              -95.571757630198775, 
              42.756906148996016
            ], 
            [
              -95.571715265379680, 
              42.756906148996016
            ], 
            [
              -95.571715265379680, 
              42.756920563508864
            ], 
            [
              -95.571717136200164, 
              42.756920563508864
            ], 
            [
              -95.571717136200164, 
              42.756923325140271
            ], 
            [
              -95.571717136200164, 
              42.756952275710603
            ], 
            [
              -95.571757630198775, 
              42.756952275710603
            ], 
            [
              -95.571757630198775, 
              42.756906148996016
            ]
          ]
        ], 
        "type": "Polygon"
      }, 
      "properties": {
        "Seat Count": "", 
        "Number": "174", 
        "NCES_Type": "Patient Room", 
        "Workstations": "", 
        "Element": "Room", 
        "RevitId": 5702713, 
        "occupancyStatus": "Occupied", 
        "Building": "North A", 
        "Area_SF": 147.72999999999999, 
        "Name": "PATIENT\r\nROOM", 
        "NCES_Occupancy Status": "", 
        "NCES_Department": "CCUSO", 
        "Level": "LEVEL 2", 
        "Revit_UniqueId": "7b110d46-b9ca-4cf5-900e-4d5b9f499b2a-00570439"
      }, 
      "type": "Feature"
    }, 
    {
      "geometry": {
        "coordinates": [
          [
            [
              -95.571797229232317, 
              42.756906148996016
            ], 
            [
              -95.571757630198775, 
              42.756906148996016
            ], 
            [
              -95.571757630198775, 
              42.756952275710603
            ], 
            [
              -95.571797229232317, 
              42.756952275710603
            ], 
            [
              -95.571797229232317, 
              42.756906148996016
            ]
          ]
        ], 
        "type": "Polygon"
      }, 
      "properties": {
        "Seat Count": "", 
        "Number": "175", 
        "NCES_Type": "Patient Room", 
        "Workstations": "", 
        "Element": "Room", 
        "RevitId": 5702716, 
        "occupancyStatus": "Occupied", 
        "Building": "North A", 
        "Area_SF": 146.63999999999999, 
        "Name": "PATIENT\r\nROOM", 
        "NCES_Occupancy Status": "", 
        "NCES_Department": "CCUSO", 
        "Level": "LEVEL 2", 
        "Revit_UniqueId": "7b110d46-b9ca-4cf5-900e-4d5b9f499b2a-0057043c"
      }, 
      "type": "Feature"
    }, 
    {
      "geometry": {
        "coordinates": [
          [
            [
              [
                -95.571776505967691, 
                42.757035758957414
              ], 
              [
                -95.571805285945942, 
                42.757035758957414
              ], 
              [
                -95.571805285945942, 
                42.757035072144227
              ], 
              [
                -95.571876377124283, 
                42.757035072144227
              ], 
              [
                -95.571876377124283, 
                42.757005617933579
              ], 
              [
                -95.571839490257261, 
                42.757005617933579
              ], 
              [
                -95.571839490257261, 
                42.756989821230285
              ], 
              [
                -95.571798332206654, 
                42.756989821230285
              ], 
              [
                -95.571798332206654, 
                42.756990508043472
              ], 
              [
                -95.571789913514479, 
                42.756990508043472
              ], 
              [
                -95.571789913514479, 
                42.757006533684496
              ], 
              [
                -95.571776505967691, 
                42.757006533684496
              ], 
              [
                -95.571776505967691, 
                42.757024541008697
              ], 
              [
                -95.571776505967691, 
                42.757035758957414
              ]
            ]
          ], 
          [
            [
              [
                -95.571816105001233, 
                42.757021335880495
              ], 
              [
                -95.571794278762269, 
                42.757021335880495
              ], 
              [
                -95.571794278762269, 
                42.757019046503203
              ], 
              [
                -95.571816105001233, 
                42.757019046503203
              ], 
              [
                -95.571816105001233, 
                42.757021335880495
              ]
            ]
          ]
        ], 
        "type": "MultiPolygon"
      }, 
      "properties": {
        "Seat Count": "", 
        "Number": "012K", 
        "NCES_Type": "Stair", 
        "Workstations": "", 
        "Element": "Room", 
        "RevitId": 5954319, 
        "occupancyStatus": "Occupied", 
        "Building": "North A", 
        "Area_SF": 292.20999999999998, 
        "Name": "STAIR", 
        "NCES_Occupancy Status": "", 
        "NCES_Department": "CCUSO", 
        "Level": "LEVEL 2", 
        "Revit_UniqueId": "d0bc729f-70f7-4d66-9f3f-6c017974e40b-005adb0f"
      }, 
      "type": "Feature"
    }, 
    {
      "geometry": {
        "coordinates": [
          [
            [
              -95.571839490257261, 
              42.756952275710603
            ], 
            [
              -95.571839490257261, 
              42.756906148996016
            ], 
            [
              -95.571797229232317, 
              42.756906148996016
            ], 
            [
              -95.571797229232317, 
              42.756952275710603
            ], 
            [
              -95.571839490257261, 
              42.756952275710603
            ]
          ]
        ], 
        "type": "Polygon"
      }, 
      "properties": {
        "Seat Count": "", 
        "Number": "012M", 
        "NCES_Type": "Secure Interview", 
        "Workstations": "", 
        "Element": "Room", 
        "RevitId": 5958097, 
        "occupancyStatus": "Occupied", 
        "Building": "North A", 
        "Area_SF": 149.81999999999999, 
        "Name": "INTERVIEW\r\nROOM", 
        "NCES_Occupancy Status": "", 
        "NCES_Department": "CCUSO", 
        "Level": "LEVEL 2", 
        "Revit_UniqueId": "d0bc729f-70f7-4d66-9f3f-6c017974e40b-005ae9d1"
      }, 
      "type": "Feature"
    }, 
    {
      "geometry": {
        "coordinates": [
          [
            [
              -95.571284280251774, 
              42.757108743741540
            ], 
            [
              -95.571283344841532, 
              42.757108743741540
            ], 
            [
              -95.571247487448943, 
              42.757108743741540
            ], 
            [
              -95.571247487448943, 
              42.757140524592330
            ], 
            [
              -95.571284280251774, 
              42.757140524592330
            ], 
            [
              -95.571284280251774, 
              42.757108743741540
            ]
          ]
        ], 
        "type": "Polygon"
      }, 
      "properties": {
        "Seat Count": "", 
        "Number": "012QQ", 
        "NCES_Type": "Private Office - Enclosed", 
        "Workstations": "", 
        "Element": "Room", 
        "RevitId": 5963822, 
        "occupancyStatus": "Occupied", 
        "Building": "North A", 
        "Area_SF": 88.359999999999999, 
        "Name": "PRP STAFF", 
        "NCES_Occupancy Status": "", 
        "NCES_Department": "CCUSO", 
        "Level": "LEVEL 2", 
        "Revit_UniqueId": "9ab5b8f0-ca7f-4f32-b5ae-3b2d2971185f-005b002e"
      }, 
      "type": "Feature"
    }, 
    {
      "geometry": {
        "coordinates": [
          [
            [
              -95.571103092247398, 
              42.757178070379879
            ], 
            [
              -95.571192224642488, 
              42.757178070379879
            ], 
            [
              -95.571206634197566, 
              42.757178070379879
            ], 
            [
              -95.571206634197566, 
              42.757177383566692
            ], 
            [
              -95.571231615887982, 
              42.757177383566692
            ], 
            [
              -95.571245627458481, 
              42.757177383566692
            ], 
            [
              -95.571247480444768, 
              42.757177383566692
            ], 
            [
              -95.571247480444768, 
              42.757178070379879
            ], 
            [
              -95.571247517862091, 
              42.757178070379879
            ], 
            [
              -95.571303803776871, 
              42.757178070379879
            ], 
            [
              -95.571344961827478, 
              42.757178070379879
            ], 
            [
              -95.571348703468445, 
              42.757178070379879
            ], 
            [
              -95.571348703468445, 
              42.757178757193067
            ], 
            [
              -95.571350886092347, 
              42.757178757193067
            ], 
            [
              -95.571350886092347, 
              42.757139837779150
            ], 
            [
              -95.571344961827478, 
              42.757139837779150
            ], 
            [
              -95.571344961827478, 
              42.757140524592330
            ], 
            [
              -95.571341200603399, 
              42.757140524592330
            ], 
            [
              -95.571284280251774, 
              42.757140524592330
            ], 
            [
              -95.571247487448943, 
              42.757140524592330
            ], 
            [
              -95.571211630056368, 
              42.757140524592330
            ], 
            [
              -95.571175772663779, 
              42.757140524592330
            ], 
            [
              -95.571138979860962, 
              42.757140524592330
            ], 
            [
              -95.571100939844484, 
              42.757140524592330
            ], 
            [
              -95.571036396537835, 
              42.757140524592330
            ], 
            [
              -95.570999681685862, 
              42.757140524592330
            ], 
            [
              -95.57096343453901, 
              42.757140524592330
            ], 
            [
              -95.570925827609102, 
              42.757140524592330
            ], 
            [
              -95.570801861919463, 
              42.757140524592330
            ], 
            [
              -95.570801861919463, 
              42.757139837779150
            ], 
            [
              -95.570795625851190, 
              42.757139837779150
            ], 
            [
              -95.570795625851190, 
              42.757178070379879
            ], 
            [
              -95.570802729483546, 
              42.757178070379879
            ], 
            [
              -95.570813018996191, 
              42.757178070379879
            ], 
            [
              -95.570837963269298, 
              42.757178070379879
            ], 
            [
              -95.570855917015379, 
              42.757178070379879
            ], 
            [
              -95.570889903587471, 
              42.757178070379879
            ], 
            [
              -95.570924825569818, 
              42.757178070379879
            ], 
            [
              -95.570936362296123, 
              42.757178070379879
            ], 
            [
              -95.570960661252698, 
              42.757178070379879
            ], 
            [
              -95.570970327158534, 
              42.757178070379879
            ], 
            [
              -95.570985293722387, 
              42.757178070379879
            ], 
            [
              -95.570995271431627, 
              42.757178070379879
            ], 
            [
              -95.571035810282240, 
              42.757178070379879
            ], 
            [
              -95.571103092247398, 
              42.757178070379879
            ]
          ]
        ], 
        "type": "Polygon"
      }, 
      "properties": {
        "Seat Count": "", 
        "Number": "012VV", 
        "NCES_Type": "Corridor/Hallway", 
        "Workstations": "", 
        "Element": "Room", 
        "RevitId": 5964066, 
        "occupancyStatus": "Occupied", 
        "Building": "North A", 
        "Area_SF": 1936.5699999999999, 
        "Name": "CORRIDOR", 
        "NCES_Occupancy Status": "", 
        "NCES_Department": "CCUSO", 
        "Level": "LEVEL 2", 
        "Revit_UniqueId": "9ab5b8f0-ca7f-4f32-b5ae-3b2d2971185f-005b0122"
      }, 
      "type": "Feature"
    }, 
    {
      "geometry": {
        "coordinates": [
          [
            [
              -95.571936555183143, 
              42.757035072144227
            ], 
            [
              -95.571876377124283, 
              42.757035072144227
            ], 
            [
              -95.571876377124283, 
              42.757045374342034
            ], 
            [
              -95.571876377124283, 
              42.757058235893822
            ], 
            [
              -95.571876377124283, 
              42.757067622340706
            ], 
            [
              -95.571936555183143, 
              42.757067622340706
            ], 
            [
              -95.571936555183143, 
              42.757035758957414
            ], 
            [
              -95.571936555183143, 
              42.757035072144227
            ]
          ]
        ], 
        "type": "Polygon"
      }, 
      "properties": {
        "Seat Count": "", 
        "Number": "289", 
        "NCES_Type": "Kitchen", 
        "Workstations": "", 
        "Element": "Room", 
        "RevitId": 6016526, 
        "occupancyStatus": "Occupied", 
        "Building": "North A", 
        "Area_SF": 159.55000000000001, 
        "Name": "KITCHEN", 
        "NCES_Occupancy Status": "", 
        "NCES_Department": "General", 
        "Level": "LEVEL 2", 
        "Revit_UniqueId": "568ae92b-a280-451e-8461-f6d387948176-005bce0e"
      }, 
      "type": "Feature"
    }, 
    {
      "geometry": {
        "coordinates": [
          [
            [
              -95.571876377124283, 
              42.757035072144227
            ], 
            [
              -95.571805285945942, 
              42.757035072144227
            ], 
            [
              -95.571805285945942, 
              42.757035758957414
            ], 
            [
              -95.571805285945942, 
              42.757150348903224
            ], 
            [
              -95.571889503455694, 
              42.757150348903224
            ], 
            [
              -95.571889503455694, 
              42.757124115328423
            ], 
            [
              -95.571936555183143, 
              42.757124115328423
            ], 
            [
              -95.571936555183143, 
              42.757067622340706
            ], 
            [
              -95.571876377124283, 
              42.757067622340706
            ], 
            [
              -95.571876377124283, 
              42.757058235893822
            ], 
            [
              -95.571876377124283, 
              42.757045374342034
            ], 
            [
              -95.571876377124283, 
              42.757035072144227
            ]
          ]
        ], 
        "type": "Polygon"
      }, 
      "properties": {
        "Seat Count": "", 
        "Number": "290", 
        "NCES_Type": "Supervised Family Meeting/Visitation", 
        "Workstations": "", 
        "Element": "Room", 
        "RevitId": 6016529, 
        "occupancyStatus": "Occupied", 
        "Building": "North A", 
        "Area_SF": 1062.9000000000001, 
        "Name": "NURSING\r\nBREAKROOM / \r\nMHI FAMILY\r\nVISITATION", 
        "NCES_Occupancy Status": "", 
        "NCES_Department": "General", 
        "Level": "LEVEL 2", 
        "Revit_UniqueId": "568ae92b-a280-451e-8461-f6d387948176-005bce11"
      }, 
      "type": "Feature"
    }, 
    {
      "geometry": {
        "coordinates": [
          [
            [
              -95.571936555183143, 
              42.757150348903224
            ], 
            [
              -95.571936555183143, 
              42.757124115328423
            ], 
            [
              -95.571889503455694, 
              42.757124115328423
            ], 
            [
              -95.571889503455694, 
              42.757150348903224
            ], 
            [
              -95.571936555183143, 
              42.757150348903224
            ]
          ]
        ], 
        "type": "Polygon"
      }, 
      "properties": {
        "Seat Count": "", 
        "Number": "291", 
        "NCES_Type": "Single Stall Restroom", 
        "Workstations": "", 
        "Element": "Room", 
        "RevitId": 6016532, 
        "occupancyStatus": "Occupied", 
        "Building": "North A", 
        "Area_SF": 93.989999999999995, 
        "Name": "RR", 
        "NCES_Occupancy Status": "", 
        "NCES_Department": "General", 
        "Level": "LEVEL 2", 
        "Revit_UniqueId": "568ae92b-a280-451e-8461-f6d387948176-005bce14"
      }, 
      "type": "Feature"
    }, 
    {
      "geometry": {
        "coordinates": [
          [
            [
              -95.571343091006995, 
              42.756989821230285
            ], 
            [
              -95.571318578627285, 
              42.756989821230285
            ], 
            [
              -95.571318578627285, 
              42.756999207677168
            ], 
            [
              -95.571307665507803, 
              42.756999207677168
            ], 
            [
              -95.571307665507803, 
              42.757042019032482
            ], 
            [
              -95.571308600918044, 
              42.757042019032482
            ], 
            [
              -95.571308600918044, 
              42.757091760856071
            ], 
            [
              -95.571283344841532, 
              42.757091760856071
            ], 
            [
              -95.571283344841532, 
              42.757108743741540
            ], 
            [
              -95.571284280251774, 
              42.757108743741540
            ], 
            [
              -95.571284280251774, 
              42.757140524592330
            ], 
            [
              -95.571344961827478, 
              42.757140524592330
            ], 
            [
              -95.571344961827478, 
              42.757089013603320
            ], 
            [
              -95.571344026417236, 
              42.757089013603320
            ], 
            [
              -95.571344026417236, 
              42.757035758957414
            ], 
            [
              -95.571343091006995, 
              42.757035758957414
            ], 
            [
              -95.571343091006995, 
              42.756989821230285
            ]
          ]
        ], 
        "type": "Polygon"
      }, 
      "properties": {
        "Seat Count": "", 
        "Number": "350", 
        "NCES_Type": "Corridor/Hallway", 
        "Workstations": "", 
        "Element": "Room", 
        "RevitId": 6025387, 
        "occupancyStatus": "Occupied", 
        "Building": "North A", 
        "Area_SF": 518.25999999999999, 
        "Name": "CORRIDOR", 
        "NCES_Occupancy Status": "", 
        "NCES_Department": "CCUSO", 
        "Level": "LEVEL 2", 
        "Revit_UniqueId": "eef478cf-42ac-44fb-8ec0-2d083b00022a-005bf0ab"
      }, 
      "type": "Feature"
    }, 
    {
      "geometry": {
        "coordinates": [
          [
            [
              -95.572066578132279, 
              42.756994100477655
            ], 
            [
              -95.572050891848960, 
              42.757005617933579
            ], 
            [
              -95.571876377124283, 
              42.757005617933579
            ], 
            [
              -95.571876377124283, 
              42.757035072144227
            ], 
            [
              -95.571936555183143, 
              42.757035072144227
            ], 
            [
              -95.571936555183143, 
              42.757035758957414
            ], 
            [
              -95.572014309158206, 
              42.757035758957414
            ], 
            [
              -95.572049387042256, 
              42.757035758957414
            ], 
            [
              -95.572051147925521, 
              42.757035758957414
            ], 
            [
              -95.572052651991172, 
              42.757036863298666
            ], 
            [
              -95.572068718853899, 
              42.757048660190250
            ], 
            [
              -95.572068718853899, 
              42.757052242473904
            ], 
            [
              -95.572068718853899, 
              42.757112066501307
            ], 
            [
              -95.572068718853899, 
              42.757150348903224
            ], 
            [
              -95.572069654264141, 
              42.757150348903224
            ], 
            [
              -95.572069654264141, 
              42.757151736908256
            ], 
            [
              -95.572069654264141, 
              42.757210458456541
            ], 
            [
              -95.572069654264141, 
              42.757245195238887
            ], 
            [
              -95.572069654264141, 
              42.757264492157333
            ], 
            [
              -95.572069654264141, 
              42.757295856626193
            ], 
            [
              -95.572069654264141, 
              42.757348004733501
            ], 
            [
              -95.572104480900919, 
              42.757348004733501
            ], 
            [
              -95.572104480900919, 
              42.757245195238887
            ], 
            [
              -95.572104480900919, 
              42.757210458456541
            ], 
            [
              -95.572104480900919, 
              42.757151736908256
            ], 
            [
              -95.572104480900919, 
              42.757150348903224
            ], 
            [
              -95.572105416311160, 
              42.757150348903224
            ], 
            [
              -95.572105416311160, 
              42.757049458889867
            ], 
            [
              -95.572125010444566, 
              42.757035072144227
            ], 
            [
              -95.572143856874519, 
              42.757035072144227
            ], 
            [
              -95.572163411746118, 
              42.757035072144227
            ], 
            [
              -95.572237351442993, 
              42.757035072144227
            ], 
            [
              -95.572275649754303, 
              42.757035072144227
            ], 
            [
              -95.572275649754303, 
              42.757005617933579
            ], 
            [
              -95.572122973414949, 
              42.757005617933579
            ], 
            [
              -95.572107287131644, 
              42.756994100477655
            ], 
            [
              -95.572107287131644, 
              42.756904944824697
            ], 
            [
              -95.572066578132279, 
              42.756904944824697
            ], 
            [
              -95.572066578132279, 
              42.756994100477655
            ]
          ]
        ], 
        "type": "Polygon"
      }, 
      "properties": {
        "Seat Count": "", 
        "Number": "57", 
        "NCES_Type": "Corridor/Hallway", 
        "Workstations": "", 
        "Element": "Room", 
        "RevitId": 6034322, 
        "occupancyStatus": "Occupied", 
        "Building": "North A", 
        "Area_SF": 2286.6399999999999, 
        "Name": "CORRIDOR", 
        "NCES_Occupancy Status": "", 
        "NCES_Department": "General", 
        "Level": "LEVEL 2", 
        "Revit_UniqueId": "2cc3fb41-b675-463a-99e2-3d1988e37f16-005c1392"
      }, 
      "type": "Feature"
    }
  ], 
  "type": "FeatureCollection", 
  "name": "North A - LEVEL 2"
}