{
  "features": [
    {
      "geometry": {
        "coordinates": [
          [
            [
              [
                -95.571835748616294, 
                42.757035758957414
              ], 
              [
                -95.571839490257261, 
                42.757035758957414
              ], 
              [
                -95.571839490257261, 
                42.757005617933579
              ], 
              [
                -95.571839490257261, 
                42.756989821230285
              ], 
              [
                -95.571817352214893, 
                42.756989821230285
              ], 
              [
                -95.571817352214893, 
                42.757007220497684
              ], 
              [
                -95.571791803918089, 
                42.757007220497684
              ], 
              [
                -95.571789913514479, 
                42.757007220497684
              ], 
              [
                -95.571789913514479, 
                42.757006533684496
              ], 
              [
                -95.571776505967691, 
                42.757006533684496
              ], 
              [
                -95.571776505967691, 
                42.757024541008697
              ], 
              [
                -95.571776505967691, 
                42.757035758957414
              ], 
              [
                -95.571835748616294, 
                42.757035758957414
              ]
            ]
          ], 
          [
            [
              [
                -95.571794902369092, 
                42.757019024358506
              ], 
              [
                -95.571817352214893, 
                42.757019024358506
              ], 
              [
                -95.571817352214893, 
                42.757022000548986
              ], 
              [
                -95.571794902369092, 
                42.757022000548986
              ], 
              [
                -95.571794902369092, 
                42.757019024358506
              ]
            ]
          ]
        ], 
        "type": "MultiPolygon"
      }, 
      "properties": {
        "Seat Count": "", 
        "Number": "183", 
        "NCES_Type": "Stair", 
        "Workstations": "", 
        "Element": "Room", 
        "RevitId": 5702797, 
        "occupancyStatus": "Occupied", 
        "Building": "North A", 
        "Area_SF": 157.05000000000001, 
        "Name": "STAIR", 
        "NCES_Occupancy Status": "", 
        "NCES_Department": "CCUSO", 
        "Level": "LEVEL 3", 
        "Revit_UniqueId": "7b110d46-b9ca-4cf5-900e-4d5b9f499b2a-0057048d"
      }, 
      "type": "Feature"
    }, 
    {
      "geometry": {
        "coordinates": [
          [
            [
              -95.571789913514479, 
              42.756990508043472
            ], 
            [
              -95.571789913514479, 
              42.757007220497684
            ], 
            [
              -95.571817352214893, 
              42.757007220497684
            ], 
            [
              -95.571817352214893, 
              42.756989821230285
            ], 
            [
              -95.571798332206654, 
              42.756989821230285
            ], 
            [
              -95.571798332206654, 
              42.756990508043472
            ], 
            [
              -95.571789913514479, 
              42.756990508043472
            ]
          ]
        ], 
        "type": "Polygon"
      }, 
      "properties": {
        "Seat Count": "", 
        "Number": "184", 
        "NCES_Type": "General Storage", 
        "Workstations": "", 
        "Element": "Room", 
        "RevitId": 5702804, 
        "occupancyStatus": "Occupied", 
        "Building": "North A", 
        "Area_SF": 34.240000000000002, 
        "Name": "STOR", 
        "NCES_Occupancy Status": "", 
        "NCES_Department": "CCUSO", 
        "Level": "LEVEL 3", 
        "Revit_UniqueId": "7b110d46-b9ca-4cf5-900e-4d5b9f499b2a-00570494"
      }, 
      "type": "Feature"
    }, 
    {
      "geometry": {
        "coordinates": [
          [
            [
              -95.571738673739262, 
              42.757035758957414
            ], 
            [
              -95.571764657437967, 
              42.757035758957414
            ], 
            [
              -95.571764657437967, 
              42.757024541008697
            ], 
            [
              -95.571776505967691, 
              42.757024541008697
            ], 
            [
              -95.571776505967691, 
              42.757006533684496
            ], 
            [
              -95.571776505967691, 
              42.757006304746767
            ], 
            [
              -95.571761227600405, 
              42.757006304746767
            ], 
            [
              -95.571761227600405, 
              42.756989821230285
            ], 
            [
              -95.571721836354925, 
              42.756989821230285
            ], 
            [
              -95.571721836354925, 
              42.757006304746767
            ], 
            [
              -95.571738673739262, 
              42.757006304746767
            ], 
            [
              -95.571738673739262, 
              42.757035758957414
            ]
          ]
        ], 
        "type": "Polygon"
      }, 
      "properties": {
        "Seat Count": "", 
        "Number": "185", 
        "NCES_Type": "Restroom - Bath/Shower", 
        "Workstations": "", 
        "Element": "Room", 
        "RevitId": 5702807, 
        "occupancyStatus": "Occupied", 
        "Building": "North A", 
        "Area_SF": 131.84000000000000, 
        "Name": "RR", 
        "NCES_Occupancy Status": "", 
        "NCES_Department": "CCUSO", 
        "Level": "LEVEL 3", 
        "Revit_UniqueId": "7b110d46-b9ca-4cf5-900e-4d5b9f499b2a-00570497"
      }, 
      "type": "Feature"
    }, 
    {
      "geometry": {
        "coordinates": [
          [
            [
              -95.571680678304304, 
              42.757035758957414
            ], 
            [
              -95.571738673739262, 
              42.757035758957414
            ], 
            [
              -95.571738673739262, 
              42.757006304746767
            ], 
            [
              -95.571721836354925, 
              42.757006304746767
            ], 
            [
              -95.571721836354925, 
              42.756989821230285
            ], 
            [
              -95.571680678304304, 
              42.756989821230285
            ], 
            [
              -95.571680678304304, 
              42.757035758957414
            ]
          ]
        ], 
        "type": "Polygon"
      }, 
      "properties": {
        "Seat Count": "", 
        "Number": "187", 
        "NCES_Type": "Kitchen", 
        "Workstations": "", 
        "Element": "Room", 
        "RevitId": 5702813, 
        "occupancyStatus": "Occupied", 
        "Building": "North A", 
        "Area_SF": 198.56999999999999, 
        "Name": "KITCHEN", 
        "NCES_Occupancy Status": "", 
        "NCES_Department": "CCUSO", 
        "Level": "LEVEL 3", 
        "Revit_UniqueId": "7b110d46-b9ca-4cf5-900e-4d5b9f499b2a-0057049d"
      }, 
      "type": "Feature"
    }, 
    {
      "geometry": {
        "coordinates": [
          [
            [
              -95.571644197304892, 
              42.757035758957414
            ], 
            [
              -95.571680678304304, 
              42.757035758957414
            ], 
            [
              -95.571680678304304, 
              42.756989821230285
            ], 
            [
              -95.571644197304892, 
              42.756989821230285
            ], 
            [
              -95.571644197304892, 
              42.757035758957414
            ]
          ]
        ], 
        "type": "Polygon"
      }, 
      "properties": {
        "Seat Count": "", 
        "Number": "188", 
        "NCES_Type": "Patient Room - Group", 
        "Workstations": "", 
        "Element": "Room", 
        "RevitId": 5702816, 
        "occupancyStatus": "Occupied", 
        "Building": "North A", 
        "Area_SF": 135.99000000000001, 
        "Name": "DOUBLE\r\nPATIENT\r\nROOM", 
        "NCES_Occupancy Status": "", 
        "NCES_Department": "CCUSO", 
        "Level": "LEVEL 3", 
        "Revit_UniqueId": "7b110d46-b9ca-4cf5-900e-4d5b9f499b2a-005704a0"
      }, 
      "type": "Feature"
    }, 
    {
      "geometry": {
        "coordinates": [
          [
            [
              -95.571606245747375, 
              42.757035758957414
            ], 
            [
              -95.571644197304892, 
              42.757035758957414
            ], 
            [
              -95.571644197304892, 
              42.756989821230285
            ], 
            [
              -95.571608116567859, 
              42.756989821230285
            ], 
            [
              -95.571608116567859, 
              42.757008973243131
            ], 
            [
              -95.571606245747375, 
              42.757008973243131
            ], 
            [
              -95.571606245747375, 
              42.757035758957414
            ]
          ]
        ], 
        "type": "Polygon"
      }, 
      "properties": {
        "Seat Count": "", 
        "Number": "189", 
        "NCES_Type": "Patient Room", 
        "Workstations": "", 
        "Element": "Room", 
        "RevitId": 5702819, 
        "occupancyStatus": "Occupied", 
        "Building": "North A", 
        "Area_SF": 133.16000000000000, 
        "Name": "PATIENT\r\nROOM", 
        "NCES_Occupancy Status": "", 
        "NCES_Department": "CCUSO", 
        "Level": "LEVEL 3", 
        "Revit_UniqueId": "7b110d46-b9ca-4cf5-900e-4d5b9f499b2a-005704a3"
      }, 
      "type": "Feature"
    }, 
    {
      "geometry": {
        "coordinates": [
          [
            [
              -95.571608116567859, 
              42.757035758957414
            ], 
            [
              -95.571606245747375, 
              42.757035758957414
            ], 
            [
              -95.571606245747375, 
              42.757032997326007
            ], 
            [
              -95.571606245747375, 
              42.757008973243131
            ], 
            [
              -95.571608116567859, 
              42.757008973243131
            ], 
            [
              -95.571608116567859, 
              42.756989821230285
            ], 
            [
              -95.571644197304892, 
              42.756989821230285
            ], 
            [
              -95.571680678304304, 
              42.756989821230285
            ], 
            [
              -95.571721836354925, 
              42.756989821230285
            ], 
            [
              -95.571761227600405, 
              42.756989821230285
            ], 
            [
              -95.571774615564081, 
              42.756989821230285
            ], 
            [
              -95.571776505967691, 
              42.756989821230285
            ], 
            [
              -95.571776505967691, 
              42.756990508043472
            ], 
            [
              -95.571789913514479, 
              42.756990508043472
            ], 
            [
              -95.571798332206654, 
              42.756990508043472
            ], 
            [
              -95.571798332206654, 
              42.756989821230285
            ], 
            [
              -95.571817352214893, 
              42.756989821230285
            ], 
            [
              -95.571839490257261, 
              42.756989821230285
            ], 
            [
              -95.571839490257261, 
              42.756952275710603
            ], 
            [
              -95.571797229232317, 
              42.756952275710603
            ], 
            [
              -95.571757630198775, 
              42.756952275710603
            ], 
            [
              -95.571717136200164, 
              42.756952275710603
            ], 
            [
              -95.571680343397333, 
              42.756952275710603
            ], 
            [
              -95.571643967943999, 
              42.756952275710603
            ], 
            [
              -95.571605304320698, 
              42.756952275710603
            ], 
            [
              -95.571605304320698, 
              42.756923325140271
            ], 
            [
              -95.571605304320698, 
              42.756920563508864
            ], 
            [
              -95.571607175141182, 
              42.756920563508864
            ], 
            [
              -95.571607175141182, 
              42.756906148996016
            ], 
            [
              -95.571540053964753, 
              42.756906148996016
            ], 
            [
              -95.571540053964753, 
              42.756921262803253
            ], 
            [
              -95.571540989374995, 
              42.756921262803253
            ], 
            [
              -95.571540989374995, 
              42.756924024434660
            ], 
            [
              -95.571540989374995, 
              42.756952275710603
            ], 
            [
              -95.571503884768759, 
              42.756952275710603
            ], 
            [
              -95.571467624053085, 
              42.756952275710603
            ], 
            [
              -95.571430368005934, 
              42.756952275710603
            ], 
            [
              -95.571389981609030, 
              42.756952275710603
            ], 
            [
              -95.571350070772070, 
              42.756952275710603
            ], 
            [
              -95.571307665507803, 
              42.756952275710603
            ], 
            [
              -95.571303923866836, 
              42.756952275710603
            ], 
            [
              -95.571303923866836, 
              42.756951588897415
            ], 
            [
              -95.571302364849771, 
              42.756951588897415
            ], 
            [
              -95.571302364849771, 
              42.756990508043472
            ], 
            [
              -95.571307665507803, 
              42.756990508043472
            ], 
            [
              -95.571307665507803, 
              42.756989821230285
            ], 
            [
              -95.571318578627285, 
              42.756989821230285
            ], 
            [
              -95.571343091006995, 
              42.756989821230285
            ], 
            [
              -95.571360551998168, 
              42.756989821230285
            ], 
            [
              -95.571394538570274, 
              42.756989821230285
            ], 
            [
              -95.571430707766268, 
              42.756989821230285
            ], 
            [
              -95.571440997278913, 
              42.756989821230285
            ], 
            [
              -95.571466253355425, 
              42.756989821230285
            ], 
            [
              -95.571491839444349, 
              42.756989821230285
            ], 
            [
              -95.571541349303089, 
              42.756989821230285
            ], 
            [
              -95.571541349303089, 
              42.757008973243131
            ], 
            [
              -95.571543220123573, 
              42.757008973243131
            ], 
            [
              -95.571543220123573, 
              42.757032997326007
            ], 
            [
              -95.571543220123573, 
              42.757035758957414
            ], 
            [
              -95.571541349303089, 
              42.757035758957414
            ], 
            [
              -95.571541349303089, 
              42.757040108774270
            ], 
            [
              -95.571608116567859, 
              42.757040108774270
            ], 
            [
              -95.571608116567859, 
              42.757035758957414
            ]
          ]
        ], 
        "type": "Polygon"
      }, 
      "properties": {
        "Seat Count": "", 
        "Number": "190", 
        "NCES_Type": "Corridor/Hallway", 
        "Workstations": "", 
        "Element": "Room", 
        "RevitId": 5702822, 
        "occupancyStatus": "Occupied", 
        "Building": "North A", 
        "Area_SF": 2468.5999999999999, 
        "Name": "CORRIDOR", 
        "NCES_Occupancy Status": "", 
        "NCES_Department": "CCUSO", 
        "Level": "LEVEL 3", 
        "Revit_UniqueId": "7b110d46-b9ca-4cf5-900e-4d5b9f499b2a-005704a6"
      }, 
      "type": "Feature"
    }, 
    {
      "geometry": {
        "coordinates": [
          [
            [
              -95.571605304320698, 
              42.756952275710603
            ], 
            [
              -95.571643967943999, 
              42.756952275710603
            ], 
            [
              -95.571643967943999, 
              42.756920563508864
            ], 
            [
              -95.571605304320698, 
              42.756920563508864
            ], 
            [
              -95.571605304320698, 
              42.756952275710603
            ]
          ]
        ], 
        "type": "Polygon"
      }, 
      "properties": {
        "Seat Count": "", 
        "Number": "191", 
        "NCES_Type": "Patient Room", 
        "Workstations": "", 
        "Element": "Room", 
        "RevitId": 5702825, 
        "occupancyStatus": "Occupied", 
        "Building": "North A", 
        "Area_SF": 91.400000000000006, 
        "Name": "PATIENT\r\nROOM", 
        "NCES_Occupancy Status": "", 
        "NCES_Department": "CCUSO", 
        "Level": "LEVEL 3", 
        "Revit_UniqueId": "7b110d46-b9ca-4cf5-900e-4d5b9f499b2a-005704a9"
      }, 
      "type": "Feature"
    }, 
    {
      "geometry": {
        "coordinates": [
          [
            [
              -95.571643967943999, 
              42.756952275710603
            ], 
            [
              -95.571680343397333, 
              42.756952275710603
            ], 
            [
              -95.571680343397333, 
              42.756920563508864
            ], 
            [
              -95.571643967943999, 
              42.756920563508864
            ], 
            [
              -95.571643967943999, 
              42.756952275710603
            ]
          ]
        ], 
        "type": "Polygon"
      }, 
      "properties": {
        "Seat Count": "", 
        "Number": "192", 
        "NCES_Type": "Patient Room", 
        "Workstations": "", 
        "Element": "Room", 
        "RevitId": 5702828, 
        "occupancyStatus": "Occupied", 
        "Building": "North A", 
        "Area_SF": 85.409999999999997, 
        "Name": "PATIENT\r\nROOM", 
        "NCES_Occupancy Status": "", 
        "NCES_Department": "CCUSO", 
        "Level": "LEVEL 3", 
        "Revit_UniqueId": "7b110d46-b9ca-4cf5-900e-4d5b9f499b2a-005704ac"
      }, 
      "type": "Feature"
    }, 
    {
      "geometry": {
        "coordinates": [
          [
            [
              -95.571680343397333, 
              42.756952275710603
            ], 
            [
              -95.571717136200164, 
              42.756952275710603
            ], 
            [
              -95.571717136200164, 
              42.756920563508864
            ], 
            [
              -95.571680343397333, 
              42.756920563508864
            ], 
            [
              -95.571680343397333, 
              42.756952275710603
            ]
          ]
        ], 
        "type": "Polygon"
      }, 
      "properties": {
        "Seat Count": "", 
        "Number": "193", 
        "NCES_Type": "Patient Room", 
        "Workstations": "", 
        "Element": "Room", 
        "RevitId": 5702831, 
        "occupancyStatus": "Occupied", 
        "Building": "North A", 
        "Area_SF": 86.510000000000005, 
        "Name": "PATIENT\r\nROOM", 
        "NCES_Occupancy Status": "", 
        "NCES_Department": "CCUSO", 
        "Level": "LEVEL 3", 
        "Revit_UniqueId": "7b110d46-b9ca-4cf5-900e-4d5b9f499b2a-005704af"
      }, 
      "type": "Feature"
    }, 
    {
      "geometry": {
        "coordinates": [
          [
            [
              -95.571757630198775, 
              42.756906148996016
            ], 
            [
              -95.571715265379680, 
              42.756906148996016
            ], 
            [
              -95.571715265379680, 
              42.756920563508864
            ], 
            [
              -95.571717136200164, 
              42.756920563508864
            ], 
            [
              -95.571717136200164, 
              42.756923325140271
            ], 
            [
              -95.571717136200164, 
              42.756952275710603
            ], 
            [
              -95.571757630198775, 
              42.756952275710603
            ], 
            [
              -95.571757630198775, 
              42.756906148996016
            ]
          ]
        ], 
        "type": "Polygon"
      }, 
      "properties": {
        "Seat Count": "", 
        "Number": "194", 
        "NCES_Type": "Patient Room", 
        "Workstations": "", 
        "Element": "Room", 
        "RevitId": 5702834, 
        "occupancyStatus": "Occupied", 
        "Building": "North A", 
        "Area_SF": 147.72999999999999, 
        "Name": "PATIENT\r\nROOM", 
        "NCES_Occupancy Status": "", 
        "NCES_Department": "CCUSO", 
        "Level": "LEVEL 3", 
        "Revit_UniqueId": "7b110d46-b9ca-4cf5-900e-4d5b9f499b2a-005704b2"
      }, 
      "type": "Feature"
    }, 
    {
      "geometry": {
        "coordinates": [
          [
            [
              -95.571797229232317, 
              42.756906148996016
            ], 
            [
              -95.571757630198775, 
              42.756906148996016
            ], 
            [
              -95.571757630198775, 
              42.756952275710603
            ], 
            [
              -95.571797229232317, 
              42.756952275710603
            ], 
            [
              -95.571797229232317, 
              42.756906148996016
            ]
          ]
        ], 
        "type": "Polygon"
      }, 
      "properties": {
        "Seat Count": "", 
        "Number": "195", 
        "NCES_Type": "Patient Room - Group", 
        "Workstations": "", 
        "Element": "Room", 
        "RevitId": 5702837, 
        "occupancyStatus": "Occupied", 
        "Building": "North A", 
        "Area_SF": 146.63999999999999, 
        "Name": "DOUBLE\r\nPATIENT\r\nROOM", 
        "NCES_Occupancy Status": "", 
        "NCES_Department": "CCUSO", 
        "Level": "LEVEL 3", 
        "Revit_UniqueId": "7b110d46-b9ca-4cf5-900e-4d5b9f499b2a-005704b5"
      }, 
      "type": "Feature"
    }, 
    {
      "geometry": {
        "coordinates": [
          [
            [
              -95.571839490257261, 
              42.756952275710603
            ], 
            [
              -95.571839490257261, 
              42.756906148996016
            ], 
            [
              -95.571797229232317, 
              42.756906148996016
            ], 
            [
              -95.571797229232317, 
              42.756952275710603
            ], 
            [
              -95.571839490257261, 
              42.756952275710603
            ]
          ]
        ], 
        "type": "Polygon"
      }, 
      "properties": {
        "Seat Count": "", 
        "Number": "196", 
        "NCES_Type": "Secure Interview", 
        "Workstations": "", 
        "Element": "Room", 
        "RevitId": 5702840, 
        "occupancyStatus": "Occupied", 
        "Building": "North A", 
        "Area_SF": 149.81999999999999, 
        "Name": "INTERVIEW ROOM", 
        "NCES_Occupancy Status": "", 
        "NCES_Department": "CCUSO", 
        "Level": "LEVEL 3", 
        "Revit_UniqueId": "7b110d46-b9ca-4cf5-900e-4d5b9f499b2a-005704b8"
      }, 
      "type": "Feature"
    }, 
    {
      "geometry": {
        "coordinates": [
          [
            [
              -95.571503884768759, 
              42.756952275710603
            ], 
            [
              -95.571540989374995, 
              42.756952275710603
            ], 
            [
              -95.571540989374995, 
              42.756921262803253
            ], 
            [
              -95.571503884768759, 
              42.756921262803253
            ], 
            [
              -95.571503884768759, 
              42.756952275710603
            ]
          ]
        ], 
        "type": "Polygon"
      }, 
      "properties": {
        "Seat Count": "", 
        "Number": "199", 
        "NCES_Type": "", 
        "Workstations": "", 
        "Element": "Room", 
        "RevitId": 5702849, 
        "occupancyStatus": "Occupied", 
        "Building": "North A", 
        "Area_SF": 82.670000000000002, 
        "Name": "Room", 
        "NCES_Occupancy Status": "", 
        "NCES_Department": "CCUSO", 
        "Level": "LEVEL 3", 
        "Revit_UniqueId": "7b110d46-b9ca-4cf5-900e-4d5b9f499b2a-005704c1"
      }, 
      "type": "Feature"
    }, 
    {
      "geometry": {
        "coordinates": [
          [
            [
              -95.571467624053085, 
              42.756952275710603
            ], 
            [
              -95.571503884768759, 
              42.756952275710603
            ], 
            [
              -95.571503884768759, 
              42.756921262803253
            ], 
            [
              -95.571467624053085, 
              42.756921262803253
            ], 
            [
              -95.571467624053085, 
              42.756952275710603
            ]
          ]
        ], 
        "type": "Polygon"
      }, 
      "properties": {
        "Seat Count": "", 
        "Number": "200", 
        "NCES_Type": "", 
        "Workstations": "", 
        "Element": "Room", 
        "RevitId": 5702852, 
        "occupancyStatus": "Occupied", 
        "Building": "North A", 
        "Area_SF": 82.900000000000006, 
        "Name": "Room", 
        "NCES_Occupancy Status": "", 
        "NCES_Department": "CCUSO", 
        "Level": "LEVEL 3", 
        "Revit_UniqueId": "7b110d46-b9ca-4cf5-900e-4d5b9f499b2a-005704c4"
      }, 
      "type": "Feature"
    }, 
    {
      "geometry": {
        "coordinates": [
          [
            [
              -95.571430368005934, 
              42.756952275710603
            ], 
            [
              -95.571467624053085, 
              42.756952275710603
            ], 
            [
              -95.571467624053085, 
              42.756921262803253
            ], 
            [
              -95.571430368005934, 
              42.756921262803253
            ], 
            [
              -95.571430368005934, 
              42.756952275710603
            ]
          ]
        ], 
        "type": "Polygon"
      }, 
      "properties": {
        "Seat Count": "", 
        "Number": "201", 
        "NCES_Type": "Patient Room", 
        "Workstations": "", 
        "Element": "Room", 
        "RevitId": 5702855, 
        "occupancyStatus": "Occupied", 
        "Building": "North A", 
        "Area_SF": 85.439999999999998, 
        "Name": "PATIENT\r\nROOM", 
        "NCES_Occupancy Status": "", 
        "NCES_Department": "CCUSO", 
        "Level": "LEVEL 3", 
        "Revit_UniqueId": "7b110d46-b9ca-4cf5-900e-4d5b9f499b2a-005704c7"
      }, 
      "type": "Feature"
    }, 
    {
      "geometry": {
        "coordinates": [
          [
            [
              -95.571389981609030, 
              42.756952275710603
            ], 
            [
              -95.571430368005934, 
              42.756952275710603
            ], 
            [
              -95.571430368005934, 
              42.756924024434660
            ], 
            [
              -95.571430368005934, 
              42.756921262803253
            ], 
            [
              -95.571432238826418, 
              42.756921262803253
            ], 
            [
              -95.571432238826418, 
              42.756907255303958
            ], 
            [
              -95.571389981609030, 
              42.756907255303958
            ], 
            [
              -95.571389981609030, 
              42.756952275710603
            ]
          ]
        ], 
        "type": "Polygon"
      }, 
      "properties": {
        "Seat Count": "", 
        "Number": "202", 
        "NCES_Type": "Patient Room", 
        "Workstations": "", 
        "Element": "Room", 
        "RevitId": 5702858, 
        "occupancyStatus": "Occupied", 
        "Building": "North A", 
        "Area_SF": 143.36000000000001, 
        "Name": "PATIENT\r\nROOM", 
        "NCES_Occupancy Status": "", 
        "NCES_Department": "CCUSO", 
        "Level": "LEVEL 3", 
        "Revit_UniqueId": "7b110d46-b9ca-4cf5-900e-4d5b9f499b2a-005704ca"
      }, 
      "type": "Feature"
    }, 
    {
      "geometry": {
        "coordinates": [
          [
            [
              -95.571350070772070, 
              42.756952275710603
            ], 
            [
              -95.571389981609030, 
              42.756952275710603
            ], 
            [
              -95.571389981609030, 
              42.756907255303958
            ], 
            [
              -95.571350070772070, 
              42.756907255303958
            ], 
            [
              -95.571350070772070, 
              42.756952275710603
            ]
          ]
        ], 
        "type": "Polygon"
      }, 
      "properties": {
        "Seat Count": "", 
        "Number": "203", 
        "NCES_Type": "Patient Room", 
        "Workstations": "", 
        "Element": "Room", 
        "RevitId": 5702861, 
        "occupancyStatus": "Occupied", 
        "Building": "North A", 
        "Area_SF": 141.5, 
        "Name": "PATIENT\r\nROOM", 
        "NCES_Occupancy Status": "", 
        "NCES_Department": "CCUSO", 
        "Level": "LEVEL 3", 
        "Revit_UniqueId": "7b110d46-b9ca-4cf5-900e-4d5b9f499b2a-005704cd"
      }, 
      "type": "Feature"
    }, 
    {
      "geometry": {
        "coordinates": [
          [
            [
              -95.571307665507803, 
              42.756952275710603
            ], 
            [
              -95.571350070772070, 
              42.756952275710603
            ], 
            [
              -95.571350070772070, 
              42.756907255303958
            ], 
            [
              -95.571307665507803, 
              42.756907255303958
            ], 
            [
              -95.571307665507803, 
              42.756952275710603
            ]
          ]
        ], 
        "type": "Polygon"
      }, 
      "properties": {
        "Seat Count": "", 
        "Number": "204", 
        "NCES_Type": "Patient Room", 
        "Workstations": "", 
        "Element": "Room", 
        "RevitId": 5702864, 
        "occupancyStatus": "Occupied", 
        "Building": "North A", 
        "Area_SF": 143.93000000000001, 
        "Name": "PATIENT\r\nROOM", 
        "NCES_Occupancy Status": "", 
        "NCES_Department": "CCUSO", 
        "Level": "LEVEL 3", 
        "Revit_UniqueId": "7b110d46-b9ca-4cf5-900e-4d5b9f499b2a-005704d0"
      }, 
      "type": "Feature"
    }, 
    {
      "geometry": {
        "coordinates": [
          [
            [
              -95.571491839444349, 
              42.757035758957414
            ], 
            [
              -95.571543220123573, 
              42.757035758957414
            ], 
            [
              -95.571543220123573, 
              42.757008973243131
            ], 
            [
              -95.571541349303089, 
              42.757008973243131
            ], 
            [
              -95.571541349303089, 
              42.756989821230285
            ], 
            [
              -95.571491839444349, 
              42.756989821230285
            ], 
            [
              -95.571491839444349, 
              42.757035758957414
            ]
          ]
        ], 
        "type": "Polygon"
      }, 
      "properties": {
        "Seat Count": "", 
        "Number": "205", 
        "NCES_Type": "", 
        "Workstations": "", 
        "Element": "Room", 
        "RevitId": 5702867, 
        "occupancyStatus": "Occupied", 
        "Building": "North A", 
        "Area_SF": 188.13999999999999, 
        "Name": "Room", 
        "NCES_Occupancy Status": "", 
        "NCES_Department": "CCUSO", 
        "Level": "LEVEL 3", 
        "Revit_UniqueId": "7b110d46-b9ca-4cf5-900e-4d5b9f499b2a-005704d3"
      }, 
      "type": "Feature"
    }, 
    {
      "geometry": {
        "coordinates": [
          [
            [
              -95.571465941552020, 
              42.757035758957414
            ], 
            [
              -95.571491839444349, 
              42.757035758957414
            ], 
            [
              -95.571491839444349, 
              42.756989821230285
            ], 
            [
              -95.571466253355425, 
              42.756989821230285
            ], 
            [
              -95.571466253355425, 
              42.756998749801717
            ], 
            [
              -95.571465941552020, 
              42.756998749801717
            ], 
            [
              -95.571465941552020, 
              42.757035758957414
            ]
          ]
        ], 
        "type": "Polygon"
      }, 
      "properties": {
        "Seat Count": "", 
        "Number": "208", 
        "NCES_Type": "", 
        "Workstations": "", 
        "Element": "Room", 
        "RevitId": 5702876, 
        "occupancyStatus": "Occupied", 
        "Building": "North A", 
        "Area_SF": 95.719999999999999, 
        "Name": "Room", 
        "NCES_Occupancy Status": "", 
        "NCES_Department": "CCUSO", 
        "Level": "LEVEL 3", 
        "Revit_UniqueId": "7b110d46-b9ca-4cf5-900e-4d5b9f499b2a-005704dc"
      }, 
      "type": "Feature"
    }, 
    {
      "geometry": {
        "coordinates": [
          [
            [
              -95.571440997278913, 
              42.757035758957414
            ], 
            [
              -95.571465941552020, 
              42.757035758957414
            ], 
            [
              -95.571465941552020, 
              42.756998749801717
            ], 
            [
              -95.571466253355425, 
              42.756998749801717
            ], 
            [
              -95.571466253355425, 
              42.756989821230285
            ], 
            [
              -95.571440997278913, 
              42.756989821230285
            ], 
            [
              -95.571440997278913, 
              42.756996918610128
            ], 
            [
              -95.571440997278913, 
              42.757006533994740
            ], 
            [
              -95.571440997278913, 
              42.757014560025979
            ], 
            [
              -95.571445362526717, 
              42.757014560025979
            ], 
            [
              -95.571445362526717, 
              42.757028661887823
            ], 
            [
              -95.571440997278913, 
              42.757028661887823
            ], 
            [
              -95.571440997278913, 
              42.757030951265108
            ], 
            [
              -95.571440997278913, 
              42.757035758957414
            ]
          ]
        ], 
        "type": "Polygon"
      }, 
      "properties": {
        "Seat Count": "", 
        "Number": "209", 
        "NCES_Type": "", 
        "Workstations": "", 
        "Element": "Room", 
        "RevitId": 5702879, 
        "occupancyStatus": "Occupied", 
        "Building": "North A", 
        "Area_SF": 85.75, 
        "Name": "Room", 
        "NCES_Occupancy Status": "", 
        "NCES_Department": "CCUSO", 
        "Level": "LEVEL 3", 
        "Revit_UniqueId": "7b110d46-b9ca-4cf5-900e-4d5b9f499b2a-005704df"
      }, 
      "type": "Feature"
    }, 
    {
      "geometry": {
        "coordinates": [
          [
            [
              -95.571408881527304, 
              42.757035758957414
            ], 
            [
              -95.571426030715060, 
              42.757035758957414
            ], 
            [
              -95.571426030715060, 
              42.757030951265108
            ], 
            [
              -95.571440997278913, 
              42.757030951265108
            ], 
            [
              -95.571440997278913, 
              42.757028661887823
            ], 
            [
              -95.571440997278913, 
              42.757015704714625
            ], 
            [
              -95.571440997278913, 
              42.757014560025979
            ], 
            [
              -95.571440997278913, 
              42.757006533994740
            ], 
            [
              -95.571440997278913, 
              42.756996918610128
            ], 
            [
              -95.571430707766268, 
              42.756996918610128
            ], 
            [
              -95.571430707766268, 
              42.756989821230285
            ], 
            [
              -95.571394538570274, 
              42.756989821230285
            ], 
            [
              -95.571394538570274, 
              42.757004028890449
            ], 
            [
              -95.571392667749791, 
              42.757004028890449
            ], 
            [
              -95.571392667749791, 
              42.757014102150521
            ], 
            [
              -95.571387678895164, 
              42.757014102150521
            ], 
            [
              -95.571385799625773, 
              42.757014102150521
            ], 
            [
              -95.571385799625773, 
              42.757035758957414
            ], 
            [
              -95.571408881527304, 
              42.757035758957414
            ]
          ]
        ], 
        "type": "Polygon"
      }, 
      "properties": {
        "Seat Count": "", 
        "Number": "210", 
        "NCES_Type": "Restroom - Bath/Shower", 
        "Workstations": "", 
        "Element": "Room", 
        "RevitId": 5702882, 
        "occupancyStatus": "Occupied", 
        "Building": "North A", 
        "Area_SF": 175.80000000000001, 
        "Name": "RR", 
        "NCES_Occupancy Status": "", 
        "NCES_Department": "CCUSO", 
        "Level": "LEVEL 3", 
        "Revit_UniqueId": "7b110d46-b9ca-4cf5-900e-4d5b9f499b2a-005704e2"
      }, 
      "type": "Feature"
    }, 
    {
      "geometry": {
        "coordinates": [
          [
            [
              -95.571394538570274, 
              42.756989821230285
            ], 
            [
              -95.571360551998168, 
              42.756989821230285
            ], 
            [
              -95.571360551998168, 
              42.757004028890449
            ], 
            [
              -95.571365852656200, 
              42.757004028890449
            ], 
            [
              -95.571387678895164, 
              42.757004028890449
            ], 
            [
              -95.571392667749791, 
              42.757004028890449
            ], 
            [
              -95.571394538570274, 
              42.757004028890449
            ], 
            [
              -95.571394538570274, 
              42.756989821230285
            ]
          ]
        ], 
        "type": "Polygon"
      }, 
      "properties": {
        "Seat Count": "", 
        "Number": "211", 
        "NCES_Type": "", 
        "Workstations": "", 
        "Element": "Room", 
        "RevitId": 5702885, 
        "occupancyStatus": "Occupied", 
        "Building": "North A", 
        "Area_SF": 35.090000000000003, 
        "Name": "Room", 
        "NCES_Occupancy Status": "", 
        "NCES_Department": "CCUSO", 
        "Level": "LEVEL 3", 
        "Revit_UniqueId": "7b110d46-b9ca-4cf5-900e-4d5b9f499b2a-005704e5"
      }, 
      "type": "Feature"
    }, 
    {
      "geometry": {
        "coordinates": [
          [
            [
              -95.571387678895164, 
              42.757004028890449
            ], 
            [
              -95.571365852656200, 
              42.757004028890449
            ], 
            [
              -95.571365852656200, 
              42.757014102150521
            ], 
            [
              -95.571376453972263, 
              42.757014102150521
            ], 
            [
              -95.571385799625773, 
              42.757014102150521
            ], 
            [
              -95.571387678895164, 
              42.757014102150521
            ], 
            [
              -95.571387678895164, 
              42.757004028890449
            ]
          ]
        ], 
        "type": "Polygon"
      }, 
      "properties": {
        "Seat Count": "", 
        "Number": "212", 
        "NCES_Type": "", 
        "Workstations": "", 
        "Element": "Room", 
        "RevitId": 5702888, 
        "occupancyStatus": "Occupied", 
        "Building": "North A", 
        "Area_SF": 16.440000000000001, 
        "Name": "Room", 
        "NCES_Occupancy Status": "", 
        "NCES_Department": "CCUSO", 
        "Level": "LEVEL 3", 
        "Revit_UniqueId": "7b110d46-b9ca-4cf5-900e-4d5b9f499b2a-005704e8"
      }, 
      "type": "Feature"
    }, 
    {
      "geometry": {
        "coordinates": [
          [
            [
              -95.571344026417236, 
              42.757035758957414
            ], 
            [
              -95.571376453972263, 
              42.757035758957414
            ], 
            [
              -95.571376453972263, 
              42.757023900334190
            ], 
            [
              -95.571376453972263, 
              42.757014102150521
            ], 
            [
              -95.571365852656200, 
              42.757014102150521
            ], 
            [
              -95.571365852656200, 
              42.757004028890449
            ], 
            [
              -95.571360551998168, 
              42.757004028890449
            ], 
            [
              -95.571360551998168, 
              42.756989821230285
            ], 
            [
              -95.571343091006995, 
              42.756989821230285
            ], 
            [
              -95.571343091006995, 
              42.757035758957414
            ], 
            [
              -95.571344026417236, 
              42.757035758957414
            ]
          ]
        ], 
        "type": "Polygon"
      }, 
      "properties": {
        "Seat Count": "", 
        "Number": "213", 
        "NCES_Type": "Restroom - Bath/Shower", 
        "Workstations": "", 
        "Element": "Room", 
        "RevitId": 5702891, 
        "occupancyStatus": "Occupied", 
        "Building": "North A", 
        "Area_SF": 90.400000000000006, 
        "Name": "RR", 
        "NCES_Occupancy Status": "", 
        "NCES_Department": "CCUSO", 
        "Level": "LEVEL 3", 
        "Revit_UniqueId": "7b110d46-b9ca-4cf5-900e-4d5b9f499b2a-005704eb"
      }, 
      "type": "Feature"
    }, 
    {
      "geometry": {
        "coordinates": [
          [
            [
              -95.571607175141182, 
              42.756906148996016
            ], 
            [
              -95.571607175141182, 
              42.756886332992110
            ], 
            [
              -95.571540053964753, 
              42.756886332992110
            ], 
            [
              -95.571540053964753, 
              42.756906148996016
            ], 
            [
              -95.571607175141182, 
              42.756906148996016
            ]
          ]
        ], 
        "type": "Polygon"
      }, 
      "properties": {
        "Seat Count": "", 
        "Number": "012N", 
        "NCES_Type": "Mechanical Room", 
        "Workstations": "", 
        "Element": "Room", 
        "RevitId": 5960764, 
        "occupancyStatus": "Occupied", 
        "Building": "North A", 
        "Area_SF": 210.75, 
        "Name": "AIR HANDLING ROOM", 
        "NCES_Occupancy Status": "", 
        "NCES_Department": "CCUSO", 
        "Level": "LEVEL 3", 
        "Revit_UniqueId": "9ab5b8f0-ca7f-4f32-b5ae-3b2d2971185f-005af43c"
      }, 
      "type": "Feature"
    }, 
    {
      "geometry": {
        "coordinates": [
          [
            [
              -95.571839490257261, 
              42.757005617933579
            ], 
            [
              -95.571839490257261, 
              42.757035758957414
            ], 
            [
              -95.572009518107564, 
              42.757035758957414
            ], 
            [
              -95.572049387042256, 
              42.757035758957414
            ], 
            [
              -95.572051147925521, 
              42.757035758957414
            ], 
            [
              -95.572053313426096, 
              42.757037348948927
            ], 
            [
              -95.572068718853899, 
              42.757048660190250
            ], 
            [
              -95.572068718853899, 
              42.757052242473904
            ], 
            [
              -95.572068718853899, 
              42.757245195238887
            ], 
            [
              -95.572069654264141, 
              42.757245195238887
            ], 
            [
              -95.572069654264141, 
              42.757330834403831
            ], 
            [
              -95.572069654264141, 
              42.757364030374525
            ], 
            [
              -95.572069654264141, 
              42.757416721278133
            ], 
            [
              -95.572104480900919, 
              42.757416721278133
            ], 
            [
              -95.572104480900919, 
              42.757404323414818
            ], 
            [
              -95.572104480900919, 
              42.757245195238887
            ], 
            [
              -95.572105416311160, 
              42.757245195238887
            ], 
            [
              -95.572105416311160, 
              42.757049458889867
            ], 
            [
              -95.572123013946268, 
              42.757036538047956
            ], 
            [
              -95.572333916996058, 
              42.757036538047956
            ], 
            [
              -95.572333916996058, 
              42.757005617933579
            ], 
            [
              -95.572122973414949, 
              42.757005617933579
            ], 
            [
              -95.572107287131644, 
              42.756994100477655
            ], 
            [
              -95.572066578132279, 
              42.756994100477655
            ], 
            [
              -95.572050891848960, 
              42.757005617933579
            ], 
            [
              -95.571839490257261, 
              42.757005617933579
            ]
          ]
        ], 
        "type": "Polygon"
      }, 
      "properties": {
        "Seat Count": "", 
        "Number": "012O", 
        "NCES_Type": "Corridor/Hallway", 
        "Workstations": "", 
        "Element": "Room", 
        "RevitId": 5961073, 
        "occupancyStatus": "Occupied", 
        "Building": "North A", 
        "Area_SF": 2359.5, 
        "Name": "CORRIDOR", 
        "NCES_Occupancy Status": "", 
        "NCES_Department": "General", 
        "Level": "LEVEL 3", 
        "Revit_UniqueId": "9ab5b8f0-ca7f-4f32-b5ae-3b2d2971185f-005af571"
      }, 
      "type": "Feature"
    }, 
    {
      "geometry": {
        "coordinates": [
          [
            [
              -95.571103092247398, 
              42.757176009940316
            ], 
            [
              -95.571103092247398, 
              42.757178070379879
            ], 
            [
              -95.571206634197566, 
              42.757178070379879
            ], 
            [
              -95.571206634197566, 
              42.757177383566692
            ], 
            [
              -95.571208524601175, 
              42.757177383566692
            ], 
            [
              -95.571223471581902, 
              42.757177383566692
            ], 
            [
              -95.571247480444768, 
              42.757177383566692
            ], 
            [
              -95.571247480444768, 
              42.757178070379879
            ], 
            [
              -95.571344961827478, 
              42.757178070379879
            ], 
            [
              -95.571348703468445, 
              42.757178070379879
            ], 
            [
              -95.571348703468445, 
              42.757178757193067
            ], 
            [
              -95.571350886092347, 
              42.757178757193067
            ], 
            [
              -95.571350886092347, 
              42.757139837779150
            ], 
            [
              -95.571344961827478, 
              42.757139837779150
            ], 
            [
              -95.571344961827478, 
              42.757140524592330
            ], 
            [
              -95.571341200603399, 
              42.757140524592330
            ], 
            [
              -95.571284280251774, 
              42.757140524592330
            ], 
            [
              -95.571247487448943, 
              42.757140524592330
            ], 
            [
              -95.571211630056368, 
              42.757140524592330
            ], 
            [
              -95.571175772663779, 
              42.757140524592330
            ], 
            [
              -95.571138979860962, 
              42.757140524592330
            ], 
            [
              -95.571100939844484, 
              42.757140524592330
            ], 
            [
              -95.571100939844484, 
              42.757111505372947
            ], 
            [
              -95.571100939844484, 
              42.757108743741540
            ], 
            [
              -95.571101875254726, 
              42.757108743741540
            ], 
            [
              -95.571101875254726, 
              42.757093175975967
            ], 
            [
              -95.571101875254726, 
              42.757071877690329
            ], 
            [
              -95.571083843641034, 
              42.757058638205109
            ], 
            [
              -95.571055781333797, 
              42.757058638205109
            ], 
            [
              -95.571036396537835, 
              42.757072871247360
            ], 
            [
              -95.571036396537835, 
              42.757093175975967
            ], 
            [
              -95.571036396537835, 
              42.757108743741540
            ], 
            [
              -95.571036396537835, 
              42.757140524592330
            ], 
            [
              -95.570999681685862, 
              42.757140524592330
            ], 
            [
              -95.57096343453901, 
              42.757140524592330
            ], 
            [
              -95.570925827609102, 
              42.757140524592330
            ], 
            [
              -95.570801861919463, 
              42.757140524592330
            ], 
            [
              -95.570801861919463, 
              42.757139837779150
            ], 
            [
              -95.570795625851190, 
              42.757139837779150
            ], 
            [
              -95.570795625851190, 
              42.757178070379879
            ], 
            [
              -95.570802729483546, 
              42.757178070379879
            ], 
            [
              -95.570813018996191, 
              42.757178070379879
            ], 
            [
              -95.570837963269298, 
              42.757178070379879
            ], 
            [
              -95.570903231848717, 
              42.757178070379879
            ], 
            [
              -95.570935093372782, 
              42.757178070379879
            ], 
            [
              -95.570960661252698, 
              42.757178070379879
            ], 
            [
              -95.570970327158534, 
              42.757178070379879
            ], 
            [
              -95.570985293722387, 
              42.757178070379879
            ], 
            [
              -95.570995271431627, 
              42.757178070379879
            ], 
            [
              -95.571035810282240, 
              42.757178070379879
            ], 
            [
              -95.571035810282240, 
              42.757176009940316
            ], 
            [
              -95.571103092247398, 
              42.757176009940316
            ]
          ]
        ], 
        "type": "Polygon"
      }, 
      "properties": {
        "Seat Count": "", 
        "Number": "012HHH", 
        "NCES_Type": "Corridor/Hallway", 
        "Workstations": "", 
        "Element": "Room", 
        "RevitId": 5964195, 
        "occupancyStatus": "Occupied", 
        "Building": "North A", 
        "Area_SF": 2370.0799999999999, 
        "Name": "CORRIDOR", 
        "NCES_Occupancy Status": "", 
        "NCES_Department": "CCUSO", 
        "Level": "LEVEL 3", 
        "Revit_UniqueId": "9ab5b8f0-ca7f-4f32-b5ae-3b2d2971185f-005b01a3"
      }, 
      "type": "Feature"
    }, 
    {
      "geometry": {
        "coordinates": [
          [
            [
              -95.571343091006995, 
              42.756989821230285
            ], 
            [
              -95.571318578627285, 
              42.756989821230285
            ], 
            [
              -95.571318578627285, 
              42.756999207677168
            ], 
            [
              -95.571307665507803, 
              42.756999207677168
            ], 
            [
              -95.571307665507803, 
              42.757042019032482
            ], 
            [
              -95.571308600918044, 
              42.757042019032482
            ], 
            [
              -95.571308600918044, 
              42.757091760856071
            ], 
            [
              -95.571283344841532, 
              42.757091760856071
            ], 
            [
              -95.571283344841532, 
              42.757108743741540
            ], 
            [
              -95.571284280251774, 
              42.757108743741540
            ], 
            [
              -95.571284280251774, 
              42.757140524592330
            ], 
            [
              -95.571344961827478, 
              42.757140524592330
            ], 
            [
              -95.571344961827478, 
              42.757089013603320
            ], 
            [
              -95.571344026417236, 
              42.757089013603320
            ], 
            [
              -95.571344026417236, 
              42.757035758957414
            ], 
            [
              -95.571343091006995, 
              42.757035758957414
            ], 
            [
              -95.571343091006995, 
              42.756989821230285
            ]
          ]
        ], 
        "type": "Polygon"
      }, 
      "properties": {
        "Seat Count": "", 
        "Number": "96", 
        "NCES_Type": "Corridor/Hallway", 
        "Workstations": "", 
        "Element": "Room", 
        "RevitId": 6261679, 
        "occupancyStatus": "Occupied", 
        "Building": "North A", 
        "Area_SF": 518.25999999999999, 
        "Name": "CORRIDOR", 
        "NCES_Occupancy Status": "", 
        "NCES_Department": "General", 
        "Level": "LEVEL 3", 
        "Revit_UniqueId": "e7b39e5f-423f-49c4-a9b4-c2b902d874fa-005f4e41"
      }, 
      "type": "Feature"
    }
  ], 
  "type": "FeatureCollection", 
  "name": "North A - LEVEL 3"
}