{"type":"FeatureCollection","name":"633004_SarpyMP La Platte Public Works_R26 - LEVEL 1","features":[{"type":"Feature","properties":{"type":"drawing","level":"LEVEL 1","Text":"SOLID","Layer":"A-WALL-PATT","source":"LEVEL_1.dxf","SubClasses":"AcDbEntity:AcDbHatch","EntityHandle":"9D","interactive":false},"geometry":{"type":"MultiLineString","coordinates":[[[-95.933459,41.067372],[-95.933459,41.067375],[-95.933467,41.067375],[-95.933467,41.067372],[-95.933463,41.067372],[-95.933459,41.067372]],[[-95.933479,41.067372],[-95.933479,41.067375],[-95.933509,41.067375],[-95.933509,41.067372],[-95.933481,41.067372],[-95.933479,41.067372]],[[-95.93355,41.067372],[-95.933545,41.067372],[-95.933545,41.067375],[-95.933617,41.067375],[-95.933617,41.067372],[-95.933557,41.067372],[-95.93355,41.067372]],[[-95.93366,41.067372],[-95.933653,41.067372],[-95.933653,41.067375],[-95.93366,41.067375],[-95.93366,41.067372]]]}},{"type":"Feature","properties":{"type":"drawing","level":"LEVEL 1","Text":"SOLID","Layer":"A-WALL-PATT","source":"LEVEL_1.dxf","SubClasses":"AcDbEntity:AcDbHatch","EntityHandle":"A2","interactive":false},"geometry":{"type":"MultiLineString","coordinates":[[[-95.933459,41.067375],[-95.933459,41.067535],[-95.933463,41.067535],[-95.933463,41.067375],[-95.933459,41.067375]]]}},{"type":"Feature","properties":{"type":"drawing","level":"LEVEL 1","Text":"SOLID","Layer":"A-WALL-PATT","source":"LEVEL_1.dxf","SubClasses":"AcDbEntity:AcDbHatch","EntityHandle":"A8","interactive":false},"geometry":{"type":"MultiLineString","coordinates":[[[-95.933463,41.067533],[-95.933463,41.067535],[-95.93366,41.067535],[-95.93366,41.067533],[-95.933481,41.067533],[-95.933463,41.067533]]]}},{"type":"Feature","properties":{"type":"drawing","level":"LEVEL 1","Text":"SOLID","Layer":"A-WALL-PATT","source":"LEVEL_1.dxf","SubClasses":"AcDbEntity:AcDbHatch","EntityHandle":"B3","interactive":false},"geometry":{"type":"MultiLineString","coordinates":[[[-95.933657,41.067375],[-95.933657,41.067408],[-95.93366,41.067408],[-95.93366,41.067375],[-95.933657,41.067375],[-95.933657,41.067375]],[[-95.93366,41.067417],[-95.933657,41.067417],[-95.933657,41.067533],[-95.93366,41.067533],[-95.93366,41.06748],[-95.93366,41.067417]]]}},{"type":"Feature","properties":{"type":"drawing","level":"LEVEL 1","Text":"SOLID","Layer":"A-WALL-PATT","source":"LEVEL_1.dxf","SubClasses":"AcDbEntity:AcDbHatch","EntityHandle":"BD","interactive":false},"geometry":{"type":"MultiLineString","coordinates":[[[-95.933591,41.067375],[-95.933591,41.067377],[-95.933592,41.067377],[-95.933592,41.067375],[-95.933591,41.067375]],[[-95.933592,41.067387],[-95.933591,41.067387],[-95.933591,41.067533],[-95.933592,41.067533],[-95.933592,41.067398],[-95.933592,41.067387]]]}},{"type":"Feature","properties":{"type":"drawing","level":"LEVEL 1","Text":"SOLID","Layer":"A-WALL-PATT","source":"LEVEL_1.dxf","SubClasses":"AcDbEntity:AcDbHatch","EntityHandle":"C2","interactive":false},"geometry":{"type":"MultiLineString","coordinates":[[[-95.933657,41.067502],[-95.933657,41.067501],[-95.93364,41.067501],[-95.93364,41.067502],[-95.933657,41.067502]]]}},{"type":"Feature","properties":{"type":"drawing","level":"LEVEL 1","Text":"SOLID","Layer":"A-WALL-PATT","source":"LEVEL_1.dxf","SubClasses":"AcDbEntity:AcDbHatch","EntityHandle":"C7","interactive":false},"geometry":{"type":"MultiLineString","coordinates":[[[-95.933619,41.067502],[-95.933619,41.067501],[-95.933592,41.067501],[-95.933592,41.067502],[-95.933619,41.067502]]]}},{"type":"Feature","properties":{"type":"drawing","level":"LEVEL 1","Layer":"A-WALL","source":"LEVEL_1.dxf","SubClasses":"AcDbEntity:AcDbLine","EntityHandle":"C8","interactive":false},"geometry":{"type":"MultiLineString","coordinates":[[[-95.93366,41.067372],[-95.933653,41.067372]]]}},{"type":"Feature","properties":{"type":"drawing","level":"LEVEL 1","Layer":"A-WALL","source":"LEVEL_1.dxf","SubClasses":"AcDbEntity:AcDbLine","EntityHandle":"C9","interactive":false},"geometry":{"type":"MultiLineString","coordinates":[[[-95.933653,41.067372],[-95.933653,41.067375]]]}},{"type":"Feature","properties":{"type":"drawing","level":"LEVEL 1","Layer":"A-WALL","source":"LEVEL_1.dxf","SubClasses":"AcDbEntity:AcDbLine","EntityHandle":"CA","interactive":false},"geometry":{"type":"MultiLineString","coordinates":[[[-95.933653,41.067375],[-95.933657,41.067375]]]}},{"type":"Feature","properties":{"type":"drawing","level":"LEVEL 1","Layer":"A-WALL","source":"LEVEL_1.dxf","SubClasses":"AcDbEntity:AcDbLine","EntityHandle":"CC","interactive":false},"geometry":{"type":"MultiLineString","coordinates":[[[-95.933617,41.067372],[-95.933545,41.067372]]]}},{"type":"Feature","properties":{"type":"drawing","level":"LEVEL 1","Layer":"A-WALL","source":"LEVEL_1.dxf","SubClasses":"AcDbEntity:AcDbLine","EntityHandle":"CD","interactive":false},"geometry":{"type":"MultiLineString","coordinates":[[[-95.933545,41.067372],[-95.933545,41.067375]]]}},{"type":"Feature","properties":{"type":"drawing","level":"LEVEL 1","Layer":"A-WALL","source":"LEVEL_1.dxf","SubClasses":"AcDbEntity:AcDbLine","EntityHandle":"CE","interactive":false},"geometry":{"type":"MultiLineString","coordinates":[[[-95.933545,41.067375],[-95.933591,41.067375]]]}},{"type":"Feature","properties":{"type":"drawing","level":"LEVEL 1","Layer":"A-WALL","source":"LEVEL_1.dxf","SubClasses":"AcDbEntity:AcDbLine","EntityHandle":"CF","interactive":false},"geometry":{"type":"MultiLineString","coordinates":[[[-95.933592,41.067375],[-95.933617,41.067375]]]}},{"type":"Feature","properties":{"type":"drawing","level":"LEVEL 1","Layer":"A-WALL","source":"LEVEL_1.dxf","SubClasses":"AcDbEntity:AcDbLine","EntityHandle":"D0","interactive":false},"geometry":{"type":"MultiLineString","coordinates":[[[-95.933617,41.067375],[-95.933617,41.067372]]]}},{"type":"Feature","properties":{"type":"drawing","level":"LEVEL 1","Layer":"A-WALL","source":"LEVEL_1.dxf","SubClasses":"AcDbEntity:AcDbLine","EntityHandle":"D1","interactive":false},"geometry":{"type":"MultiLineString","coordinates":[[[-95.933509,41.067372],[-95.933479,41.067372]]]}},{"type":"Feature","properties":{"type":"drawing","level":"LEVEL 1","Layer":"A-WALL","source":"LEVEL_1.dxf","SubClasses":"AcDbEntity:AcDbLine","EntityHandle":"D2","interactive":false},"geometry":{"type":"MultiLineString","coordinates":[[[-95.933479,41.067372],[-95.933479,41.067375]]]}},{"type":"Feature","properties":{"type":"drawing","level":"LEVEL 1","Layer":"A-WALL","source":"LEVEL_1.dxf","SubClasses":"AcDbEntity:AcDbLine","EntityHandle":"D3","interactive":false},"geometry":{"type":"MultiLineString","coordinates":[[[-95.933479,41.067375],[-95.933509,41.067375]]]}},{"type":"Feature","properties":{"type":"drawing","level":"LEVEL 1","Layer":"A-WALL","source":"LEVEL_1.dxf","SubClasses":"AcDbEntity:AcDbLine","EntityHandle":"D4","interactive":false},"geometry":{"type":"MultiLineString","coordinates":[[[-95.933509,41.067375],[-95.933509,41.067372]]]}},{"type":"Feature","properties":{"type":"drawing","level":"LEVEL 1","Layer":"A-WALL","source":"LEVEL_1.dxf","SubClasses":"AcDbEntity:AcDbLine","EntityHandle":"D5","interactive":false},"geometry":{"type":"MultiLineString","coordinates":[[[-95.933467,41.067372],[-95.933459,41.067372]]]}},{"type":"Feature","properties":{"type":"drawing","level":"LEVEL 1","Layer":"A-WALL","source":"LEVEL_1.dxf","SubClasses":"AcDbEntity:AcDbLine","EntityHandle":"D7","interactive":false},"geometry":{"type":"MultiLineString","coordinates":[[[-95.933463,41.067375],[-95.933467,41.067375]]]}},{"type":"Feature","properties":{"type":"drawing","level":"LEVEL 1","Layer":"A-WALL","source":"LEVEL_1.dxf","SubClasses":"AcDbEntity:AcDbLine","EntityHandle":"D8","interactive":false},"geometry":{"type":"MultiLineString","coordinates":[[[-95.933467,41.067375],[-95.933467,41.067372]]]}},{"type":"Feature","properties":{"type":"drawing","level":"LEVEL 1","Layer":"A-WALL","source":"LEVEL_1.dxf","SubClasses":"AcDbEntity:AcDbLine","EntityHandle":"D9","interactive":false},"geometry":{"type":"MultiLineString","coordinates":[[[-95.933459,41.067372],[-95.933459,41.067535]]]}},{"type":"Feature","properties":{"type":"drawing","level":"LEVEL 1","Layer":"A-WALL","source":"LEVEL_1.dxf","SubClasses":"AcDbEntity:AcDbLine","EntityHandle":"DB","interactive":false},"geometry":{"type":"MultiLineString","coordinates":[[[-95.933463,41.067533],[-95.933463,41.067375]]]}},{"type":"Feature","properties":{"type":"drawing","level":"LEVEL 1","Layer":"A-WALL","source":"LEVEL_1.dxf","SubClasses":"AcDbEntity:AcDbLine","EntityHandle":"DC","interactive":false},"geometry":{"type":"MultiLineString","coordinates":[[[-95.933459,41.067535],[-95.93366,41.067535]]]}},{"type":"Feature","properties":{"type":"drawing","level":"LEVEL 1","Layer":"A-WALL","source":"LEVEL_1.dxf","SubClasses":"AcDbEntity:AcDbLine","EntityHandle":"DE","interactive":false},"geometry":{"type":"MultiLineString","coordinates":[[[-95.933657,41.067533],[-95.933592,41.067533]]]}},{"type":"Feature","properties":{"type":"drawing","level":"LEVEL 1","Layer":"A-WALL","source":"LEVEL_1.dxf","SubClasses":"AcDbEntity:AcDbLine","EntityHandle":"DF","interactive":false},"geometry":{"type":"MultiLineString","coordinates":[[[-95.933591,41.067533],[-95.933463,41.067533]]]}},{"type":"Feature","properties":{"type":"drawing","level":"LEVEL 1","Layer":"A-WALL","source":"LEVEL_1.dxf","SubClasses":"AcDbEntity:AcDbLine","EntityHandle":"E0","interactive":false},"geometry":{"type":"MultiLineString","coordinates":[[[-95.93366,41.067535],[-95.93366,41.067417]]]}},{"type":"Feature","properties":{"type":"drawing","level":"LEVEL 1","Layer":"A-WALL","source":"LEVEL_1.dxf","SubClasses":"AcDbEntity:AcDbLine","EntityHandle":"E1","interactive":false},"geometry":{"type":"MultiLineString","coordinates":[[[-95.93366,41.067417],[-95.933657,41.067417]]]}},{"type":"Feature","properties":{"type":"drawing","level":"LEVEL 1","Layer":"A-WALL","source":"LEVEL_1.dxf","SubClasses":"AcDbEntity:AcDbLine","EntityHandle":"E2","interactive":false},"geometry":{"type":"MultiLineString","coordinates":[[[-95.933657,41.067417],[-95.933657,41.067501]]]}},{"type":"Feature","properties":{"type":"drawing","level":"LEVEL 1","Layer":"A-WALL","source":"LEVEL_1.dxf","SubClasses":"AcDbEntity:AcDbLine","EntityHandle":"E3","interactive":false},"geometry":{"type":"MultiLineString","coordinates":[[[-95.933657,41.067502],[-95.933657,41.067533]]]}},{"type":"Feature","properties":{"type":"drawing","level":"LEVEL 1","Layer":"A-WALL","source":"LEVEL_1.dxf","SubClasses":"AcDbEntity:AcDbLine","EntityHandle":"E4","interactive":false},"geometry":{"type":"MultiLineString","coordinates":[[[-95.93366,41.067408],[-95.93366,41.067372]]]}},{"type":"Feature","properties":{"type":"drawing","level":"LEVEL 1","Layer":"A-WALL","source":"LEVEL_1.dxf","SubClasses":"AcDbEntity:AcDbLine","EntityHandle":"E5","interactive":false},"geometry":{"type":"MultiLineString","coordinates":[[[-95.933657,41.067375],[-95.933657,41.067408]]]}},{"type":"Feature","properties":{"type":"drawing","level":"LEVEL 1","Layer":"A-WALL","source":"LEVEL_1.dxf","SubClasses":"AcDbEntity:AcDbLine","EntityHandle":"E6","interactive":false},"geometry":{"type":"MultiLineString","coordinates":[[[-95.933657,41.067408],[-95.93366,41.067408]]]}},{"type":"Feature","properties":{"type":"drawing","level":"LEVEL 1","Layer":"A-WALL","source":"LEVEL_1.dxf","SubClasses":"AcDbEntity:AcDbLine","EntityHandle":"E7","interactive":false},"geometry":{"type":"MultiLineString","coordinates":[[[-95.933591,41.067375],[-95.933591,41.067377]]]}},{"type":"Feature","properties":{"type":"drawing","level":"LEVEL 1","Layer":"A-WALL","source":"LEVEL_1.dxf","SubClasses":"AcDbEntity:AcDbLine","EntityHandle":"E8","interactive":false},"geometry":{"type":"MultiLineString","coordinates":[[[-95.933591,41.067377],[-95.933592,41.067377]]]}},{"type":"Feature","properties":{"type":"drawing","level":"LEVEL 1","Layer":"A-WALL","source":"LEVEL_1.dxf","SubClasses":"AcDbEntity:AcDbLine","EntityHandle":"E9","interactive":false},"geometry":{"type":"MultiLineString","coordinates":[[[-95.933592,41.067377],[-95.933592,41.067375]]]}},{"type":"Feature","properties":{"type":"drawing","level":"LEVEL 1","Layer":"A-WALL","source":"LEVEL_1.dxf","SubClasses":"AcDbEntity:AcDbLine","EntityHandle":"EA","interactive":false},"geometry":{"type":"MultiLineString","coordinates":[[[-95.933591,41.067387],[-95.933591,41.067533]]]}},{"type":"Feature","properties":{"type":"drawing","level":"LEVEL 1","Layer":"A-WALL","source":"LEVEL_1.dxf","SubClasses":"AcDbEntity:AcDbLine","EntityHandle":"EB","interactive":false},"geometry":{"type":"MultiLineString","coordinates":[[[-95.933592,41.067533],[-95.933592,41.067502]]]}},{"type":"Feature","properties":{"type":"drawing","level":"LEVEL 1","Layer":"A-WALL","source":"LEVEL_1.dxf","SubClasses":"AcDbEntity:AcDbLine","EntityHandle":"EC","interactive":false},"geometry":{"type":"MultiLineString","coordinates":[[[-95.933592,41.067501],[-95.933592,41.067387]]]}},{"type":"Feature","properties":{"type":"drawing","level":"LEVEL 1","Layer":"A-WALL","source":"LEVEL_1.dxf","SubClasses":"AcDbEntity:AcDbLine","EntityHandle":"ED","interactive":false},"geometry":{"type":"MultiLineString","coordinates":[[[-95.933592,41.067387],[-95.933591,41.067387]]]}},{"type":"Feature","properties":{"type":"drawing","level":"LEVEL 1","Layer":"A-WALL","source":"LEVEL_1.dxf","SubClasses":"AcDbEntity:AcDbLine","EntityHandle":"13F","interactive":false},"geometry":{"type":"MultiLineString","coordinates":[[[-95.933657,41.067501],[-95.93364,41.067501]]]}},{"type":"Feature","properties":{"type":"drawing","level":"LEVEL 1","Layer":"A-WALL","source":"LEVEL_1.dxf","SubClasses":"AcDbEntity:AcDbLine","EntityHandle":"140","interactive":false},"geometry":{"type":"MultiLineString","coordinates":[[[-95.93364,41.067501],[-95.93364,41.067502]]]}},{"type":"Feature","properties":{"type":"drawing","level":"LEVEL 1","Layer":"A-WALL","source":"LEVEL_1.dxf","SubClasses":"AcDbEntity:AcDbLine","EntityHandle":"141","interactive":false},"geometry":{"type":"MultiLineString","coordinates":[[[-95.93364,41.067502],[-95.933657,41.067502]]]}},{"type":"Feature","properties":{"type":"drawing","level":"LEVEL 1","Layer":"A-WALL","source":"LEVEL_1.dxf","SubClasses":"AcDbEntity:AcDbLine","EntityHandle":"1A6","interactive":false},"geometry":{"type":"MultiLineString","coordinates":[[[-95.933619,41.067501],[-95.933592,41.067501]]]}},{"type":"Feature","properties":{"type":"drawing","level":"LEVEL 1","Layer":"A-WALL","source":"LEVEL_1.dxf","SubClasses":"AcDbEntity:AcDbLine","EntityHandle":"1A7","interactive":false},"geometry":{"type":"MultiLineString","coordinates":[[[-95.933592,41.067502],[-95.933619,41.067502]]]}},{"type":"Feature","properties":{"type":"drawing","level":"LEVEL 1","Layer":"A-WALL","source":"LEVEL_1.dxf","SubClasses":"AcDbEntity:AcDbLine","EntityHandle":"1A8","interactive":false},"geometry":{"type":"MultiLineString","coordinates":[[[-95.933619,41.067502],[-95.933619,41.067501]]]}}]}