{
  "features": [
    {
      "geometry": {
        "coordinates": [
          -95.572123890284857, 
          42.756679060955221
        ], 
        "type": "Point"
      }, 
      "properties": {
        "Level": "LEVEL 4", 
        "RevitId": 5678115, 
        "Type": "Door", 
        "Revit_UniqueId": "1f9d7a8f-f265-4728-a925-62dafe2a6a5e-0056a423", 
        "Name": "Door", 
        "bearing_deg": 270.0, 
        "Family": "Door-Single(CE)", 
        "interactive": false, 
        "Element": "Door", 
        "Building": "Main/Administration", 
        "kind": "door"
      }, 
      "type": "Feature"
    }, 
    {
      "geometry": {
        "coordinates": [
          -95.572050052551347, 
          42.756678465305363
        ], 
        "type": "Point"
      }, 
      "properties": {
        "Level": "LEVEL 4", 
        "RevitId": 5678116, 
        "Type": "Door", 
        "Revit_UniqueId": "1f9d7a8f-f265-4728-a925-62dafe2a6a5e-0056a424", 
        "Name": "Door", 
        "bearing_deg": 90.0, 
        "Family": "Door-Single(CE)", 
        "interactive": false, 
        "Element": "Door", 
        "Building": "Main/Administration", 
        "kind": "door"
      }, 
      "type": "Feature"
    }, 
    {
      "geometry": {
        "coordinates": [
          -95.572010082038830, 
          42.756836144940124
        ], 
        "type": "Point"
      }, 
      "properties": {
        "Level": "LEVEL 4", 
        "RevitId": 5678117, 
        "Type": "Door", 
        "Revit_UniqueId": "1f9d7a8f-f265-4728-a925-62dafe2a6a5e-0056a425", 
        "Name": "Door", 
        "bearing_deg": 180.0, 
        "Family": "Door-Single(CE)", 
        "interactive": false, 
        "Element": "Door", 
        "Building": "Main/Administration", 
        "kind": "door"
      }, 
      "type": "Feature"
    }, 
    {
      "geometry": {
        "coordinates": [
          -95.572131014674412, 
          42.756865109659863
        ], 
        "type": "Point"
      }, 
      "properties": {
        "Level": "LEVEL 4", 
        "RevitId": 5678130, 
        "Type": "Door", 
        "Revit_UniqueId": "1f9d7a8f-f265-4728-a925-62dafe2a6a5e-0056a432", 
        "Name": "Door", 
        "bearing_deg": 270.0, 
        "Family": "Door-Elevator", 
        "interactive": false, 
        "Element": "Door", 
        "Building": "Main/Administration", 
        "kind": "door"
      }, 
      "type": "Feature"
    }, 
    {
      "geometry": {
        "coordinates": [
          -95.572050052551347, 
          42.756748861250188
        ], 
        "type": "Point"
      }, 
      "properties": {
        "Level": "LEVEL 4", 
        "RevitId": 5678131, 
        "Type": "Door", 
        "Revit_UniqueId": "1f9d7a8f-f265-4728-a925-62dafe2a6a5e-0056a433", 
        "Name": "Door", 
        "bearing_deg": 90.0, 
        "Family": "Door-Single(CE)", 
        "interactive": false, 
        "Element": "Door", 
        "Building": "Main/Administration", 
        "kind": "door"
      }, 
      "type": "Feature"
    }, 
    {
      "geometry": {
        "coordinates": [
          -95.572019184013385, 
          42.756706790539305
        ], 
        "type": "Point"
      }, 
      "properties": {
        "Level": "LEVEL 4", 
        "RevitId": 5678143, 
        "Type": "Door", 
        "Revit_UniqueId": "1f9d7a8f-f265-4728-a925-62dafe2a6a5e-0056a43f", 
        "Name": "Door", 
        "bearing_deg": 180.0, 
        "Family": "Door-Single(CE)", 
        "interactive": false, 
        "Element": "Door", 
        "Building": "Main/Administration", 
        "kind": "door"
      }, 
      "type": "Feature"
    }, 
    {
      "geometry": {
        "coordinates": [
          -95.572050052551347, 
          42.756714574422084
        ], 
        "type": "Point"
      }, 
      "properties": {
        "Level": "LEVEL 4", 
        "RevitId": 5678144, 
        "Type": "Door", 
        "Revit_UniqueId": "1f9d7a8f-f265-4728-a925-62dafe2a6a5e-0056a440", 
        "Name": "Door", 
        "bearing_deg": 90.0, 
        "Family": "Door-Single(CE)", 
        "interactive": false, 
        "Element": "Door", 
        "Building": "Main/Administration", 
        "kind": "door"
      }, 
      "type": "Feature"
    }, 
    {
      "geometry": {
        "coordinates": [
          -95.572018560406562, 
          42.756735353924178
        ], 
        "type": "Point"
      }, 
      "properties": {
        "Level": "LEVEL 4", 
        "RevitId": 5678145, 
        "Type": "Door", 
        "Revit_UniqueId": "1f9d7a8f-f265-4728-a925-62dafe2a6a5e-0056a441", 
        "Name": "Door", 
        "bearing_deg": 180.0, 
        "Family": "Door-Single(CE)", 
        "interactive": false, 
        "Element": "Door", 
        "Building": "Main/Administration", 
        "kind": "door"
      }, 
      "type": "Feature"
    }, 
    {
      "geometry": {
        "coordinates": [
          -95.571994662701229, 
          42.756735353924178
        ], 
        "type": "Point"
      }, 
      "properties": {
        "Level": "LEVEL 4", 
        "RevitId": 5678146, 
        "Type": "Door", 
        "Revit_UniqueId": "1f9d7a8f-f265-4728-a925-62dafe2a6a5e-0056a442", 
        "Name": "Door", 
        "bearing_deg": 0.0, 
        "Family": "Door-Single(CE)", 
        "interactive": false, 
        "Element": "Door", 
        "Building": "Main/Administration", 
        "kind": "door"
      }, 
      "type": "Feature"
    }, 
    {
      "geometry": {
        "coordinates": [
          -95.572153511609159, 
          42.756753441868661
        ], 
        "type": "Point"
      }, 
      "properties": {
        "Level": "LEVEL 4", 
        "RevitId": 5678149, 
        "Type": "Door", 
        "Revit_UniqueId": "1f9d7a8f-f265-4728-a925-62dafe2a6a5e-0056a445", 
        "Name": "Door", 
        "bearing_deg": 270.0, 
        "Family": "Door-Single(CE)", 
        "interactive": false, 
        "Element": "Door", 
        "Building": "Main/Administration", 
        "kind": "door"
      }, 
      "type": "Feature"
    }, 
    {
      "geometry": {
        "coordinates": [
          -95.572153511609159, 
          42.756788698278918
        ], 
        "type": "Point"
      }, 
      "properties": {
        "Level": "LEVEL 4", 
        "RevitId": 5678150, 
        "Type": "Door", 
        "Revit_UniqueId": "1f9d7a8f-f265-4728-a925-62dafe2a6a5e-0056a446", 
        "Name": "Door", 
        "bearing_deg": 270.0, 
        "Family": "Door-Single(CE)", 
        "interactive": false, 
        "Element": "Door", 
        "Building": "Main/Administration", 
        "kind": "door"
      }, 
      "type": "Feature"
    }, 
    {
      "geometry": {
        "coordinates": [
          -95.572139168652129, 
          42.756822937924056
        ], 
        "type": "Point"
      }, 
      "properties": {
        "Level": "LEVEL 4", 
        "RevitId": 5678152, 
        "Type": "Door", 
        "Revit_UniqueId": "1f9d7a8f-f265-4728-a925-62dafe2a6a5e-0056a448", 
        "Name": "Door", 
        "bearing_deg": 180.0, 
        "Family": "Door-Single(CE)", 
        "interactive": false, 
        "Element": "Door", 
        "Building": "Main/Administration", 
        "kind": "door"
      }, 
      "type": "Feature"
    }, 
    {
      "geometry": {
        "coordinates": [
          -95.572184691950525, 
          42.756771070073789
        ], 
        "type": "Point"
      }, 
      "properties": {
        "Level": "LEVEL 4", 
        "RevitId": 5678158, 
        "Type": "Door", 
        "Revit_UniqueId": "1f9d7a8f-f265-4728-a925-62dafe2a6a5e-0056a44e", 
        "Name": "Door", 
        "bearing_deg": 180.0, 
        "Family": "Door-Single(CE)", 
        "interactive": false, 
        "Element": "Door", 
        "Building": "Main/Administration", 
        "kind": "door"
      }, 
      "type": "Feature"
    }, 
    {
      "geometry": {
        "coordinates": [
          -95.572160215382553, 
          42.756771070073789
        ], 
        "type": "Point"
      }, 
      "properties": {
        "Level": "LEVEL 4", 
        "RevitId": 5678159, 
        "Type": "Door", 
        "Revit_UniqueId": "1f9d7a8f-f265-4728-a925-62dafe2a6a5e-0056a44f", 
        "Name": "Door", 
        "bearing_deg": 180.0, 
        "Family": "Door-Single(CE)", 
        "interactive": false, 
        "Element": "Door", 
        "Building": "Main/Administration", 
        "kind": "door"
      }, 
      "type": "Feature"
    }, 
    {
      "geometry": {
        "coordinates": [
          -95.572198846043051, 
          42.756764430879649
        ], 
        "type": "Point"
      }, 
      "properties": {
        "Level": "LEVEL 4", 
        "RevitId": 5678161, 
        "Type": "Door", 
        "Revit_UniqueId": "1f9d7a8f-f265-4728-a925-62dafe2a6a5e-0056a451", 
        "Name": "Door", 
        "bearing_deg": 90.0, 
        "Family": "Door-Single(CE)", 
        "interactive": false, 
        "Element": "Door", 
        "Building": "Main/Administration", 
        "kind": "door"
      }, 
      "type": "Feature"
    }, 
    {
      "geometry": {
        "coordinates": [
          -95.572139636357250, 
          42.756719811870973
        ], 
        "type": "Point"
      }, 
      "properties": {
        "Level": "LEVEL 4", 
        "RevitId": 5678162, 
        "Type": "Door", 
        "Revit_UniqueId": "1f9d7a8f-f265-4728-a925-62dafe2a6a5e-0056a452", 
        "Name": "Door", 
        "bearing_deg": 0.0, 
        "Family": "Door-Single(CE)", 
        "interactive": false, 
        "Element": "Door", 
        "Building": "Main/Administration", 
        "kind": "door"
      }, 
      "type": "Feature"
    }, 
    {
      "geometry": {
        "coordinates": [
          -95.572123890284857, 
          42.756625596139919
        ], 
        "type": "Point"
      }, 
      "properties": {
        "Level": "LEVEL 4", 
        "RevitId": 5678163, 
        "Type": "Door", 
        "Revit_UniqueId": "1f9d7a8f-f265-4728-a925-62dafe2a6a5e-0056a453", 
        "Name": "Door", 
        "bearing_deg": 270.0, 
        "Family": "Door-Single(CE)", 
        "interactive": false, 
        "Element": "Door", 
        "Building": "Main/Administration", 
        "kind": "door"
      }, 
      "type": "Feature"
    }, 
    {
      "geometry": {
        "coordinates": [
          -95.572050052551347, 
          42.756625596139919
        ], 
        "type": "Point"
      }, 
      "properties": {
        "Level": "LEVEL 4", 
        "RevitId": 5678164, 
        "Type": "Door", 
        "Revit_UniqueId": "1f9d7a8f-f265-4728-a925-62dafe2a6a5e-0056a454", 
        "Name": "Door", 
        "bearing_deg": 90.0, 
        "Family": "Door-Single(CE)", 
        "interactive": false, 
        "Element": "Door", 
        "Building": "Main/Administration", 
        "kind": "door"
      }, 
      "type": "Feature"
    }, 
    {
      "geometry": {
        "coordinates": [
          -95.571960253168186, 
          42.756719382114390
        ], 
        "type": "Point"
      }, 
      "properties": {
        "Level": "LEVEL 4", 
        "RevitId": 5678173, 
        "Type": "Door", 
        "Revit_UniqueId": "1f9d7a8f-f265-4728-a925-62dafe2a6a5e-0056a45d", 
        "Name": "Door", 
        "bearing_deg": 180.0, 
        "Family": "Door-Single(CE)", 
        "interactive": false, 
        "Element": "Door", 
        "Building": "Main/Administration", 
        "kind": "door"
      }, 
      "type": "Feature"
    }, 
    {
      "geometry": {
        "coordinates": [
          -95.571949340048704, 
          42.756713429733438
        ], 
        "type": "Point"
      }, 
      "properties": {
        "Level": "LEVEL 4", 
        "RevitId": 5678174, 
        "Type": "Door", 
        "Revit_UniqueId": "1f9d7a8f-f265-4728-a925-62dafe2a6a5e-0056a45e", 
        "Name": "Door", 
        "bearing_deg": 90.0, 
        "Family": "Door-Single(CE)", 
        "interactive": false, 
        "Element": "Door", 
        "Building": "Main/Administration", 
        "kind": "door"
      }, 
      "type": "Feature"
    }, 
    {
      "geometry": {
        "coordinates": [
          -95.572006088270001, 
          42.756713200795708
        ], 
        "type": "Point"
      }, 
      "properties": {
        "Level": "LEVEL 4", 
        "RevitId": 5678175, 
        "Type": "Door", 
        "Revit_UniqueId": "1f9d7a8f-f265-4728-a925-62dafe2a6a5e-0056a45f", 
        "Name": "Door", 
        "bearing_deg": 90.0, 
        "Family": "Door-Single(CE)", 
        "interactive": false, 
        "Element": "Door", 
        "Building": "Main/Administration", 
        "kind": "door"
      }, 
      "type": "Feature"
    }, 
    {
      "geometry": {
        "coordinates": [
          -95.572152075530994, 
          42.756648569606476
        ], 
        "type": "Point"
      }, 
      "properties": {
        "Level": "LEVEL 4", 
        "RevitId": 5678178, 
        "Type": "Door", 
        "Revit_UniqueId": "1f9d7a8f-f265-4728-a925-62dafe2a6a5e-0056a462", 
        "Name": "Door", 
        "bearing_deg": 0.0, 
        "Family": "Door-Single(CE)", 
        "interactive": false, 
        "Element": "Door", 
        "Building": "Main/Administration", 
        "kind": "door"
      }, 
      "type": "Feature"
    }, 
    {
      "geometry": {
        "coordinates": [
          -95.572023489585618, 
          42.756647583648132
        ], 
        "type": "Point"
      }, 
      "properties": {
        "Level": "LEVEL 4", 
        "RevitId": 5678179, 
        "Type": "Door", 
        "Revit_UniqueId": "1f9d7a8f-f265-4728-a925-62dafe2a6a5e-0056a463", 
        "Name": "Door", 
        "bearing_deg": 180.0, 
        "Family": "Door-Single(CE)", 
        "interactive": false, 
        "Element": "Door", 
        "Building": "Main/Administration", 
        "kind": "door"
      }, 
      "type": "Feature"
    }, 
    {
      "geometry": {
        "coordinates": [
          -95.572050052551347, 
          42.756807927184248
        ], 
        "type": "Point"
      }, 
      "properties": {
        "Level": "LEVEL 4", 
        "RevitId": 5678181, 
        "Type": "Door", 
        "Revit_UniqueId": "1f9d7a8f-f265-4728-a925-62dafe2a6a5e-0056a465", 
        "Name": "Door", 
        "bearing_deg": 90.0, 
        "Family": "Door-Single(CE)", 
        "interactive": false, 
        "Element": "Door", 
        "Building": "Main/Administration", 
        "kind": "door"
      }, 
      "type": "Feature"
    }, 
    {
      "geometry": {
        "coordinates": [
          -95.572102435524855, 
          42.756837518566499
        ], 
        "type": "Point"
      }, 
      "properties": {
        "Level": "LEVEL 4", 
        "RevitId": 5678186, 
        "Type": "Door", 
        "Revit_UniqueId": "1f9d7a8f-f265-4728-a925-62dafe2a6a5e-0056a46a", 
        "Name": "Door", 
        "bearing_deg": 180.0, 
        "Family": "Door-Double(CE)", 
        "interactive": false, 
        "Element": "Door", 
        "Building": "Main/Administration", 
        "kind": "door"
      }, 
      "type": "Feature"
    }, 
    {
      "geometry": {
        "coordinates": [
          -95.572085909943922, 
          42.756866135782616
        ], 
        "type": "Point"
      }, 
      "properties": {
        "Level": "LEVEL 4", 
        "RevitId": 5678189, 
        "Type": "Door", 
        "Revit_UniqueId": "1f9d7a8f-f265-4728-a925-62dafe2a6a5e-0056a46d", 
        "Name": "Door", 
        "bearing_deg": 90.0, 
        "Family": "Door-Single(CE)", 
        "interactive": false, 
        "Element": "Door", 
        "Building": "Main/Administration", 
        "kind": "door"
      }, 
      "type": "Feature"
    }, 
    {
      "geometry": {
        "coordinates": [
          -95.572038515825042, 
          42.756856749335732
        ], 
        "type": "Point"
      }, 
      "properties": {
        "Level": "LEVEL 4", 
        "RevitId": 5678493, 
        "Type": "Door", 
        "Revit_UniqueId": "1f9d7a8f-f265-4728-a925-62dafe2a6a5e-0056a59d", 
        "Name": "Door", 
        "bearing_deg": 0.0, 
        "Family": "Door-Single(CE)", 
        "interactive": false, 
        "Element": "Door", 
        "Building": "Main/Administration", 
        "kind": "door"
      }, 
      "type": "Feature"
    }, 
    {
      "geometry": {
        "coordinates": [
          -95.572085909943922, 
          42.756847133951119
        ], 
        "type": "Point"
      }, 
      "properties": {
        "Level": "LEVEL 4", 
        "RevitId": 5948518, 
        "Type": "Door", 
        "Revit_UniqueId": "8ec8d7a6-edf2-46e5-8774-1d9d0b539c06-005abaac", 
        "Name": "Door", 
        "bearing_deg": 270.0, 
        "Family": "Door-Single(CE)", 
        "interactive": false, 
        "Element": "Door", 
        "Building": "Main/Administration", 
        "kind": "door"
      }, 
      "type": "Feature"
    }, 
    {
      "geometry": {
        "coordinates": [
          -95.57210841218469, 
          42.756873351418108
        ], 
        "type": "Point"
      }, 
      "properties": {
        "Level": "LEVEL 4", 
        "RevitId": 5948520, 
        "Type": "Door", 
        "Revit_UniqueId": "8ec8d7a6-edf2-46e5-8774-1d9d0b539c06-005abbc7", 
        "Name": "Door", 
        "bearing_deg": 180.0, 
        "Family": "Door-Single(CE)", 
        "interactive": false, 
        "Element": "Door", 
        "Building": "Main/Administration", 
        "kind": "door"
      }, 
      "type": "Feature"
    }, 
    {
      "geometry": {
        "coordinates": [
          -95.572143222096500, 
          42.756663908434312
        ], 
        "type": "Point"
      }, 
      "properties": {
        "Level": "LEVEL 4", 
        "RevitId": 5948542, 
        "Type": "Door", 
        "Revit_UniqueId": "8ec8d7a6-edf2-46e5-8774-1d9d0b539c06-005ac287", 
        "Name": "Door", 
        "bearing_deg": 270.0, 
        "Family": "Door-Single(CE)", 
        "interactive": false, 
        "Element": "Door", 
        "Building": "Main/Administration", 
        "kind": "door"
      }, 
      "type": "Feature"
    }, 
    {
      "geometry": {
        "coordinates": [
          -95.572143222096500, 
          42.756639984441641
        ], 
        "type": "Point"
      }, 
      "properties": {
        "Level": "LEVEL 4", 
        "RevitId": 5948543, 
        "Type": "Door", 
        "Revit_UniqueId": "8ec8d7a6-edf2-46e5-8774-1d9d0b539c06-005ac2b9", 
        "Name": "Door", 
        "bearing_deg": 270.0, 
        "Family": "Door-Single(CE)", 
        "interactive": false, 
        "Element": "Door", 
        "Building": "Main/Administration", 
        "kind": "door"
      }, 
      "type": "Feature"
    }
  ], 
  "type": "FeatureCollection", 
  "name": "Main/Administration - LEVEL 4 Doors"
}