{
  "features": [
    {
      "geometry": {
        "coordinates": [
          -95.572146774872962, 
          42.756706304544963
        ], 
        "type": "Point"
      }, 
      "properties": {
        "Level": "LEVEL 2", 
        "RevitId": 5665835, 
        "Type": "Door", 
        "Revit_UniqueId": "dad237cc-6968-4188-9f55-ae8359a05182-0056742b", 
        "Name": "Door", 
        "bearing_deg": 0.0, 
        "Family": "Door-Single(CE)", 
        "interactive": false, 
        "Element": "Door", 
        "Building": "Main/Administration", 
        "kind": "door"
      }, 
      "type": "Feature"
    }, 
    {
      "geometry": {
        "coordinates": [
          -95.572123890284857, 
          42.756679060955221
        ], 
        "type": "Point"
      }, 
      "properties": {
        "Level": "LEVEL 2", 
        "RevitId": 5665836, 
        "Type": "Door", 
        "Revit_UniqueId": "dad237cc-6968-4188-9f55-ae8359a05182-0056742c", 
        "Name": "Door", 
        "bearing_deg": 270.0, 
        "Family": "Door-Single(CE)", 
        "interactive": false, 
        "Element": "Door", 
        "Building": "Main/Administration", 
        "kind": "door"
      }, 
      "type": "Feature"
    }, 
    {
      "geometry": {
        "coordinates": [
          -95.572050052551347, 
          42.756678465305363
        ], 
        "type": "Point"
      }, 
      "properties": {
        "Level": "LEVEL 2", 
        "RevitId": 5665837, 
        "Type": "Door", 
        "Revit_UniqueId": "dad237cc-6968-4188-9f55-ae8359a05182-0056742d", 
        "Name": "Door", 
        "bearing_deg": 90.0, 
        "Family": "Door-Single(CE)", 
        "interactive": false, 
        "Element": "Door", 
        "Building": "Main/Administration", 
        "kind": "door"
      }, 
      "type": "Feature"
    }, 
    {
      "geometry": {
        "coordinates": [
          -95.572123890284857, 
          42.756750236740451
        ], 
        "type": "Point"
      }, 
      "properties": {
        "Level": "LEVEL 2", 
        "RevitId": 5665840, 
        "Type": "Door", 
        "Revit_UniqueId": "dad237cc-6968-4188-9f55-ae8359a05182-00567430", 
        "Name": "Door", 
        "bearing_deg": 270.0, 
        "Family": "Door-Single(CE)", 
        "interactive": false, 
        "Element": "Door", 
        "Building": "Main/Administration", 
        "kind": "door"
      }, 
      "type": "Feature"
    }, 
    {
      "geometry": {
        "coordinates": [
          -95.572123890284857, 
          42.756812965678179
        ], 
        "type": "Point"
      }, 
      "properties": {
        "Level": "LEVEL 2", 
        "RevitId": 5665842, 
        "Type": "Door", 
        "Revit_UniqueId": "dad237cc-6968-4188-9f55-ae8359a05182-00567432", 
        "Name": "Door", 
        "bearing_deg": 270.0, 
        "Family": "Door-Single(CE)", 
        "interactive": false, 
        "Element": "Door", 
        "Building": "Main/Administration", 
        "kind": "door"
      }, 
      "type": "Feature"
    }, 
    {
      "geometry": {
        "coordinates": [
          -95.572085909943922, 
          42.756904944824697
        ], 
        "type": "Point"
      }, 
      "properties": {
        "Level": "LEVEL 2", 
        "RevitId": 5665847, 
        "Type": "Door", 
        "Revit_UniqueId": "dad237cc-6968-4188-9f55-ae8359a05182-00567437", 
        "Name": "Door", 
        "bearing_deg": 0.0, 
        "Family": "Door-Double-Lite(CE)", 
        "interactive": false, 
        "Element": "Door", 
        "Building": "Main/Administration", 
        "kind": "door"
      }, 
      "type": "Feature"
    }, 
    {
      "geometry": {
        "coordinates": [
          -95.572050052551347, 
          42.756858580837566
        ], 
        "type": "Point"
      }, 
      "properties": {
        "Level": "LEVEL 2", 
        "RevitId": 5665863, 
        "Type": "Door", 
        "Revit_UniqueId": "dad237cc-6968-4188-9f55-ae8359a05182-00567447", 
        "Name": "Door", 
        "bearing_deg": 90.0, 
        "Family": "Door-Single(CE)", 
        "interactive": false, 
        "Element": "Door", 
        "Building": "Main/Administration", 
        "kind": "door"
      }, 
      "type": "Feature"
    }, 
    {
      "geometry": {
        "coordinates": [
          -95.572131014674412, 
          42.756865109659863
        ], 
        "type": "Point"
      }, 
      "properties": {
        "Level": "LEVEL 2", 
        "RevitId": 5665876, 
        "Type": "Door", 
        "Revit_UniqueId": "dad237cc-6968-4188-9f55-ae8359a05182-00567454", 
        "Name": "Door", 
        "bearing_deg": 270.0, 
        "Family": "Door-Elevator", 
        "interactive": false, 
        "Element": "Door", 
        "Building": "Main/Administration", 
        "kind": "door"
      }, 
      "type": "Feature"
    }, 
    {
      "geometry": {
        "coordinates": [
          -95.572123890284857, 
          42.756618956945779
        ], 
        "type": "Point"
      }, 
      "properties": {
        "Level": "LEVEL 2", 
        "RevitId": 5666546, 
        "Type": "Door", 
        "Revit_UniqueId": "dad237cc-6968-4188-9f55-ae8359a05182-005676f2", 
        "Name": "Door", 
        "bearing_deg": 270.0, 
        "Family": "Door-Double(CE)", 
        "interactive": false, 
        "Element": "Door", 
        "Building": "Main/Administration", 
        "kind": "door"
      }, 
      "type": "Feature"
    }, 
    {
      "geometry": {
        "coordinates": [
          -95.572050052551347, 
          42.756618956945779
        ], 
        "type": "Point"
      }, 
      "properties": {
        "Level": "LEVEL 2", 
        "RevitId": 5666595, 
        "Type": "Door", 
        "Revit_UniqueId": "dad237cc-6968-4188-9f55-ae8359a05182-00567723", 
        "Name": "Door", 
        "bearing_deg": 90.0, 
        "Family": "Door-Double(CE)", 
        "interactive": false, 
        "Element": "Door", 
        "Building": "Main/Administration", 
        "kind": "door"
      }, 
      "type": "Feature"
    }, 
    {
      "geometry": {
        "coordinates": [
          -95.572050052551347, 
          42.756764657953482
        ], 
        "type": "Point"
      }, 
      "properties": {
        "Level": "LEVEL 2", 
        "RevitId": 5666895, 
        "Type": "Door", 
        "Revit_UniqueId": "dad237cc-6968-4188-9f55-ae8359a05182-0056784f", 
        "Name": "Door", 
        "bearing_deg": 90.0, 
        "Family": "Door-Single(CE)", 
        "interactive": false, 
        "Element": "Door", 
        "Building": "Main/Administration", 
        "kind": "door"
      }, 
      "type": "Feature"
    }, 
    {
      "geometry": {
        "coordinates": [
          -95.572032591560173, 
          42.756825842742323
        ], 
        "type": "Point"
      }, 
      "properties": {
        "Level": "LEVEL 2", 
        "RevitId": 5667557, 
        "Type": "Door", 
        "Revit_UniqueId": "dad237cc-6968-4188-9f55-ae8359a05182-00567ae5", 
        "Name": "Door", 
        "bearing_deg": 90.0, 
        "Family": "Door-Single(CE)", 
        "interactive": false, 
        "Element": "Door", 
        "Building": "Main/Administration", 
        "kind": "door"
      }, 
      "type": "Feature"
    }, 
    {
      "geometry": {
        "coordinates": [
          -95.572086971418102, 
          42.756588050352370
        ], 
        "type": "Point"
      }, 
      "properties": {
        "Level": "LEVEL 2", 
        "RevitId": 5669188, 
        "Type": "Door", 
        "Revit_UniqueId": "dad237cc-6968-4188-9f55-ae8359a05182-00568144", 
        "Name": "Door", 
        "bearing_deg": 0.0, 
        "Family": "Door-Double-Ext Alum(CE)", 
        "interactive": false, 
        "Element": "Door", 
        "Building": "Main/Administration", 
        "kind": "door"
      }, 
      "type": "Feature"
    }, 
    {
      "geometry": {
        "coordinates": [
          -95.572050052551347, 
          42.756808856261571
        ], 
        "type": "Point"
      }, 
      "properties": {
        "Level": "LEVEL 2", 
        "RevitId": 5669706, 
        "Type": "Door", 
        "Revit_UniqueId": "dad237cc-6968-4188-9f55-ae8359a05182-0056834a", 
        "Name": "Door", 
        "bearing_deg": 90.0, 
        "Family": "Door-Double-Ext Alum(CE)", 
        "interactive": false, 
        "Element": "Door", 
        "Building": "Main/Administration", 
        "kind": "door"
      }, 
      "type": "Feature"
    }, 
    {
      "geometry": {
        "coordinates": [
          -95.571974083675912, 
          42.756722304473627
        ], 
        "type": "Point"
      }, 
      "properties": {
        "Level": "LEVEL 2", 
        "RevitId": 5670379, 
        "Type": "Door", 
        "Revit_UniqueId": "dad237cc-6968-4188-9f55-ae8359a05182-005685eb", 
        "Name": "Door", 
        "bearing_deg": 180.0, 
        "Family": "Door-Single(CE)", 
        "interactive": false, 
        "Element": "Door", 
        "Building": "Main/Administration", 
        "kind": "door"
      }, 
      "type": "Feature"
    }, 
    {
      "geometry": {
        "coordinates": [
          -95.571951302470580, 
          42.756706790539305
        ], 
        "type": "Point"
      }, 
      "properties": {
        "Level": "LEVEL 2", 
        "RevitId": 5670434, 
        "Type": "Door", 
        "Revit_UniqueId": "dad237cc-6968-4188-9f55-ae8359a05182-00568622", 
        "Name": "Door", 
        "bearing_deg": 180.0, 
        "Family": "Door-Single(CE)", 
        "interactive": false, 
        "Element": "Door", 
        "Building": "Main/Administration", 
        "kind": "door"
      }, 
      "type": "Feature"
    }, 
    {
      "geometry": {
        "coordinates": [
          -95.572146463069544, 
          42.756648569606476
        ], 
        "type": "Point"
      }, 
      "properties": {
        "Level": "LEVEL 2", 
        "RevitId": 5675577, 
        "Type": "Door", 
        "Revit_UniqueId": "dad237cc-6968-4188-9f55-ae8359a05182-00569a39", 
        "Name": "Door", 
        "bearing_deg": 0.0, 
        "Family": "Door-Single(CE)", 
        "interactive": false, 
        "Element": "Door", 
        "Building": "Main/Administration", 
        "kind": "door"
      }, 
      "type": "Feature"
    }, 
    {
      "geometry": {
        "coordinates": [
          -95.572026607619762, 
          42.756647583648132
        ], 
        "type": "Point"
      }, 
      "properties": {
        "Level": "LEVEL 2", 
        "RevitId": 5675578, 
        "Type": "Door", 
        "Revit_UniqueId": "dad237cc-6968-4188-9f55-ae8359a05182-00569a3a", 
        "Name": "Door", 
        "bearing_deg": 0.0, 
        "Family": "Door-Single(CE)", 
        "interactive": false, 
        "Element": "Door", 
        "Building": "Main/Administration", 
        "kind": "door"
      }, 
      "type": "Feature"
    }, 
    {
      "geometry": {
        "coordinates": [
          -95.572123890284857, 
          42.756558638124538
        ], 
        "type": "Point"
      }, 
      "properties": {
        "Level": "LEVEL 2", 
        "RevitId": 5926317, 
        "Type": "Door", 
        "Revit_UniqueId": "185e0212-5b70-45e3-8c84-bf7a196600d1-005a6dad", 
        "Name": "Door", 
        "bearing_deg": 270.0, 
        "Family": "Door-Single(CE)", 
        "interactive": false, 
        "Element": "Door", 
        "Building": "Main/Administration", 
        "kind": "door"
      }, 
      "type": "Feature"
    }, 
    {
      "geometry": {
        "coordinates": [
          -95.572050052551347, 
          42.756558638124538
        ], 
        "type": "Point"
      }, 
      "properties": {
        "Level": "LEVEL 2", 
        "RevitId": 5926339, 
        "Type": "Door", 
        "Revit_UniqueId": "185e0212-5b70-45e3-8c84-bf7a196600d1-005a6dc3", 
        "Name": "Door", 
        "bearing_deg": 90.0, 
        "Family": "Door-Single(CE)", 
        "interactive": false, 
        "Element": "Door", 
        "Building": "Main/Administration", 
        "kind": "door"
      }, 
      "type": "Feature"
    }, 
    {
      "geometry": {
        "coordinates": [
          -95.572086971418102, 
          42.756529225896713
        ], 
        "type": "Point"
      }, 
      "properties": {
        "Level": "LEVEL 2", 
        "RevitId": 5926379, 
        "Type": "Door", 
        "Revit_UniqueId": "185e0212-5b70-45e3-8c84-bf7a196600d1-005a6deb", 
        "Name": "Door", 
        "bearing_deg": 0.0, 
        "Family": "Door-Single(CE)", 
        "interactive": false, 
        "Element": "Door", 
        "Building": "Main/Administration", 
        "kind": "door"
      }, 
      "type": "Feature"
    }, 
    {
      "geometry": {
        "coordinates": [
          -95.571966741364321, 
          42.756698205374470
        ], 
        "type": "Point"
      }, 
      "properties": {
        "Level": "LEVEL 2", 
        "RevitId": 5926824, 
        "Type": "Door", 
        "Revit_UniqueId": "185e0212-5b70-45e3-8c84-bf7a196600d1-005a6fa8", 
        "Name": "Door", 
        "bearing_deg": 90.0, 
        "Family": "Door-Single(CE)", 
        "interactive": false, 
        "Element": "Door", 
        "Building": "Main/Administration", 
        "kind": "door"
      }, 
      "type": "Feature"
    }, 
    {
      "geometry": {
        "coordinates": [
          -95.571974083675912, 
          42.756735353924178
        ], 
        "type": "Point"
      }, 
      "properties": {
        "Level": "LEVEL 2", 
        "RevitId": 5926908, 
        "Type": "Door", 
        "Revit_UniqueId": "185e0212-5b70-45e3-8c84-bf7a196600d1-005a6ffc", 
        "Name": "Door", 
        "bearing_deg": 0.0, 
        "Family": "Door-Single(CE)", 
        "interactive": false, 
        "Element": "Door", 
        "Building": "Main/Administration", 
        "kind": "door"
      }, 
      "type": "Feature"
    }, 
    {
      "geometry": {
        "coordinates": [
          -95.572050052551347, 
          42.756727341103662
        ], 
        "type": "Point"
      }, 
      "properties": {
        "Level": "LEVEL 2", 
        "RevitId": 6023044, 
        "Type": "Door", 
        "Revit_UniqueId": "568ae92b-a280-451e-8461-f6d387948176-005be784", 
        "Name": "Door", 
        "bearing_deg": 90.0, 
        "Family": "Door-Single(CE)", 
        "interactive": false, 
        "Element": "Door", 
        "Building": "Main/Administration", 
        "kind": "door"
      }, 
      "type": "Feature"
    }
  ], 
  "type": "FeatureCollection", 
  "name": "Main/Administration - LEVEL 2 Doors"
}