{"name":"633004_SarpyMP Juvenile Justice Center_R26 - LEVEL 1","features":[{"properties":{"NCES_Type":"Waiting/Queue Area","Number":"100","Name":"ENTRY VEST.","NCES_Department":"Juvenile Justice Center","Seat Count":"","Revit_UniqueId":"1aaeed2f-b4e7-4873-9f01-18e6280fb552-0052e634","Workstations":"","Element":"Room","NCES_Occupancy Status":"","occupancyStatus":"Occupied","Level":"LEVEL 1","RevitId":5432884,"Area_SF":48.45},"geometry":{"coordinates":[[[-96.066091,41.165476],[-96.066059,41.165476],[-96.066059,41.165493],[-96.066091,41.165493],[-96.066091,41.165476]]],"type":"Polygon"},"type":"Feature"},{"properties":{"NCES_Type":"Lobby/Reception","Number":"101","Name":"LOBBY","NCES_Department":"Juvenile Justice Center","Seat Count":"","Revit_UniqueId":"1aaeed2f-b4e7-4873-9f01-18e6280fb552-0052e646","Workstations":"","Element":"Room","NCES_Occupancy Status":"","occupancyStatus":"Occupied","Level":"LEVEL 1","RevitId":5432902,"Area_SF":322.84},"geometry":{"coordinates":[[[-96.066027,41.165476],[-96.066026,41.165476],[-96.066026,41.165493],[-96.066026,41.165519],[-96.066026,41.165548],[-96.066026,41.165551],[-96.066048,41.165551],[-96.066048,41.165532],[-96.066091,41.165532],[-96.066091,41.165532],[-96.066091,41.165493],[-96.066091,41.165493],[-96.066059,41.165493],[-96.066059,41.165476],[-96.066027,41.165476]]],"type":"Polygon"},"type":"Feature"},{"properties":{"NCES_Type":"Mens Restroom","Number":"102","Name":"MEN","NCES_Department":"Juvenile Justice Center","Seat Count":"","Revit_UniqueId":"1aaeed2f-b4e7-4873-9f01-18e6280fb552-0052e64e","Workstations":"","Element":"Room","NCES_Occupancy Status":"","occupancyStatus":"Occupied","Level":"LEVEL 1","RevitId":5432910,"Area_SF":53.67},"geometry":{"coordinates":[[[-96.066004,41.16553],[-96.066004,41.165548],[-96.066026,41.165548],[-96.066026,41.165519],[-96.066004,41.165519],[-96.066004,41.16553]]],"type":"Polygon"},"type":"Feature"},{"properties":{"NCES_Type":"Womens Restroom","Number":"103","Name":"WOMEN","NCES_Department":"Juvenile Justice Center","Seat Count":"","Revit_UniqueId":"1aaeed2f-b4e7-4873-9f01-18e6280fb552-0052e651","Workstations":"","Element":"Room","NCES_Occupancy Status":"","occupancyStatus":"Occupied","Level":"LEVEL 1","RevitId":5432913,"Area_SF":45.33},"geometry":{"coordinates":[[[-96.066004,41.165493],[-96.066004,41.165519],[-96.066026,41.165519],[-96.066026,41.165493],[-96.066004,41.165493]]],"type":"Polygon"},"type":"Feature"},{"properties":{"NCES_Type":"Private Office - Enclosed","Number":"104","Name":"OFFICE","NCES_Department":"Juvenile Justice Center","Seat Count":"","Revit_UniqueId":"1aaeed2f-b4e7-4873-9f01-18e6280fb552-0052e654","Workstations":"1","Element":"Room","NCES_Occupancy Status":"","occupancyStatus":"Occupied","Level":"LEVEL 1","RevitId":5432916,"Area_SF":99.29},"geometry":{"coordinates":[[[-96.066004,41.16553],[-96.066004,41.165519],[-96.066004,41.165493],[-96.066004,41.165493],[-96.065974,41.165493],[-96.065974,41.16553],[-96.066004,41.16553]]],"type":"Polygon"},"type":"Feature"},{"properties":{"NCES_Type":"Booking/Processing","Number":"105","Name":"JUV. WAITING/PROCESSING","NCES_Department":"Juvenile Justice Center","Seat Count":"","Revit_UniqueId":"1aaeed2f-b4e7-4873-9f01-18e6280fb552-0052e657","Workstations":"1","Element":"Room","NCES_Occupancy Status":"","occupancyStatus":"Occupied","Level":"LEVEL 1","RevitId":5432919,"Area_SF":291.9},"geometry":{"coordinates":[[[-96.066019,41.165551],[-96.066004,41.165551],[-96.066004,41.165548],[-96.066004,41.16553],[-96.065974,41.16553],[-96.065965,41.16553],[-96.065899,41.16553],[-96.065899,41.165538],[-96.065908,41.165538],[-96.065912,41.165538],[-96.065931,41.165538],[-96.065931,41.165555],[-96.065956,41.165555],[-96.065956,41.16557],[-96.065979,41.16557],[-96.066019,41.16557],[-96.066019,41.165551]]],"type":"Polygon"},"type":"Feature"},{"properties":{"NCES_Type":"Shared Office - Enclosed","Number":"106","Name":"SUPV. OFFICE","NCES_Department":"Juvenile Justice Center","Seat Count":"","Revit_UniqueId":"1aaeed2f-b4e7-4873-9f01-18e6280fb552-0052e65a","Workstations":"3","Element":"Room","NCES_Occupancy Status":"","occupancyStatus":"Occupied","Level":"LEVEL 1","RevitId":5432922,"Area_SF":132.32},"geometry":{"coordinates":[[[-96.065979,41.165607],[-96.066019,41.165607],[-96.066019,41.16557],[-96.065979,41.16557],[-96.065979,41.165607]]],"type":"Polygon"},"type":"Feature"},{"properties":{"NCES_Type":"Search/Pat Down Room","Number":"107","Name":"SEARCH/RR","NCES_Department":"Juvenile Justice Center","Seat Count":"","Revit_UniqueId":"1aaeed2f-b4e7-4873-9f01-18e6280fb552-0052e65d","Workstations":"","Element":"Room","NCES_Occupancy Status":"","occupancyStatus":"Occupied","Level":"LEVEL 1","RevitId":5432925,"Area_SF":70.08},"geometry":{"coordinates":[[[-96.065956,41.165607],[-96.065979,41.165607],[-96.065979,41.16557],[-96.065956,41.16557],[-96.065956,41.165584],[-96.06596,41.165584],[-96.06596,41.165592],[-96.065956,41.165592],[-96.065956,41.165607]]],"type":"Polygon"},"type":"Feature"},{"properties":{"NCES_Type":"Medical/Nurse Triage Room","Number":"108","Name":"MED EXAM","NCES_Department":"Juvenile Justice Center","Seat Count":"","Revit_UniqueId":"1aaeed2f-b4e7-4873-9f01-18e6280fb552-0052e660","Workstations":"","Element":"Room","NCES_Occupancy Status":"","occupancyStatus":"Occupied","Level":"LEVEL 1","RevitId":5432928,"Area_SF":123.87},"geometry":{"coordinates":[[[-96.065925,41.165607],[-96.065956,41.165607],[-96.065956,41.165592],[-96.065956,41.165584],[-96.065956,41.16557],[-96.065924,41.16557],[-96.065918,41.16557],[-96.065914,41.16557],[-96.065914,41.165589],[-96.065925,41.165589],[-96.065925,41.165607]]],"type":"Polygon"},"type":"Feature"},{"properties":{"NCES_Type":"Shared Office - Enclosed","Number":"109","Name":"MED OFFICE","NCES_Department":"Juvenile Justice Center","Seat Count":"","Revit_UniqueId":"1aaeed2f-b4e7-4873-9f01-18e6280fb552-0052e663","Workstations":"1","Element":"Room","NCES_Occupancy Status":"","occupancyStatus":"Occupied","Level":"LEVEL 1","RevitId":5432931,"Area_SF":137.17},"geometry":{"coordinates":[[[-96.065871,41.16557],[-96.065871,41.165587],[-96.065864,41.165587],[-96.065864,41.165604],[-96.065864,41.165607],[-96.065902,41.165607],[-96.065902,41.165589],[-96.065914,41.165589],[-96.065914,41.16557],[-96.065895,41.16557],[-96.065871,41.16557]]],"type":"Polygon"},"type":"Feature"},{"properties":{"NCES_Type":"Single Stall Restroom","Number":"110","Name":"JUV. RR","NCES_Department":"Juvenile Justice Center","Seat Count":"","Revit_UniqueId":"1aaeed2f-b4e7-4873-9f01-18e6280fb552-0052e666","Workstations":"","Element":"Room","NCES_Occupancy Status":"","occupancyStatus":"Occupied","Level":"LEVEL 1","RevitId":5432934,"Area_SF":39.97},"geometry":{"coordinates":[[[-96.065956,41.165555],[-96.065931,41.165555],[-96.065924,41.165555],[-96.065924,41.16557],[-96.065956,41.16557],[-96.065956,41.165555]]],"type":"Polygon"},"type":"Feature"},{"properties":{"NCES_Type":"Staff Toilet/Changing","Number":"111","Name":"STAFF RR","NCES_Department":"Juvenile Justice Center","Seat Count":"","Revit_UniqueId":"1aaeed2f-b4e7-4873-9f01-18e6280fb552-0052e669","Workstations":"","Element":"Room","NCES_Occupancy Status":"","occupancyStatus":"Occupied","Level":"LEVEL 1","RevitId":5432937,"Area_SF":27.96},"geometry":{"coordinates":[[[-96.065918,41.165555],[-96.065912,41.165555],[-96.065908,41.165555],[-96.065895,41.165555],[-96.065895,41.16557],[-96.065914,41.16557],[-96.065918,41.16557],[-96.065918,41.165555]]],"type":"Polygon"},"type":"Feature"},{"properties":{"NCES_Type":"Waiting/Queue Area","Number":"112","Name":"MED WAITING","NCES_Department":"Juvenile Justice Center","Seat Count":"","Revit_UniqueId":"1aaeed2f-b4e7-4873-9f01-18e6280fb552-0052e66c","Workstations":"","Element":"Room","NCES_Occupancy Status":"","occupancyStatus":"Occupied","Level":"LEVEL 1","RevitId":5432940,"Area_SF":35.79},"geometry":{"coordinates":[[[-96.065902,41.165607],[-96.065925,41.165607],[-96.065925,41.165589],[-96.065914,41.165589],[-96.065902,41.165589],[-96.065902,41.165607]]],"type":"Polygon"},"type":"Feature"},{"properties":{"NCES_Type":"Staff Toilet/Changing","Number":"113","Name":"STAFF RR","NCES_Department":"Juvenile Justice Center","Seat Count":"","Revit_UniqueId":"1aaeed2f-b4e7-4873-9f01-18e6280fb552-0052e66f","Workstations":"","Element":"Room","NCES_Occupancy Status":"","occupancyStatus":"Occupied","Level":"LEVEL 1","RevitId":5432943,"Area_SF":28.3},"geometry":{"coordinates":[[[-96.065931,41.165538],[-96.065912,41.165538],[-96.065912,41.165555],[-96.065918,41.165555],[-96.065924,41.165555],[-96.065931,41.165555],[-96.065931,41.165538]]],"type":"Polygon"},"type":"Feature"},{"properties":{"NCES_Type":"General Storage","Number":"114","Name":"MED STORAGE","NCES_Department":"Juvenile Justice Center","Seat Count":"","Revit_UniqueId":"1aaeed2f-b4e7-4873-9f01-18e6280fb552-0052e672","Workstations":"","Element":"Room","NCES_Occupancy Status":"","occupancyStatus":"Occupied","Level":"LEVEL 1","RevitId":5432946,"Area_SF":86.37},"geometry":{"coordinates":[[[-96.065908,41.165538],[-96.065899,41.165538],[-96.065871,41.165538],[-96.065871,41.16557],[-96.065895,41.16557],[-96.065895,41.165555],[-96.065908,41.165555],[-96.065908,41.165538]]],"type":"Polygon"},"type":"Feature"},{"properties":{"NCES_Type":"File Room - Active","Number":"115","Name":"FILE STOR","NCES_Department":"Juvenile Justice Center","Seat Count":"","Revit_UniqueId":"1aaeed2f-b4e7-4873-9f01-18e6280fb552-0052e675","Workstations":"","Element":"Room","NCES_Occupancy Status":"","occupancyStatus":"Occupied","Level":"LEVEL 1","RevitId":5432949,"Area_SF":26.13},"geometry":{"coordinates":[[[-96.065899,41.16553],[-96.065899,41.165526],[-96.065871,41.165526],[-96.065871,41.165538],[-96.065899,41.165538],[-96.065899,41.16553]]],"type":"Polygon"},"type":"Feature"},{"properties":{"NCES_Type":"Waiting/Queue Area","Number":"116","Name":"CLERICAL WORK","NCES_Department":"Juvenile Justice Center","Seat Count":"","Revit_UniqueId":"1aaeed2f-b4e7-4873-9f01-18e6280fb552-0052e740","Workstations":"","Element":"Room","NCES_Occupancy Status":"","occupancyStatus":"Occupied","Level":"LEVEL 1","RevitId":5433152,"Area_SF":342.18},"geometry":{"coordinates":[[[-96.065974,41.165493],[-96.065974,41.165481],[-96.065946,41.165481],[-96.065946,41.165484],[-96.065936,41.165484],[-96.065927,41.165484],[-96.065927,41.165481],[-96.065899,41.165481],[-96.065899,41.165493],[-96.065899,41.165526],[-96.065899,41.16553],[-96.065965,41.16553],[-96.065974,41.16553],[-96.065974,41.165493]]],"type":"Polygon"},"type":"Feature"},{"properties":{"NCES_Type":"Shared Office - Enclosed","Number":"A100","Name":"MULTIPURPOSE OFFICE","NCES_Department":"Juvenile Justice Center","Seat Count":"2","Revit_UniqueId":"1aaeed2f-b4e7-4873-9f01-18e6280fb552-0052e748","Workstations":"","Element":"Room","NCES_Occupancy Status":"","occupancyStatus":"Occupied","Level":"LEVEL 1","RevitId":5433160,"Area_SF":134.68},"geometry":{"coordinates":[[[-96.066026,41.165476],[-96.066027,41.165476],[-96.066027,41.165464],[-96.065975,41.165464],[-96.065974,41.165464],[-96.065974,41.165481],[-96.065974,41.165493],[-96.066004,41.165493],[-96.066004,41.165493],[-96.066026,41.165493],[-96.066026,41.165476]]],"type":"Polygon"},"type":"Feature"},{"properties":{"NCES_Type":"Conference Room","Number":"A101","Name":"CONFERENCE ROOM","NCES_Department":"Juvenile Justice Center","Seat Count":"6","Revit_UniqueId":"1aaeed2f-b4e7-4873-9f01-18e6280fb552-0052e74b","Workstations":"","Element":"Room","NCES_Occupancy Status":"","occupancyStatus":"Occupied","Level":"LEVEL 1","RevitId":5433163,"Area_SF":122.68},"geometry":{"coordinates":[[[-96.065936,41.165446],[-96.065897,41.165446],[-96.065897,41.165464],[-96.065899,41.165464],[-96.065899,41.165481],[-96.065927,41.165481],[-96.065927,41.165484],[-96.065936,41.165484],[-96.065936,41.165446]]],"type":"Polygon"},"type":"Feature"},{"properties":{"NCES_Type":"Private Office - Enclosed","Number":"A103","Name":"MULTI-PURPOSE OFFICE","NCES_Department":"Juvenile Justice Center","Seat Count":"","Revit_UniqueId":"1aaeed2f-b4e7-4873-9f01-18e6280fb552-0052e74e","Workstations":"1","Element":"Room","NCES_Occupancy Status":"","occupancyStatus":"Occupied","Level":"LEVEL 1","RevitId":5433166,"Area_SF":113.05},"geometry":{"coordinates":[[[-96.065899,41.165464],[-96.065897,41.165464],[-96.065855,41.165464],[-96.065854,41.165464],[-96.065854,41.165493],[-96.065899,41.165493],[-96.065899,41.165481],[-96.065899,41.165464]]],"type":"Polygon"},"type":"Feature"},{"properties":{"NCES_Type":"Counseling/Case Management Room","Number":"117","Name":"PROBATION/OFFICE","NCES_Department":"Juvenile Justice Center","Seat Count":"","Revit_UniqueId":"1aaeed2f-b4e7-4873-9f01-18e6280fb552-0052e75e","Workstations":"2","Element":"Room","NCES_Occupancy Status":"","occupancyStatus":"Occupied","Level":"LEVEL 1","RevitId":5433182,"Area_SF":132.46},"geometry":{"coordinates":[[[-96.065899,41.165526],[-96.065899,41.165493],[-96.065854,41.165493],[-96.065854,41.165511],[-96.065854,41.165526],[-96.065871,41.165526],[-96.065899,41.165526]]],"type":"Polygon"},"type":"Feature"},{"properties":{"NCES_Type":"Single Stall Restroom","Number":"118","Name":"RR","NCES_Department":"Juvenile Justice Center","Seat Count":"","Revit_UniqueId":"1aaeed2f-b4e7-4873-9f01-18e6280fb552-0052e766","Workstations":"","Element":"Room","NCES_Occupancy Status":"","occupancyStatus":"Occupied","Level":"LEVEL 1","RevitId":5433190,"Area_SF":30.43},"geometry":{"coordinates":[[[-96.065847,41.165587],[-96.065826,41.165587],[-96.065826,41.165604],[-96.065847,41.165604],[-96.065847,41.165587]]],"type":"Polygon"},"type":"Feature"},{"properties":{"NCES_Type":"Bulk Storage","Number":"119","Name":"STOR","NCES_Department":"Juvenile Justice Center","Seat Count":"","Revit_UniqueId":"1aaeed2f-b4e7-4873-9f01-18e6280fb552-0052e769","Workstations":"","Element":"Room","NCES_Occupancy Status":"","occupancyStatus":"Occupied","Level":"LEVEL 1","RevitId":5433193,"Area_SF":256.13},"geometry":{"coordinates":[[[-96.065871,41.165526],[-96.065854,41.165526],[-96.065834,41.165526],[-96.065826,41.165526],[-96.065826,41.165553],[-96.065826,41.165553],[-96.065826,41.165587],[-96.065847,41.165587],[-96.065864,41.165587],[-96.065871,41.165587],[-96.065871,41.16557],[-96.065871,41.165538],[-96.065871,41.165526]]],"type":"Polygon"},"type":"Feature"},{"properties":{"NCES_Type":"General Storage","Number":"120","Name":"STOR.","NCES_Department":"Juvenile Justice Center","Seat Count":"","Revit_UniqueId":"1aaeed2f-b4e7-4873-9f01-18e6280fb552-0052e76c","Workstations":"","Element":"Room","NCES_Occupancy Status":"","occupancyStatus":"Occupied","Level":"LEVEL 1","RevitId":5433196,"Area_SF":10.16},"geometry":{"coordinates":[[[-96.065834,41.165526],[-96.065854,41.165526],[-96.065854,41.165511],[-96.065834,41.165526]]],"type":"Polygon"},"type":"Feature"},{"properties":{"NCES_Type":"Sally Port/Secure Transfer","Number":"121","Name":"VEHICULAR SALLYPORT","NCES_Department":"Juvenile Justice Center","Seat Count":"","Revit_UniqueId":"1aaeed2f-b4e7-4873-9f01-18e6280fb552-0052e76f","Workstations":"","Element":"Room","NCES_Occupancy Status":"","occupancyStatus":"Occupied","Level":"LEVEL 1","RevitId":5433199,"Area_SF":714.45},"geometry":{"coordinates":[[[-96.065854,41.165464],[-96.065855,41.165464],[-96.065855,41.165458],[-96.065739,41.165458],[-96.065739,41.165526],[-96.065763,41.165526],[-96.065778,41.165526],[-96.065801,41.165526],[-96.065826,41.165526],[-96.065834,41.165526],[-96.065854,41.165511],[-96.065854,41.165493],[-96.065854,41.165464]]],"type":"Polygon"},"type":"Feature"},{"properties":{"NCES_Type":"Sally Port/Secure Transfer","Number":"122","Name":"SALLY-PORT B","NCES_Department":"Juvenile Justice Center","Seat Count":"","Revit_UniqueId":"1aaeed2f-b4e7-4873-9f01-18e6280fb552-0052e772","Workstations":"","Element":"Room","NCES_Occupancy Status":"","occupancyStatus":"Occupied","Level":"LEVEL 1","RevitId":5433202,"Area_SF":54.99},"geometry":{"coordinates":[[[-96.065826,41.165526],[-96.065801,41.165526],[-96.065801,41.165553],[-96.065826,41.165553],[-96.065826,41.165526]]],"type":"Polygon"},"type":"Feature"},{"properties":{"NCES_Type":"Holding Cell - Separation","Number":"123","Name":"HOLDING","NCES_Department":"Juvenile Justice Center","Seat Count":"","Revit_UniqueId":"1aaeed2f-b4e7-4873-9f01-18e6280fb552-0052e775","Workstations":"","Element":"Room","NCES_Occupancy Status":"","occupancyStatus":"Occupied","Level":"LEVEL 1","RevitId":5433205,"Area_SF":68.99},"geometry":{"coordinates":[[[-96.065801,41.165526],[-96.065778,41.165526],[-96.065778,41.165529],[-96.065771,41.165535],[-96.065771,41.165553],[-96.065801,41.165553],[-96.065801,41.165526]]],"type":"Polygon"},"type":"Feature"},{"properties":{"NCES_Type":"Holding Cell - Single","Number":"124","Name":"D.E. HOLDING","NCES_Department":"Juvenile Justice Center","Seat Count":"","Revit_UniqueId":"1aaeed2f-b4e7-4873-9f01-18e6280fb552-0052e778","Workstations":"","Element":"Room","NCES_Occupancy Status":"","occupancyStatus":"Occupied","Level":"LEVEL 1","RevitId":5433208,"Area_SF":68.72},"geometry":{"coordinates":[[[-96.065739,41.165526],[-96.065739,41.165553],[-96.065771,41.165553],[-96.065771,41.165535],[-96.065763,41.165529],[-96.065763,41.165526],[-96.065739,41.165526]]],"type":"Polygon"},"type":"Feature"},{"properties":{"NCES_Type":"Booking/Processing","Number":"15","Name":"BOOKING","NCES_Department":"Juvenile Justice Center","Seat Count":"","Revit_UniqueId":"1aaeed2f-b4e7-4873-9f01-18e6280fb552-0052e790","Workstations":"1","Element":"Room","NCES_Occupancy Status":"","occupancyStatus":"Occupied","Level":"LEVEL 1","RevitId":5433232,"Area_SF":313.58},"geometry":{"coordinates":[[[-96.065739,41.165553],[-96.065739,41.165586],[-96.065739,41.165587],[-96.065746,41.165587],[-96.065746,41.165596],[-96.065748,41.165597],[-96.065755,41.165602],[-96.06578,41.165583],[-96.065807,41.165583],[-96.065807,41.165607],[-96.065826,41.165607],[-96.065826,41.165604],[-96.065826,41.165587],[-96.065826,41.165553],[-96.065826,41.165553],[-96.065801,41.165553],[-96.065771,41.165553],[-96.065739,41.165553]]],"type":"Polygon"},"type":"Feature"},{"properties":{"NCES_Type":"Secure Interview","Number":"127","Name":"INTERVIEW ROOM","NCES_Department":"Juvenile Justice Center","Seat Count":"","Revit_UniqueId":"1aaeed2f-b4e7-4873-9f01-18e6280fb552-0052e798","Workstations":"","Element":"Room","NCES_Occupancy Status":"","occupancyStatus":"Occupied","Level":"LEVEL 1","RevitId":5433240,"Area_SF":86.53},"geometry":{"coordinates":[[[-96.065807,41.165583],[-96.06578,41.165583],[-96.065755,41.165602],[-96.065763,41.165609],[-96.065766,41.165607],[-96.065807,41.165607],[-96.065807,41.165583]]],"type":"Polygon"},"type":"Feature"},{"properties":{"NCES_Type":"Single Stall Restroom","Number":"128","Name":"R.R.","NCES_Department":"Juvenile Justice Center","Seat Count":"","Revit_UniqueId":"1aaeed2f-b4e7-4873-9f01-18e6280fb552-0052e79f","Workstations":"","Element":"Room","NCES_Occupancy Status":"","occupancyStatus":"Occupied","Level":"LEVEL 1","RevitId":5433247,"Area_SF":39.24},"geometry":{"coordinates":[[[-96.065739,41.165587],[-96.065739,41.165586],[-96.065716,41.165586],[-96.065716,41.165589],[-96.065716,41.165603],[-96.06574,41.165603],[-96.065748,41.165597],[-96.065746,41.165596],[-96.065746,41.165587],[-96.065739,41.165587]]],"type":"Polygon"},"type":"Feature"},{"properties":{"NCES_Type":"Detention Control/Monitoring","Number":"129","Name":"MASTER CONTROL","NCES_Department":"Juvenile Justice Center","Seat Count":"","Revit_UniqueId":"1aaeed2f-b4e7-4873-9f01-18e6280fb552-0052e7a2","Workstations":"","Element":"Room","NCES_Occupancy Status":"","occupancyStatus":"Occupied","Level":"LEVEL 1","RevitId":5433250,"Area_SF":255.76},"geometry":{"coordinates":[[[-96.065696,41.165631],[-96.06572,41.165641],[-96.065763,41.165609],[-96.065755,41.165602],[-96.065748,41.165597],[-96.06574,41.165603],[-96.065716,41.165603],[-96.065716,41.165587],[-96.065689,41.165587],[-96.065666,41.165618],[-96.065696,41.165631]]],"type":"Polygon"},"type":"Feature"},{"properties":{"NCES_Type":"Staff Toilet/Changing","Number":"130","Name":"STAFF RR","NCES_Department":"Juvenile Justice Center","Seat Count":"","Revit_UniqueId":"1aaeed2f-b4e7-4873-9f01-18e6280fb552-0052e7a5","Workstations":"","Element":"Room","NCES_Occupancy Status":"","occupancyStatus":"Occupied","Level":"LEVEL 1","RevitId":5433253,"Area_SF":24.86},"geometry":{"coordinates":[[[-96.065667,41.165651],[-96.065657,41.165664],[-96.065677,41.165673],[-96.065684,41.165659],[-96.065667,41.165651]]],"type":"Polygon"},"type":"Feature"},{"properties":{"NCES_Type":"Radio/IT Communications Room","Number":"131","Name":"RADIO ROOM","NCES_Department":"Juvenile Justice Center","Seat Count":"","Revit_UniqueId":"1aaeed2f-b4e7-4873-9f01-18e6280fb552-0052e7a8","Workstations":"","Element":"Room","NCES_Occupancy Status":"","occupancyStatus":"Occupied","Level":"LEVEL 1","RevitId":5433256,"Area_SF":58.84},"geometry":{"coordinates":[[[-96.065657,41.165664],[-96.065639,41.165687],[-96.065665,41.165698],[-96.065677,41.165673],[-96.065657,41.165664]]],"type":"Polygon"},"type":"Feature"},{"properties":{"NCES_Type":"Private Office - Enclosed","Number":"132","Name":"OFFICE","NCES_Department":"Juvenile Justice Center","Seat Count":"","Revit_UniqueId":"1aaeed2f-b4e7-4873-9f01-18e6280fb552-0052e7ab","Workstations":"1","Element":"Room","NCES_Occupancy Status":"","occupancyStatus":"Occupied","Level":"LEVEL 1","RevitId":5433259,"Area_SF":76.25},"geometry":{"coordinates":[[[-96.065639,41.165687],[-96.065621,41.165711],[-96.065652,41.165725],[-96.065665,41.165698],[-96.065639,41.165687]]],"type":"Polygon"},"type":"Feature"},{"properties":{"NCES_Type":"Private Office - Enclosed","Number":"133","Name":"OFFICE","NCES_Department":"Juvenile Justice Center","Seat Count":"","Revit_UniqueId":"1aaeed2f-b4e7-4873-9f01-18e6280fb552-0052e7ae","Workstations":"1","Element":"Room","NCES_Occupancy Status":"","occupancyStatus":"Occupied","Level":"LEVEL 1","RevitId":5433262,"Area_SF":91.36},"geometry":{"coordinates":[[[-96.065621,41.165711],[-96.065603,41.165734],[-96.065639,41.16575],[-96.065652,41.165725],[-96.065621,41.165711]]],"type":"Polygon"},"type":"Feature"},{"properties":{"NCES_Type":"Program Service Room","Number":"134","Name":"LAUNDRY","NCES_Department":"Juvenile Justice Center","Seat Count":"","Revit_UniqueId":"1aaeed2f-b4e7-4873-9f01-18e6280fb552-0052e7b1","Workstations":"","Element":"Room","NCES_Occupancy Status":"","occupancyStatus":"Occupied","Level":"LEVEL 1","RevitId":5433265,"Area_SF":128.76},"geometry":{"coordinates":[[[-96.065584,41.165759],[-96.065583,41.16576],[-96.065583,41.16576],[-96.065594,41.165765],[-96.065606,41.16577],[-96.065608,41.165771],[-96.065605,41.165776],[-96.065623,41.165784],[-96.065639,41.16575],[-96.065603,41.165734],[-96.065584,41.165759]]],"type":"Polygon"},"type":"Feature"},{"properties":{"NCES_Type":"Multipurpose Room","Number":"135","Name":"QUIET LIVING/DAY ROOM","NCES_Department":"Juvenile Justice Center","Seat Count":"","Revit_UniqueId":"1aaeed2f-b4e7-4873-9f01-18e6280fb552-0052e7b4","Workstations":"","Element":"Room","NCES_Occupancy Status":"","occupancyStatus":"Occupied","Level":"LEVEL 1","RevitId":5433268,"Area_SF":533.64},"geometry":{"coordinates":[[[-96.065612,41.165807],[-96.065612,41.165807],[-96.065589,41.165797],[-96.065586,41.165796],[-96.065564,41.165786],[-96.065554,41.165782],[-96.06554,41.165784],[-96.06554,41.165785],[-96.06554,41.165785],[-96.065525,41.165804],[-96.065511,41.165823],[-96.06551,41.165824],[-96.06551,41.165824],[-96.065514,41.165834],[-96.065514,41.165834],[-96.065514,41.165834],[-96.065533,41.165843],[-96.065558,41.165853],[-96.065579,41.165863],[-96.06558,41.165863],[-96.06559,41.165861],[-96.065623,41.165818],[-96.065621,41.165811],[-96.065612,41.165807]]],"type":"Polygon"},"type":"Feature"},{"properties":{"NCES_Type":"Holding Support Toilet/Shower","Number":"135A","Name":"RR/SHOWER","NCES_Department":"Juvenile Justice Center","Seat Count":"","Revit_UniqueId":"1aaeed2f-b4e7-4873-9f01-18e6280fb552-0052e7b7","Workstations":"","Element":"Room","NCES_Occupancy Status":"","occupancyStatus":"Occupied","Level":"LEVEL 1","RevitId":5433271,"Area_SF":48.5},"geometry":{"coordinates":[[[-96.065612,41.165807],[-96.065623,41.165784],[-96.065605,41.165776],[-96.065599,41.165784],[-96.065589,41.165797],[-96.065612,41.165807]]],"type":"Polygon"},"type":"Feature"},{"properties":{"NCES_Type":"Holding Support Toilet/Shower","Number":"135B","Name":"SHOWER (ADA)","NCES_Department":"Juvenile Justice Center","Seat Count":"","Revit_UniqueId":"1aaeed2f-b4e7-4873-9f01-18e6280fb552-0052e7c2","Workstations":"","Element":"Room","NCES_Occupancy Status":"","occupancyStatus":"Occupied","Level":"LEVEL 1","RevitId":5433282,"Area_SF":54.74},"geometry":{"coordinates":[[[-96.065594,41.165765],[-96.065583,41.16576],[-96.065564,41.165786],[-96.065586,41.165796],[-96.0656,41.165778],[-96.065588,41.165773],[-96.065594,41.165765]]],"type":"Polygon"},"type":"Feature"},{"properties":{"NCES_Type":"","Number":"135C","Name":"DOUBLE B.R.","NCES_Department":"Juvenile Justice Center","Seat Count":"","Revit_UniqueId":"1aaeed2f-b4e7-4873-9f01-18e6280fb552-0052e7c5","Workstations":"","Element":"Room","NCES_Occupancy Status":"","occupancyStatus":"Occupied","Level":"LEVEL 1","RevitId":5433285,"Area_SF":122.85},"geometry":{"coordinates":[[[-96.065526,41.165768],[-96.065525,41.165769],[-96.065536,41.165774],[-96.065539,41.165785],[-96.065554,41.165782],[-96.065564,41.165786],[-96.065583,41.16576],[-96.065584,41.165759],[-96.065584,41.165759],[-96.065546,41.165742],[-96.065526,41.165768]]],"type":"Polygon"},"type":"Feature"},{"properties":{"NCES_Type":"","Number":"135D","Name":"QUAD B.R.","NCES_Department":"Juvenile Justice Center","Seat Count":"","Revit_UniqueId":"1aaeed2f-b4e7-4873-9f01-18e6280fb552-0052e7c8","Workstations":"","Element":"Room","NCES_Occupancy Status":"","occupancyStatus":"Occupied","Level":"LEVEL 1","RevitId":5433288,"Area_SF":198.77},"geometry":{"coordinates":[[[-96.065482,41.165749],[-96.065461,41.165776],[-96.065525,41.165804],[-96.06554,41.165785],[-96.065539,41.165784],[-96.065536,41.165774],[-96.065525,41.165769],[-96.065526,41.165768],[-96.065482,41.165749]]],"type":"Polygon"},"type":"Feature"},{"properties":{"NCES_Type":"","Number":"135E","Name":"QUAD B.R.","NCES_Department":"Juvenile Justice Center","Seat Count":"","Revit_UniqueId":"1aaeed2f-b4e7-4873-9f01-18e6280fb552-0052e7cb","Workstations":"","Element":"Room","NCES_Occupancy Status":"","occupancyStatus":"Occupied","Level":"LEVEL 1","RevitId":5433291,"Area_SF":197.33},"geometry":{"coordinates":[[[-96.06544,41.165803],[-96.065484,41.165822],[-96.065485,41.165821],[-96.065495,41.165826],[-96.065508,41.165823],[-96.065511,41.165823],[-96.065525,41.165804],[-96.065461,41.165776],[-96.06544,41.165803]]],"type":"Polygon"},"type":"Feature"},{"properties":{"NCES_Type":"","Number":"135F","Name":"SINGLE B.R.","NCES_Department":"Juvenile Justice Center","Seat Count":"","Revit_UniqueId":"1aaeed2f-b4e7-4873-9f01-18e6280fb552-0052e7ce","Workstations":"","Element":"Room","NCES_Occupancy Status":"","occupancyStatus":"Occupied","Level":"LEVEL 1","RevitId":5433294,"Area_SF":80.07},"geometry":{"coordinates":[[[-96.065464,41.165848],[-96.065489,41.165859],[-96.065507,41.165836],[-96.065514,41.165835],[-96.06551,41.165823],[-96.065495,41.165826],[-96.065485,41.165821],[-96.065484,41.165822],[-96.065464,41.165848]]],"type":"Polygon"},"type":"Feature"},{"properties":{"NCES_Type":"","Number":"135G","Name":"SINGLE B.R.","NCES_Department":"Juvenile Justice Center","Seat Count":"","Revit_UniqueId":"1aaeed2f-b4e7-4873-9f01-18e6280fb552-0052e7d1","Workstations":"","Element":"Room","NCES_Occupancy Status":"","occupancyStatus":"Occupied","Level":"LEVEL 1","RevitId":5433297,"Area_SF":70.22},"geometry":{"coordinates":[[[-96.065489,41.165859],[-96.065513,41.165869],[-96.065533,41.165843],[-96.065514,41.165834],[-96.065513,41.165835],[-96.065507,41.165836],[-96.065489,41.165859]]],"type":"Polygon"},"type":"Feature"},{"properties":{"NCES_Type":"Janitor/Custodial Closet","Number":"135H","Name":"STOR/JAN","NCES_Department":"Juvenile Justice Center","Seat Count":"","Revit_UniqueId":"1aaeed2f-b4e7-4873-9f01-18e6280fb552-0052e7d4","Workstations":"","Element":"Room","NCES_Occupancy Status":"","occupancyStatus":"Occupied","Level":"LEVEL 1","RevitId":5433300,"Area_SF":73.13},"geometry":{"coordinates":[[[-96.065513,41.165869],[-96.065524,41.165874],[-96.065542,41.165874],[-96.065558,41.165853],[-96.065533,41.165843],[-96.065513,41.165869]]],"type":"Polygon"},"type":"Feature"},{"properties":{"NCES_Type":"Waiting/Queue Area","Number":"136","Name":"VEST.","NCES_Department":"Juvenile Justice Center","Seat Count":"","Revit_UniqueId":"1aaeed2f-b4e7-4873-9f01-18e6280fb552-0052e7fa","Workstations":"","Element":"Room","NCES_Occupancy Status":"","occupancyStatus":"Occupied","Level":"LEVEL 1","RevitId":5433338,"Area_SF":87.96},"geometry":{"coordinates":[[[-96.065523,41.165874],[-96.065514,41.165885],[-96.065529,41.165892],[-96.065539,41.165892],[-96.065544,41.165892],[-96.065561,41.16587],[-96.06557,41.165874],[-96.065579,41.165863],[-96.065579,41.165863],[-96.065558,41.165853],[-96.065542,41.165874],[-96.065524,41.165874],[-96.065523,41.165874]]],"type":"Polygon"},"type":"Feature"},{"properties":{"NCES_Type":"General Storage","Number":"136A","Name":"STOR.","NCES_Department":"Juvenile Justice Center","Seat Count":"","Revit_UniqueId":"1aaeed2f-b4e7-4873-9f01-18e6280fb552-0052e801","Workstations":"","Element":"Room","NCES_Occupancy Status":"","occupancyStatus":"Occupied","Level":"LEVEL 1","RevitId":5433345,"Area_SF":23.18},"geometry":{"coordinates":[[[-96.065568,41.165878],[-96.06557,41.165874],[-96.065561,41.16587],[-96.065543,41.165894],[-96.065552,41.165898],[-96.065568,41.165878]]],"type":"Polygon"},"type":"Feature"},{"properties":{"NCES_Type":"","Number":"137","Name":"QUIET LIVING/DAY ROOM","NCES_Department":"Juvenile Justice Center","Seat Count":"","Revit_UniqueId":"1aaeed2f-b4e7-4873-9f01-18e6280fb552-0052e80d","Workstations":"","Element":"Room","NCES_Occupancy Status":"","occupancyStatus":"Occupied","Level":"LEVEL 1","RevitId":5433357,"Area_SF":528.56},"geometry":{"coordinates":[[[-96.065568,41.165878],[-96.065552,41.165898],[-96.065538,41.165916],[-96.065527,41.165931],[-96.06553,41.165942],[-96.065556,41.165953],[-96.065582,41.165964],[-96.065582,41.165964],[-96.065583,41.165964],[-96.065596,41.165962],[-96.065602,41.165954],[-96.065614,41.165938],[-96.065616,41.165936],[-96.065627,41.165922],[-96.065635,41.16591],[-96.065637,41.165908],[-96.065568,41.165878]]],"type":"Polygon"},"type":"Feature"},{"properties":{"NCES_Type":"Janitor/Custodial Closet","Number":"137A","Name":"STOR/JAN","NCES_Department":"Juvenile Justice Center","Seat Count":"","Revit_UniqueId":"1aaeed2f-b4e7-4873-9f01-18e6280fb552-0052e815","Workstations":"","Element":"Room","NCES_Occupancy Status":"","occupancyStatus":"Occupied","Level":"LEVEL 1","RevitId":5433365,"Area_SF":70.06},"geometry":{"coordinates":[[[-96.065514,41.165885],[-96.065502,41.165901],[-96.065538,41.165916],[-96.065552,41.165898],[-96.065543,41.165894],[-96.065539,41.165892],[-96.065529,41.165892],[-96.065514,41.165885]]],"type":"Polygon"},"type":"Feature"},{"properties":{"NCES_Type":"","Number":"137B","Name":"SINGLE B.R.","NCES_Department":"Juvenile Justice Center","Seat Count":"","Revit_UniqueId":"1aaeed2f-b4e7-4873-9f01-18e6280fb552-0052e81c","Workstations":"","Element":"Room","NCES_Occupancy Status":"","occupancyStatus":"Occupied","Level":"LEVEL 1","RevitId":5433372,"Area_SF":71.9},"geometry":{"coordinates":[[[-96.065502,41.165901],[-96.065489,41.165918],[-96.06552,41.165932],[-96.065526,41.16593],[-96.065527,41.16593],[-96.065538,41.165916],[-96.065502,41.165901]]],"type":"Polygon"},"type":"Feature"},{"properties":{"NCES_Type":"","Number":"137C","Name":"SINGLE B.R.","NCES_Department":"Juvenile Justice Center","Seat Count":"","Revit_UniqueId":"1aaeed2f-b4e7-4873-9f01-18e6280fb552-0052e81f","Workstations":"","Element":"Room","NCES_Occupancy Status":"","occupancyStatus":"Occupied","Level":"LEVEL 1","RevitId":5433375,"Area_SF":78.36},"geometry":{"coordinates":[[[-96.065509,41.165951],[-96.06551,41.165952],[-96.065516,41.165945],[-96.06553,41.165942],[-96.06553,41.165941],[-96.065527,41.165931],[-96.065526,41.16593],[-96.06552,41.165932],[-96.065489,41.165918],[-96.065475,41.165936],[-96.065509,41.165951]]],"type":"Polygon"},"type":"Feature"},{"properties":{"NCES_Type":"","Number":"137D","Name":"QUAD B.R.","NCES_Department":"Juvenile Justice Center","Seat Count":"","Revit_UniqueId":"1aaeed2f-b4e7-4873-9f01-18e6280fb552-0052e822","Workstations":"","Element":"Room","NCES_Occupancy Status":"","occupancyStatus":"Occupied","Level":"LEVEL 1","RevitId":5433378,"Area_SF":195.08},"geometry":{"coordinates":[[[-96.065484,41.165985],[-96.065519,41.166],[-96.065556,41.165953],[-96.065531,41.165942],[-96.065531,41.165942],[-96.06553,41.165942],[-96.065516,41.165945],[-96.06551,41.165952],[-96.065509,41.165951],[-96.065484,41.165985]]],"type":"Polygon"},"type":"Feature"},{"properties":{"NCES_Type":"","Number":"137E","Name":"QUAD B.R.","NCES_Department":"Juvenile Justice Center","Seat Count":"","Revit_UniqueId":"1aaeed2f-b4e7-4873-9f01-18e6280fb552-0052e825","Workstations":"","Element":"Room","NCES_Occupancy Status":"","occupancyStatus":"Occupied","Level":"LEVEL 1","RevitId":5433381,"Area_SF":197.19},"geometry":{"coordinates":[[[-96.065555,41.166016],[-96.065581,41.165983],[-96.065579,41.165983],[-96.065585,41.165975],[-96.065582,41.165965],[-96.065582,41.165964],[-96.065556,41.165953],[-96.065519,41.166],[-96.065555,41.166016]]],"type":"Polygon"},"type":"Feature"},{"properties":{"NCES_Type":"","Number":"137F","Name":"DOUBLE B.R.","NCES_Department":"Juvenile Justice Center","Seat Count":"","Revit_UniqueId":"1aaeed2f-b4e7-4873-9f01-18e6280fb552-0052e828","Workstations":"","Element":"Room","NCES_Occupancy Status":"","occupancyStatus":"Occupied","Level":"LEVEL 1","RevitId":5433384,"Area_SF":126},"geometry":{"coordinates":[[[-96.065616,41.165999],[-96.065638,41.16597],[-96.065602,41.165954],[-96.065596,41.165962],[-96.065582,41.165964],[-96.065585,41.165975],[-96.065579,41.165983],[-96.065581,41.165983],[-96.065616,41.165999]]],"type":"Polygon"},"type":"Feature"},{"properties":{"NCES_Type":"Holding Support Toilet/Shower","Number":"137G","Name":"RR SHOWER (ADA)","NCES_Department":"Juvenile Justice Center","Seat Count":"","Revit_UniqueId":"1aaeed2f-b4e7-4873-9f01-18e6280fb552-0052e82b","Workstations":"","Element":"Room","NCES_Occupancy Status":"","occupancyStatus":"Occupied","Level":"LEVEL 1","RevitId":5433387,"Area_SF":57.2},"geometry":{"coordinates":[[[-96.065638,41.16597],[-96.065644,41.165962],[-96.065633,41.165957],[-96.065639,41.165949],[-96.065638,41.165948],[-96.065614,41.165938],[-96.065602,41.165954],[-96.065638,41.16597]]],"type":"Polygon"},"type":"Feature"},{"properties":{"NCES_Type":"Holding Support Toilet/Shower","Number":"137H","Name":"RR SHOWER","NCES_Department":"Juvenile Justice Center","Seat Count":"","Revit_UniqueId":"1aaeed2f-b4e7-4873-9f01-18e6280fb552-0052e82e","Workstations":"","Element":"Room","NCES_Occupancy Status":"","occupancyStatus":"Occupied","Level":"LEVEL 1","RevitId":5433390,"Area_SF":58.1},"geometry":{"coordinates":[[[-96.06565,41.165953],[-96.065663,41.165937],[-96.065649,41.165931],[-96.065627,41.165922],[-96.065616,41.165936],[-96.06564,41.165946],[-96.065638,41.165948],[-96.065639,41.165949],[-96.06565,41.165953]]],"type":"Polygon"},"type":"Feature"},{"properties":{"NCES_Type":"Electrical Room","Number":"138","Name":"E.C.","NCES_Department":"Juvenile Justice Center","Seat Count":"","Revit_UniqueId":"1aaeed2f-b4e7-4873-9f01-18e6280fb552-0052e831","Workstations":"","Element":"Room","NCES_Occupancy Status":"","occupancyStatus":"Occupied","Level":"LEVEL 1","RevitId":5433393,"Area_SF":28.63},"geometry":{"coordinates":[[[-96.065635,41.16591],[-96.065627,41.165922],[-96.065649,41.165931],[-96.065658,41.16592],[-96.065635,41.16591]]],"type":"Polygon"},"type":"Feature"},{"properties":{"NCES_Type":"General Storage","Number":"139","Name":"STOR","NCES_Department":"Juvenile Justice Center","Seat Count":"","Revit_UniqueId":"1aaeed2f-b4e7-4873-9f01-18e6280fb552-0052e838","Workstations":"","Element":"Room","NCES_Occupancy Status":"","occupancyStatus":"Occupied","Level":"LEVEL 1","RevitId":5433400,"Area_SF":43.55},"geometry":{"coordinates":[[[-96.065637,41.165908],[-96.065635,41.16591],[-96.065658,41.16592],[-96.065671,41.165903],[-96.065649,41.165893],[-96.065637,41.165908]]],"type":"Polygon"},"type":"Feature"},{"properties":{"NCES_Type":"Multipurpose Room","Number":"140","Name":"QUIET LIVING/DAY ROOM","NCES_Department":"Juvenile Justice Center","Seat Count":"","Revit_UniqueId":"1aaeed2f-b4e7-4873-9f01-18e6280fb552-0052e83b","Workstations":"","Element":"Room","NCES_Occupancy Status":"","occupancyStatus":"Occupied","Level":"LEVEL 1","RevitId":5433403,"Area_SF":540.2},"geometry":{"coordinates":[[[-96.065646,41.165886],[-96.065648,41.165893],[-96.065649,41.165893],[-96.065671,41.165903],[-96.065696,41.165914],[-96.065714,41.165921],[-96.065715,41.165922],[-96.065729,41.165919],[-96.065744,41.1659],[-96.065759,41.165881],[-96.06576,41.16588],[-96.065756,41.16587],[-96.065746,41.165865],[-96.065724,41.165856],[-96.065721,41.165854],[-96.065703,41.165846],[-96.065689,41.16584],[-96.065679,41.165843],[-96.065646,41.165886]]],"type":"Polygon"},"type":"Feature"},{"properties":{"NCES_Type":"Janitor/Custodial Closet","Number":"140A","Name":"STOR/JAN","NCES_Department":"Juvenile Justice Center","Seat Count":"","Revit_UniqueId":"1aaeed2f-b4e7-4873-9f01-18e6280fb552-0052e86d","Workstations":"","Element":"Room","NCES_Occupancy Status":"","occupancyStatus":"Occupied","Level":"LEVEL 1","RevitId":5433453,"Area_SF":81.4},"geometry":{"coordinates":[[[-96.065664,41.165936],[-96.065675,41.165941],[-96.065696,41.165914],[-96.065671,41.165903],[-96.065658,41.16592],[-96.065649,41.165931],[-96.065663,41.165937],[-96.065664,41.165936]]],"type":"Polygon"},"type":"Feature"},{"properties":{"NCES_Type":"","Number":"140B","Name":"SINGLE B.R.","NCES_Department":"Juvenile Justice Center","Seat Count":"","Revit_UniqueId":"1aaeed2f-b4e7-4873-9f01-18e6280fb552-0052e874","Workstations":"","Element":"Room","NCES_Occupancy Status":"","occupancyStatus":"Occupied","Level":"LEVEL 1","RevitId":5433460,"Area_SF":70.38},"geometry":{"coordinates":[[[-96.065675,41.165941],[-96.065698,41.165951],[-96.065716,41.165927],[-96.065714,41.165922],[-96.065696,41.165914],[-96.065675,41.165941]]],"type":"Polygon"},"type":"Feature"},{"properties":{"NCES_Type":"","Number":"140C","Name":"SINGLE B.R.","NCES_Department":"Juvenile Justice Center","Seat Count":"","Revit_UniqueId":"1aaeed2f-b4e7-4873-9f01-18e6280fb552-0052e877","Workstations":"","Element":"Room","NCES_Occupancy Status":"","occupancyStatus":"Occupied","Level":"LEVEL 1","RevitId":5433463,"Area_SF":81.32},"geometry":{"coordinates":[[[-96.065743,41.165935],[-96.065744,41.165934],[-96.065733,41.16593],[-96.06573,41.165919],[-96.065729,41.165919],[-96.065715,41.165922],[-96.065714,41.165922],[-96.065716,41.165927],[-96.065698,41.165951],[-96.065723,41.165961],[-96.065743,41.165935]]],"type":"Polygon"},"type":"Feature"},{"properties":{"NCES_Type":"","Number":"140D","Name":"QUAD B.R.","NCES_Department":"Juvenile Justice Center","Seat Count":"","Revit_UniqueId":"1aaeed2f-b4e7-4873-9f01-18e6280fb552-0052e87a","Workstations":"","Element":"Room","NCES_Occupancy Status":"","occupancyStatus":"Occupied","Level":"LEVEL 1","RevitId":5433466,"Area_SF":197.36},"geometry":{"coordinates":[[[-96.065787,41.165954],[-96.065808,41.165927],[-96.065744,41.1659],[-96.06573,41.165919],[-96.06573,41.165919],[-96.06573,41.165919],[-96.065733,41.16593],[-96.065744,41.165934],[-96.065743,41.165935],[-96.065787,41.165954]]],"type":"Polygon"},"type":"Feature"},{"properties":{"NCES_Type":"","Number":"140E","Name":"QUAD B.R.","NCES_Department":"Juvenile Justice Center","Seat Count":"","Revit_UniqueId":"1aaeed2f-b4e7-4873-9f01-18e6280fb552-0052e87d","Workstations":"","Element":"Room","NCES_Occupancy Status":"","occupancyStatus":"Occupied","Level":"LEVEL 1","RevitId":5433469,"Area_SF":199.11},"geometry":{"coordinates":[[[-96.065829,41.1659],[-96.065785,41.165881],[-96.065784,41.165882],[-96.065774,41.165877],[-96.065759,41.16588],[-96.065744,41.1659],[-96.065808,41.165927],[-96.065829,41.1659]]],"type":"Polygon"},"type":"Feature"},{"properties":{"NCES_Type":"","Number":"140F","Name":"DOUBLE B.R.","NCES_Department":"Juvenile Justice Center","Seat Count":"","Revit_UniqueId":"1aaeed2f-b4e7-4873-9f01-18e6280fb552-0052e880","Workstations":"","Element":"Room","NCES_Occupancy Status":"","occupancyStatus":"Occupied","Level":"LEVEL 1","RevitId":5433472,"Area_SF":123.38},"geometry":{"coordinates":[[[-96.065805,41.165855],[-96.065766,41.165839],[-96.065746,41.165865],[-96.065756,41.16587],[-96.06576,41.16588],[-96.06576,41.16588],[-96.06576,41.16588],[-96.065774,41.165877],[-96.065784,41.165882],[-96.065785,41.165881],[-96.065805,41.165855]]],"type":"Polygon"},"type":"Feature"},{"properties":{"NCES_Type":"Holding Support Toilet/Shower","Number":"140G","Name":"RR/SHOWER (ADA)","NCES_Department":"Juvenile Justice Center","Seat Count":"","Revit_UniqueId":"1aaeed2f-b4e7-4873-9f01-18e6280fb552-0052e883","Workstations":"","Element":"Room","NCES_Occupancy Status":"","occupancyStatus":"Occupied","Level":"LEVEL 1","RevitId":5433475,"Area_SF":67.08},"geometry":{"coordinates":[[[-96.065766,41.165839],[-96.065745,41.165829],[-96.065738,41.165838],[-96.065724,41.165856],[-96.065746,41.165865],[-96.065766,41.165839]]],"type":"Polygon"},"type":"Feature"},{"properties":{"NCES_Type":"Holding Support Toilet/Shower","Number":"140H","Name":"RR/SHOWER","NCES_Department":"Juvenile Justice Center","Seat Count":"","Revit_UniqueId":"1aaeed2f-b4e7-4873-9f01-18e6280fb552-0052e886","Workstations":"","Element":"Room","NCES_Occupancy Status":"","occupancyStatus":"Occupied","Level":"LEVEL 1","RevitId":5433478,"Area_SF":55.03},"geometry":{"coordinates":[[[-96.065745,41.165829],[-96.065723,41.16582],[-96.065723,41.16582],[-96.065703,41.165846],[-96.065721,41.165854],[-96.065735,41.165837],[-96.065738,41.165838],[-96.065745,41.165829]]],"type":"Polygon"},"type":"Feature"},{"properties":{"NCES_Type":"Multipurpose Room","Number":"142","Name":"MULTIPURPOSE/DINING","NCES_Department":"Juvenile Justice Center","Seat Count":"","Revit_UniqueId":"1aaeed2f-b4e7-4873-9f01-18e6280fb552-0052e89e","Workstations":"1","Element":"Room","NCES_Occupancy Status":"","occupancyStatus":"Occupied","Level":"LEVEL 1","RevitId":5433502,"Area_SF":1792.57},"geometry":{"coordinates":[[[-96.065723,41.16582],[-96.065722,41.165819],[-96.065722,41.165803],[-96.065722,41.165747],[-96.065722,41.165719],[-96.065722,41.165707],[-96.065722,41.165671],[-96.065722,41.165671],[-96.065686,41.165655],[-96.065686,41.165655],[-96.065684,41.165659],[-96.065677,41.165673],[-96.065665,41.165698],[-96.065652,41.165725],[-96.065639,41.16575],[-96.065623,41.165784],[-96.065612,41.165807],[-96.065612,41.165807],[-96.065621,41.165811],[-96.065623,41.165818],[-96.06559,41.165861],[-96.065579,41.165863],[-96.06557,41.165874],[-96.065568,41.165878],[-96.065637,41.165908],[-96.065648,41.165894],[-96.065649,41.165893],[-96.065648,41.165893],[-96.065646,41.165886],[-96.065679,41.165843],[-96.065689,41.16584],[-96.065703,41.165846],[-96.065723,41.16582]]],"type":"Polygon"},"type":"Feature"},{"properties":{"NCES_Type":"","Number":"143","Name":"KITCHEN","NCES_Department":"Juvenile Justice Center","Seat Count":"","Revit_UniqueId":"1aaeed2f-b4e7-4873-9f01-18e6280fb552-0052e8a5","Workstations":"","Element":"Room","NCES_Occupancy Status":"","occupancyStatus":"Occupied","Level":"LEVEL 1","RevitId":5433509,"Area_SF":367.64},"geometry":{"coordinates":[[[-96.065722,41.165803],[-96.065793,41.165803],[-96.065793,41.165754],[-96.065793,41.165747],[-96.065748,41.165747],[-96.065722,41.165747],[-96.065722,41.165803]]],"type":"Polygon"},"type":"Feature"},{"properties":{"NCES_Type":"","Number":"144","Name":"WAREWASHING","NCES_Department":"Juvenile Justice Center","Seat Count":"","Revit_UniqueId":"1aaeed2f-b4e7-4873-9f01-18e6280fb552-0052e96e","Workstations":"","Element":"Room","NCES_Occupancy Status":"","occupancyStatus":"Occupied","Level":"LEVEL 1","RevitId":5433710,"Area_SF":185.55},"geometry":{"coordinates":[[[-96.065793,41.165719],[-96.06576,41.165719],[-96.065722,41.165719],[-96.065722,41.165747],[-96.065748,41.165747],[-96.065793,41.165747],[-96.065793,41.165739],[-96.065793,41.165719]]],"type":"Polygon"},"type":"Feature"},{"properties":{"NCES_Type":"Loading/Receiving","Number":"149","Name":"RECEIVING","NCES_Department":"Juvenile Justice Center","Seat Count":"","Revit_UniqueId":"1aaeed2f-b4e7-4873-9f01-18e6280fb552-0052e976","Workstations":"","Element":"Room","NCES_Occupancy Status":"","occupancyStatus":"Occupied","Level":"LEVEL 1","RevitId":5433718,"Area_SF":181.02},"geometry":{"coordinates":[[[-96.065878,41.165719],[-96.065797,41.165719],[-96.065793,41.165719],[-96.065793,41.165739],[-96.065793,41.165747],[-96.065793,41.165754],[-96.065822,41.165754],[-96.065822,41.165737],[-96.065854,41.165737],[-96.065878,41.165737],[-96.065878,41.165719]]],"type":"Polygon"},"type":"Feature"},{"properties":{"NCES_Type":"General Storage","Number":"146","Name":"FITNESS + STORAGE","NCES_Department":"Juvenile Justice Center","Seat Count":"","Revit_UniqueId":"1aaeed2f-b4e7-4873-9f01-18e6280fb552-0052e984","Workstations":"","Element":"Room","NCES_Occupancy Status":"","occupancyStatus":"Occupied","Level":"LEVEL 1","RevitId":5433732,"Area_SF":504.96},"geometry":{"coordinates":[[[-96.065793,41.165803],[-96.065898,41.165803],[-96.065898,41.165769],[-96.065898,41.165737],[-96.065878,41.165737],[-96.065878,41.165754],[-96.065854,41.165754],[-96.065822,41.165754],[-96.065793,41.165754],[-96.065793,41.165803]]],"type":"Polygon"},"type":"Feature"},{"properties":{"NCES_Type":"General Storage","Number":"147","Name":"STOR","NCES_Department":"Juvenile Justice Center","Seat Count":"","Revit_UniqueId":"1aaeed2f-b4e7-4873-9f01-18e6280fb552-0052e98b","Workstations":"","Element":"Room","NCES_Occupancy Status":"","occupancyStatus":"Occupied","Level":"LEVEL 1","RevitId":5433739,"Area_SF":47.82},"geometry":{"coordinates":[[[-96.065822,41.165754],[-96.065854,41.165754],[-96.065854,41.165737],[-96.065822,41.165737],[-96.065822,41.165754]]],"type":"Polygon"},"type":"Feature"},{"properties":{"NCES_Type":"Parts/Tool Storage","Number":"148","Name":"UTILITY","NCES_Department":"Juvenile Justice Center","Seat Count":"","Revit_UniqueId":"1aaeed2f-b4e7-4873-9f01-18e6280fb552-0052e98e","Workstations":"","Element":"Room","NCES_Occupancy Status":"","occupancyStatus":"Occupied","Level":"LEVEL 1","RevitId":5433742,"Area_SF":33.61},"geometry":{"coordinates":[[[-96.065878,41.165754],[-96.065878,41.165737],[-96.065854,41.165737],[-96.065854,41.165754],[-96.065878,41.165754]]],"type":"Polygon"},"type":"Feature"},{"properties":{"NCES_Type":"General Storage","Number":"150","Name":"STOR.","NCES_Department":"Juvenile Justice Center","Seat Count":"","Revit_UniqueId":"1aaeed2f-b4e7-4873-9f01-18e6280fb552-0052e996","Workstations":"","Element":"Room","NCES_Occupancy Status":"","occupancyStatus":"Occupied","Level":"LEVEL 1","RevitId":5433750,"Area_SF":35.72},"geometry":{"coordinates":[[[-96.065793,41.165719],[-96.065797,41.165719],[-96.065797,41.165707],[-96.06576,41.165707],[-96.06576,41.165719],[-96.065793,41.165719]]],"type":"Polygon"},"type":"Feature"},{"properties":{"NCES_Type":"General Storage","Number":"151","Name":"STOR.","NCES_Department":"Juvenile Justice Center","Seat Count":"","Revit_UniqueId":"1aaeed2f-b4e7-4873-9f01-18e6280fb552-0052e999","Workstations":"","Element":"Room","NCES_Occupancy Status":"","occupancyStatus":"Occupied","Level":"LEVEL 1","RevitId":5433753,"Area_SF":36.04},"geometry":{"coordinates":[[[-96.065722,41.165719],[-96.06576,41.165719],[-96.06576,41.165707],[-96.065722,41.165707],[-96.065722,41.165719]]],"type":"Polygon"},"type":"Feature"},{"properties":{"NCES_Type":"Multipurpose Room","Number":"152","Name":"ACTIVITY ROOM","NCES_Department":"Juvenile Justice Center","Seat Count":"","Revit_UniqueId":"1aaeed2f-b4e7-4873-9f01-18e6280fb552-0052e99c","Workstations":"","Element":"Room","NCES_Occupancy Status":"","occupancyStatus":"Occupied","Level":"LEVEL 1","RevitId":5433756,"Area_SF":438.6},"geometry":{"coordinates":[[[-96.065722,41.16567],[-96.065722,41.165707],[-96.06576,41.165707],[-96.065797,41.165707],[-96.065797,41.165689],[-96.065812,41.165689],[-96.065812,41.16568],[-96.065797,41.16568],[-96.065797,41.165674],[-96.065797,41.165667],[-96.065812,41.165667],[-96.065812,41.165658],[-96.065797,41.165658],[-96.065797,41.165646],[-96.065789,41.165646],[-96.065771,41.165633],[-96.065722,41.16567]]],"type":"Polygon"},"type":"Feature"},{"properties":{"NCES_Type":"Equipment Storage","Number":"153","Name":"SEC. EQUIP.","NCES_Department":"Juvenile Justice Center","Seat Count":"","Revit_UniqueId":"1aaeed2f-b4e7-4873-9f01-18e6280fb552-0052e99f","Workstations":"","Element":"Room","NCES_Occupancy Status":"","occupancyStatus":"Occupied","Level":"LEVEL 1","RevitId":5433759,"Area_SF":44.46},"geometry":{"coordinates":[[[-96.065808,41.165628],[-96.065778,41.165628],[-96.065771,41.165633],[-96.065789,41.165646],[-96.065797,41.165646],[-96.065808,41.165646],[-96.065808,41.165628]]],"type":"Polygon"},"type":"Feature"},{"properties":{"NCES_Type":"Multipurpose Room","Number":"154","Name":"CLASSROOM B","NCES_Department":"Juvenile Justice Center","Seat Count":"9","Revit_UniqueId":"1aaeed2f-b4e7-4873-9f01-18e6280fb552-0052e9a2","Workstations":"","Element":"Room","NCES_Occupancy Status":"","occupancyStatus":"Occupied","Level":"LEVEL 1","RevitId":5433762,"Area_SF":338.88},"geometry":{"coordinates":[[[-96.065884,41.165628],[-96.065808,41.165628],[-96.065808,41.165646],[-96.065797,41.165646],[-96.065797,41.165658],[-96.065812,41.165658],[-96.065812,41.165667],[-96.065797,41.165667],[-96.065797,41.165674],[-96.065884,41.165674],[-96.065884,41.165628]]],"type":"Polygon"},"type":"Feature"},{"properties":{"NCES_Type":"Multipurpose Room","Number":"157","Name":"CLASSROOM A","NCES_Department":"Juvenile Justice Center","Seat Count":"10","Revit_UniqueId":"1aaeed2f-b4e7-4873-9f01-18e6280fb552-0052e9b3","Workstations":"","Element":"Room","NCES_Occupancy Status":"","occupancyStatus":"Occupied","Level":"LEVEL 1","RevitId":5433779,"Area_SF":357.16},"geometry":{"coordinates":[[[-96.065878,41.165719],[-96.065884,41.165719],[-96.065884,41.165674],[-96.065797,41.165674],[-96.065797,41.16568],[-96.065812,41.16568],[-96.065812,41.165689],[-96.065797,41.165689],[-96.065797,41.165707],[-96.065797,41.165719],[-96.065878,41.165719]]],"type":"Polygon"},"type":"Feature"},{"properties":{"NCES_Type":"Corridor/Hallway","Number":"158","Name":"CORR. B","NCES_Department":"Juvenile Justice Center","Seat Count":"","Revit_UniqueId":"1aaeed2f-b4e7-4873-9f01-18e6280fb552-0052e9bc","Workstations":"","Element":"Room","NCES_Occupancy Status":"","occupancyStatus":"Occupied","Level":"LEVEL 1","RevitId":5433788,"Area_SF":189.81},"geometry":{"coordinates":[[[-96.065884,41.165719],[-96.065907,41.165719],[-96.065907,41.165704],[-96.065907,41.165668],[-96.065907,41.165668],[-96.065907,41.165652],[-96.065907,41.165628],[-96.065884,41.165628],[-96.065884,41.165674],[-96.065884,41.165719]]],"type":"Polygon"},"type":"Feature"},{"properties":{"NCES_Type":"IT/Telecom Room","Number":"159","Name":"TELEPHONE/DATA","NCES_Department":"Juvenile Justice Center","Seat Count":"","Revit_UniqueId":"1aaeed2f-b4e7-4873-9f01-18e6280fb552-0052e9cb","Workstations":"","Element":"Room","NCES_Occupancy Status":"","occupancyStatus":"Occupied","Level":"LEVEL 1","RevitId":5433803,"Area_SF":93.54},"geometry":{"coordinates":[[[-96.065898,41.165803],[-96.065929,41.165803],[-96.065929,41.165769],[-96.065898,41.165769],[-96.065898,41.165803]]],"type":"Polygon"},"type":"Feature"},{"properties":{"NCES_Type":"Janitor/Custodial Closet","Number":"161","Name":"JAN. STOR.","NCES_Department":"Juvenile Justice Center","Seat Count":"","Revit_UniqueId":"1aaeed2f-b4e7-4873-9f01-18e6280fb552-0052e9d3","Workstations":"","Element":"Room","NCES_Occupancy Status":"","occupancyStatus":"Occupied","Level":"LEVEL 1","RevitId":5433811,"Area_SF":88.76},"geometry":{"coordinates":[[[-96.065929,41.165737],[-96.065898,41.165737],[-96.065898,41.165769],[-96.065929,41.165769],[-96.065929,41.165737]]],"type":"Polygon"},"type":"Feature"},{"properties":{"NCES_Type":"Corridor/Hallway","Number":"162","Name":"CORRIDOR A","NCES_Department":"Juvenile Justice Center","Seat Count":"","Revit_UniqueId":"1aaeed2f-b4e7-4873-9f01-18e6280fb552-0052e9e1","Workstations":"","Element":"Room","NCES_Occupancy Status":"","occupancyStatus":"Occupied","Level":"LEVEL 1","RevitId":5433825,"Area_SF":163.05},"geometry":{"coordinates":[[[-96.065981,41.165719],[-96.065964,41.165719],[-96.065907,41.165719],[-96.065884,41.165719],[-96.065878,41.165719],[-96.065878,41.165737],[-96.065898,41.165737],[-96.065929,41.165737],[-96.065981,41.165737],[-96.065981,41.165719]]],"type":"Polygon"},"type":"Feature"},{"properties":{"NCES_Type":"Bulk Storage","Number":"163","Name":"GENERAL STOR.","NCES_Department":"Juvenile Justice Center","Seat Count":"","Revit_UniqueId":"1aaeed2f-b4e7-4873-9f01-18e6280fb552-0052e9e4","Workstations":"","Element":"Room","NCES_Occupancy Status":"","occupancyStatus":"Occupied","Level":"LEVEL 1","RevitId":5433828,"Area_SF":319.98},"geometry":{"coordinates":[[[-96.065929,41.165803],[-96.065981,41.165803],[-96.065981,41.165737],[-96.065981,41.165737],[-96.065981,41.165737],[-96.065929,41.165737],[-96.065929,41.165769],[-96.065929,41.165803]]],"type":"Polygon"},"type":"Feature"},{"properties":{"NCES_Type":"Mechanical Room","Number":"164","Name":"MECH/ELEC","NCES_Department":"Juvenile Justice Center","Seat Count":"","Revit_UniqueId":"1aaeed2f-b4e7-4873-9f01-18e6280fb552-0052e9e7","Workstations":"","Element":"Room","NCES_Occupancy Status":"","occupancyStatus":"Occupied","Level":"LEVEL 1","RevitId":5433831,"Area_SF":523.34},"geometry":{"coordinates":[[[-96.066089,41.165759],[-96.066089,41.165737],[-96.065981,41.165737],[-96.065981,41.165803],[-96.066057,41.165803],[-96.066057,41.165759],[-96.066089,41.165759]]],"type":"Polygon"},"type":"Feature"},{"properties":{"NCES_Type":"Mechanical Room","Number":"164A","Name":"MECH","NCES_Department":"Juvenile Justice Center","Seat Count":"","Revit_UniqueId":"1aaeed2f-b4e7-4873-9f01-18e6280fb552-0052e9f5","Workstations":"","Element":"Room","NCES_Occupancy Status":"","occupancyStatus":"Occupied","Level":"LEVEL 1","RevitId":5433845,"Area_SF":121.62},"geometry":{"coordinates":[[[-96.066089,41.165803],[-96.066089,41.165759],[-96.066057,41.165759],[-96.066057,41.165803],[-96.066089,41.165803]]],"type":"Polygon"},"type":"Feature"},{"properties":{"NCES_Type":"Sally Port/Secure Transfer","Number":"165","Name":"SALLYPORT C","NCES_Department":"Juvenile Justice Center","Seat Count":"","Revit_UniqueId":"1aaeed2f-b4e7-4873-9f01-18e6280fb552-0052e9fc","Workstations":"","Element":"Room","NCES_Occupancy Status":"","occupancyStatus":"Occupied","Level":"LEVEL 1","RevitId":5433852,"Area_SF":169.91},"geometry":{"coordinates":[[[-96.066089,41.165737],[-96.066089,41.165719],[-96.066047,41.165719],[-96.065981,41.165719],[-96.065981,41.165737],[-96.065981,41.165737],[-96.065981,41.165737],[-96.066089,41.165737]]],"type":"Polygon"},"type":"Feature"},{"properties":{"NCES_Type":"Equipment Storage","Number":"166","Name":"INSTR. MAT. STOR.","NCES_Department":"Juvenile Justice Center","Seat Count":"","Revit_UniqueId":"1aaeed2f-b4e7-4873-9f01-18e6280fb552-0052ea04","Workstations":"","Element":"Room","NCES_Occupancy Status":"","occupancyStatus":"Occupied","Level":"LEVEL 1","RevitId":5433860,"Area_SF":72.42},"geometry":{"coordinates":[[[-96.065907,41.165719],[-96.065964,41.165719],[-96.065964,41.165704],[-96.065907,41.165704],[-96.065907,41.165719]]],"type":"Polygon"},"type":"Feature"},{"properties":{"NCES_Type":"Multipurpose Room","Number":"167","Name":"LIBRARY","NCES_Department":"Juvenile Justice Center","Seat Count":"","Revit_UniqueId":"1aaeed2f-b4e7-4873-9f01-18e6280fb552-0052ea07","Workstations":"2","Element":"Room","NCES_Occupancy Status":"","occupancyStatus":"Occupied","Level":"LEVEL 1","RevitId":5433863,"Area_SF":190.37},"geometry":{"coordinates":[[[-96.065939,41.165668],[-96.065907,41.165668],[-96.065907,41.165704],[-96.065964,41.165704],[-96.065964,41.165668],[-96.065945,41.165668],[-96.065939,41.165668]]],"type":"Polygon"},"type":"Feature"},{"properties":{"NCES_Type":"Staff Toilet/Changing","Number":"168","Name":"STAFF RR","NCES_Department":"Juvenile Justice Center","Seat Count":"","Revit_UniqueId":"1aaeed2f-b4e7-4873-9f01-18e6280fb552-0052ea0a","Workstations":"","Element":"Room","NCES_Occupancy Status":"","occupancyStatus":"Occupied","Level":"LEVEL 1","RevitId":5433866,"Area_SF":24.96},"geometry":{"coordinates":[[[-96.065964,41.165652],[-96.065946,41.165652],[-96.065945,41.165652],[-96.065945,41.165668],[-96.065964,41.165668],[-96.065964,41.165652]]],"type":"Polygon"},"type":"Feature"},{"properties":{"NCES_Type":"Single Stall Restroom","Number":"169","Name":"STUDENT RR","NCES_Department":"Juvenile Justice Center","Seat Count":"","Revit_UniqueId":"1aaeed2f-b4e7-4873-9f01-18e6280fb552-0052ea0d","Workstations":"","Element":"Room","NCES_Occupancy Status":"","occupancyStatus":"Occupied","Level":"LEVEL 1","RevitId":5433869,"Area_SF":43.08},"geometry":{"coordinates":[[[-96.065939,41.165652],[-96.065907,41.165652],[-96.065907,41.165668],[-96.065907,41.165668],[-96.065939,41.165668],[-96.065939,41.165652]]],"type":"Polygon"},"type":"Feature"},{"properties":{"NCES_Type":"Private Office - Enclosed","Number":"170","Name":"OFFICE","NCES_Department":"Juvenile Justice Center","Seat Count":"","Revit_UniqueId":"1aaeed2f-b4e7-4873-9f01-18e6280fb552-0052ea10","Workstations":"1","Element":"Room","NCES_Occupancy Status":"","occupancyStatus":"Occupied","Level":"LEVEL 1","RevitId":5433872,"Area_SF":82.49},"geometry":{"coordinates":[[[-96.065946,41.165628],[-96.065907,41.165628],[-96.065907,41.165652],[-96.065939,41.165652],[-96.065945,41.165652],[-96.065946,41.165652],[-96.065946,41.165628]]],"type":"Polygon"},"type":"Feature"},{"properties":{"NCES_Type":"Electrical Room","Number":"171","Name":"E.C.","NCES_Department":"Juvenile Justice Center","Seat Count":"","Revit_UniqueId":"1aaeed2f-b4e7-4873-9f01-18e6280fb552-0052ea13","Workstations":"","Element":"Room","NCES_Occupancy Status":"","occupancyStatus":"Occupied","Level":"LEVEL 1","RevitId":5433875,"Area_SF":34.59},"geometry":{"coordinates":[[[-96.065964,41.165628],[-96.065946,41.165628],[-96.065946,41.165652],[-96.065964,41.165652],[-96.065964,41.165628]]],"type":"Polygon"},"type":"Feature"},{"properties":{"NCES_Type":"Supervised Family Meeting/Visitation","Number":"173","Name":"GROUP HEARING/VISITATION","NCES_Department":"Juvenile Justice Center","Seat Count":"12","Revit_UniqueId":"1aaeed2f-b4e7-4873-9f01-18e6280fb552-0052ea21","Workstations":"5","Element":"Room","NCES_Occupancy Status":"","occupancyStatus":"Occupied","Level":"LEVEL 1","RevitId":5433889,"Area_SF":597.12},"geometry":{"coordinates":[[[-96.066047,41.165649],[-96.066047,41.165628],[-96.066019,41.165628],[-96.066014,41.165628],[-96.066014,41.165652],[-96.065986,41.165652],[-96.065981,41.165652],[-96.065964,41.165652],[-96.065964,41.165668],[-96.065964,41.165704],[-96.065964,41.165719],[-96.065981,41.165719],[-96.066047,41.165719],[-96.066047,41.165698],[-96.066047,41.165698],[-96.066047,41.16568],[-96.066047,41.16568],[-96.066047,41.165678],[-96.066047,41.165662],[-96.066047,41.165649]]],"type":"Polygon"},"type":"Feature"},{"properties":{"NCES_Type":"Janitor/Custodial Closet","Number":"175","Name":"JAN.","NCES_Department":"Juvenile Justice Center","Seat Count":"","Revit_UniqueId":"1aaeed2f-b4e7-4873-9f01-18e6280fb552-0052ea28","Workstations":"","Element":"Room","NCES_Occupancy Status":"","occupancyStatus":"Occupied","Level":"LEVEL 1","RevitId":5433896,"Area_SF":32.42},"geometry":{"coordinates":[[[-96.065981,41.165628],[-96.065964,41.165628],[-96.065964,41.165652],[-96.065981,41.165652],[-96.065981,41.165628]]],"type":"Polygon"},"type":"Feature"},{"properties":{"NCES_Type":"Private Restroom","Number":"176","Name":"RR","NCES_Department":"Juvenile Justice Center","Seat Count":"","Revit_UniqueId":"1aaeed2f-b4e7-4873-9f01-18e6280fb552-0052ea2b","Workstations":"","Element":"Room","NCES_Occupancy Status":"","occupancyStatus":"Occupied","Level":"LEVEL 1","RevitId":5433899,"Area_SF":57.78},"geometry":{"coordinates":[[[-96.066014,41.165628],[-96.065986,41.165628],[-96.065986,41.165652],[-96.066014,41.165652],[-96.066014,41.165628]]],"type":"Polygon"},"type":"Feature"},{"properties":{"NCES_Type":"Corridor/Hallway","Number":"125","Name":"CORRIDOR","NCES_Department":"Juvenile Justice Center","Seat Count":"","Revit_UniqueId":"1aaeed2f-b4e7-4873-9f01-18e6280fb552-0052ea56","Workstations":"","Element":"Room","NCES_Occupancy Status":"","occupancyStatus":"Occupied","Level":"LEVEL 1","RevitId":5433942,"Area_SF":194.21},"geometry":{"coordinates":[[[-96.066047,41.165552],[-96.066047,41.165551],[-96.066047,41.165551],[-96.066026,41.165551],[-96.066019,41.165551],[-96.066019,41.16557],[-96.066019,41.165607],[-96.066019,41.165628],[-96.066047,41.165628],[-96.066047,41.165626],[-96.066047,41.165611],[-96.066047,41.165568],[-96.066047,41.165552]]],"type":"Polygon"},"type":"Feature"},{"properties":{"NCES_Type":"Corridor/Hallway","Number":"126","Name":"CORRIDOR","NCES_Department":"Juvenile Justice Center","Seat Count":"","Revit_UniqueId":"1aaeed2f-b4e7-4873-9f01-18e6280fb552-0052ea5d","Workstations":"","Element":"Room","NCES_Occupancy Status":"","occupancyStatus":"Occupied","Level":"LEVEL 1","RevitId":5433949,"Area_SF":701.83},"geometry":{"coordinates":[[[-96.06572,41.165641],[-96.065696,41.165631],[-96.065686,41.165654],[-96.065685,41.165655],[-96.065686,41.165655],[-96.065722,41.165671],[-96.065723,41.16567],[-96.065771,41.165633],[-96.065778,41.165628],[-96.065808,41.165628],[-96.065884,41.165628],[-96.065907,41.165628],[-96.065946,41.165628],[-96.065964,41.165628],[-96.065981,41.165628],[-96.065986,41.165628],[-96.066014,41.165628],[-96.066019,41.165628],[-96.066019,41.165607],[-96.065979,41.165607],[-96.065956,41.165607],[-96.065925,41.165607],[-96.065902,41.165607],[-96.065864,41.165607],[-96.065826,41.165607],[-96.065807,41.165607],[-96.065766,41.165607],[-96.065763,41.165609],[-96.06572,41.165641]]],"type":"Polygon"},"type":"Feature"},{"properties":{"NCES_Type":"Open Office - Workstations","Number":"180","Name":"CLERICAL WORK SPACE","NCES_Department":"Juvenile Justice Center","Seat Count":"","Revit_UniqueId":"1aaeed2f-b4e7-4873-9f01-18e6280fb552-0052ea6d","Workstations":"2","Element":"Room","NCES_Occupancy Status":"","occupancyStatus":"Occupied","Level":"LEVEL 1","RevitId":5433965,"Area_SF":137.38},"geometry":{"coordinates":[[[-96.066088,41.165568],[-96.066091,41.165568],[-96.066091,41.165551],[-96.066091,41.165544],[-96.066091,41.165532],[-96.066048,41.165532],[-96.066048,41.165549],[-96.066048,41.165552],[-96.066047,41.165552],[-96.066047,41.165568],[-96.066088,41.165568]]],"type":"Polygon"},"type":"Feature"},{"properties":{"NCES_Type":"Copy/Print/Mail Area","Number":"181","Name":"WORKROOM/COPY","NCES_Department":"Juvenile Justice Center","Seat Count":"","Revit_UniqueId":"1aaeed2f-b4e7-4873-9f01-18e6280fb552-0052ead9","Workstations":"","Element":"Room","NCES_Occupancy Status":"","occupancyStatus":"Occupied","Level":"LEVEL 1","RevitId":5434073,"Area_SF":77.26},"geometry":{"coordinates":[[[-96.066091,41.165568],[-96.066128,41.165568],[-96.066128,41.165544],[-96.066091,41.165544],[-96.066091,41.165551],[-96.066091,41.165568]]],"type":"Polygon"},"type":"Feature"},{"properties":{"NCES_Type":"File Room - Active","Number":"182","Name":"FILE STORAGE","NCES_Department":"Juvenile Justice Center","Seat Count":"","Revit_UniqueId":"1aaeed2f-b4e7-4873-9f01-18e6280fb552-0052eadc","Workstations":"","Element":"Room","NCES_Occupancy Status":"","occupancyStatus":"Occupied","Level":"LEVEL 1","RevitId":5434076,"Area_SF":82.9},"geometry":{"coordinates":[[[-96.066131,41.165568],[-96.066168,41.165568],[-96.066168,41.165565],[-96.066168,41.165544],[-96.066128,41.165544],[-96.066128,41.165568],[-96.066131,41.165568]]],"type":"Polygon"},"type":"Feature"},{"properties":{"NCES_Type":"Womens Restroom","Number":"183","Name":"WOMEN","NCES_Department":"Juvenile Justice Center","Seat Count":"","Revit_UniqueId":"1aaeed2f-b4e7-4873-9f01-18e6280fb552-0052eadf","Workstations":"","Element":"Room","NCES_Occupancy Status":"","occupancyStatus":"Occupied","Level":"LEVEL 1","RevitId":5434079,"Area_SF":33.1},"geometry":{"coordinates":[[[-96.066186,41.165544],[-96.066168,41.165544],[-96.066168,41.165565],[-96.066186,41.165565],[-96.066186,41.165544]]],"type":"Polygon"},"type":"Feature"},{"properties":{"NCES_Type":"Mens Restroom","Number":"184","Name":"MEN","NCES_Department":"Juvenile Justice Center","Seat Count":"","Revit_UniqueId":"1aaeed2f-b4e7-4873-9f01-18e6280fb552-0052eae2","Workstations":"","Element":"Room","NCES_Occupancy Status":"","occupancyStatus":"Occupied","Level":"LEVEL 1","RevitId":5434082,"Area_SF":48.85},"geometry":{"coordinates":[[[-96.066186,41.165544],[-96.066186,41.165565],[-96.066206,41.165565],[-96.066206,41.165555],[-96.066206,41.165546],[-96.066206,41.165537],[-96.066186,41.165537],[-96.066186,41.165544]]],"type":"Polygon"},"type":"Feature"},{"properties":{"NCES_Type":"Janitor/Custodial Closet","Number":"187","Name":"JAN.","NCES_Department":"Juvenile Justice Center","Seat Count":"","Revit_UniqueId":"1aaeed2f-b4e7-4873-9f01-18e6280fb552-0052eaec","Workstations":"","Element":"Room","NCES_Occupancy Status":"","occupancyStatus":"Occupied","Level":"LEVEL 1","RevitId":5434092,"Area_SF":11.67},"geometry":{"coordinates":[[[-96.066206,41.165537],[-96.066206,41.165546],[-96.066222,41.165546],[-96.066222,41.165537],[-96.066206,41.165537]]],"type":"Polygon"},"type":"Feature"},{"properties":{"NCES_Type":"Staff Lounge","Number":"189","Name":"STAFF BREAK","NCES_Department":"Juvenile Justice Center","Seat Count":"4","Revit_UniqueId":"1aaeed2f-b4e7-4873-9f01-18e6280fb552-0052eaef","Workstations":"","Element":"Room","NCES_Occupancy Status":"","occupancyStatus":"Occupied","Level":"LEVEL 1","RevitId":5434095,"Area_SF":265.11},"geometry":{"coordinates":[[[-96.066309,41.165557],[-96.06631,41.165557],[-96.06631,41.165537],[-96.066276,41.165537],[-96.066222,41.165537],[-96.066222,41.165546],[-96.066222,41.165555],[-96.066218,41.165555],[-96.066206,41.165555],[-96.066206,41.165565],[-96.066206,41.165568],[-96.066253,41.165568],[-96.066257,41.165568],[-96.066288,41.165568],[-96.066309,41.165568],[-96.066309,41.165557]]],"type":"Polygon"},"type":"Feature"},{"properties":{"NCES_Type":"Waiting/Queue Area","Number":"190","Name":"STAFF ENTRY","NCES_Department":"Juvenile Justice Center","Seat Count":"","Revit_UniqueId":"1aaeed2f-b4e7-4873-9f01-18e6280fb552-0052eb04","Workstations":"","Element":"Room","NCES_Occupancy Status":"","occupancyStatus":"Occupied","Level":"LEVEL 1","RevitId":5434116,"Area_SF":34.64},"geometry":{"coordinates":[[[-96.06631,41.165525],[-96.066288,41.165525],[-96.066288,41.165525],[-96.066286,41.165525],[-96.066276,41.165525],[-96.066276,41.165537],[-96.06631,41.165537],[-96.06631,41.165525]]],"type":"Polygon"},"type":"Feature"},{"properties":{"NCES_Type":"Corridor/Hallway","Number":"191","Name":"CORRIDOR","NCES_Department":"Juvenile Justice Center","Seat Count":"","Revit_UniqueId":"1aaeed2f-b4e7-4873-9f01-18e6280fb552-0052eb07","Workstations":"","Element":"Room","NCES_Occupancy Status":"","occupancyStatus":"Occupied","Level":"LEVEL 1","RevitId":5434119,"Area_SF":211.9},"geometry":{"coordinates":[[[-96.066276,41.165525],[-96.06625,41.165525],[-96.066213,41.165525],[-96.066177,41.165525],[-96.066177,41.165525],[-96.066176,41.165525],[-96.066167,41.165532],[-96.066135,41.165532],[-96.066091,41.165532],[-96.066091,41.165532],[-96.066091,41.165544],[-96.066128,41.165544],[-96.066168,41.165544],[-96.066186,41.165544],[-96.066186,41.165537],[-96.066206,41.165537],[-96.066222,41.165537],[-96.066276,41.165537],[-96.066276,41.165525]]],"type":"Polygon"},"type":"Feature"},{"properties":{"NCES_Type":"Private Office - Enclosed","Number":"192","Name":"OFFICE","NCES_Department":"Juvenile Justice Center","Seat Count":"","Revit_UniqueId":"1aaeed2f-b4e7-4873-9f01-18e6280fb552-0052eb0a","Workstations":"1","Element":"Room","NCES_Occupancy Status":"","occupancyStatus":"Occupied","Level":"LEVEL 1","RevitId":5434122,"Area_SF":101.05},"geometry":{"coordinates":[[[-96.066288,41.165493],[-96.06625,41.165493],[-96.06625,41.165525],[-96.066276,41.165525],[-96.066288,41.165525],[-96.066288,41.165493]]],"type":"Polygon"},"type":"Feature"},{"properties":{"NCES_Type":"Private Office - Enclosed","Number":"193","Name":"CAPTAIN'S OFFICE","NCES_Department":"Juvenile Justice Center","Seat Count":"","Revit_UniqueId":"1aaeed2f-b4e7-4873-9f01-18e6280fb552-0052eb0d","Workstations":"1","Element":"Room","NCES_Occupancy Status":"","occupancyStatus":"Occupied","Level":"LEVEL 1","RevitId":5434125,"Area_SF":102.65},"geometry":{"coordinates":[[[-96.06625,41.165493],[-96.066213,41.165493],[-96.066213,41.165525],[-96.06625,41.165525],[-96.06625,41.165493]]],"type":"Polygon"},"type":"Feature"},{"properties":{"NCES_Type":"Private Office - Enclosed","Number":"194","Name":"ASSISTANT DIR. OFFICE","NCES_Department":"Juvenile Justice Center","Seat Count":"","Revit_UniqueId":"1aaeed2f-b4e7-4873-9f01-18e6280fb552-0052eb10","Workstations":"1","Element":"Room","NCES_Occupancy Status":"","occupancyStatus":"Occupied","Level":"LEVEL 1","RevitId":5434128,"Area_SF":101.25},"geometry":{"coordinates":[[[-96.066213,41.165493],[-96.066176,41.165493],[-96.066176,41.165525],[-96.066213,41.165525],[-96.066213,41.165493]]],"type":"Polygon"},"type":"Feature"},{"properties":{"NCES_Type":"Private Office - Enclosed","Number":"195","Name":"DIRECTOR'S OFFICE","NCES_Department":"Juvenile Justice Center","Seat Count":"","Revit_UniqueId":"1aaeed2f-b4e7-4873-9f01-18e6280fb552-0052eb13","Workstations":"1","Element":"Room","NCES_Occupancy Status":"","occupancyStatus":"Occupied","Level":"LEVEL 1","RevitId":5434131,"Area_SF":140.18},"geometry":{"coordinates":[[[-96.066176,41.165493],[-96.066135,41.165493],[-96.066135,41.165532],[-96.066167,41.165532],[-96.066176,41.165525],[-96.066176,41.165524],[-96.066176,41.165493]]],"type":"Polygon"},"type":"Feature"},{"properties":{"NCES_Type":"Conference Room","Number":"196","Name":"CONFERENCE ROOM","NCES_Department":"Juvenile Justice Center","Seat Count":"4","Revit_UniqueId":"1aaeed2f-b4e7-4873-9f01-18e6280fb552-0052eb16","Workstations":"","Element":"Room","NCES_Occupancy Status":"","occupancyStatus":"Occupied","Level":"LEVEL 1","RevitId":5434134,"Area_SF":155.35},"geometry":{"coordinates":[[[-96.066135,41.165493],[-96.066091,41.165493],[-96.066091,41.165532],[-96.066135,41.165532],[-96.066135,41.165493]]],"type":"Polygon"},"type":"Feature"},{"properties":{"NCES_Type":"Waiting/Queue Area","Number":"A200","Name":"VEST.","NCES_Department":"Juvenile Justice Center","Seat Count":"","Revit_UniqueId":"1aaeed2f-b4e7-4873-9f01-18e6280fb552-0052eb25","Workstations":"","Element":"Room","NCES_Occupancy Status":"","occupancyStatus":"Occupied","Level":"LEVEL 1","RevitId":5434149,"Area_SF":27.98},"geometry":{"coordinates":[[[-96.066288,41.165612],[-96.066288,41.165593],[-96.066267,41.165593],[-96.066267,41.165611],[-96.066267,41.165612],[-96.066269,41.165612],[-96.066288,41.165612]]],"type":"Polygon"},"type":"Feature"},{"properties":{"NCES_Type":"Statement Interview Room","Number":"A201","Name":"INTV/TESTING","NCES_Department":"Juvenile Justice Center","Seat Count":"2","Revit_UniqueId":"1aaeed2f-b4e7-4873-9f01-18e6280fb552-0052eb2c","Workstations":"","Element":"Room","NCES_Occupancy Status":"","occupancyStatus":"Occupied","Level":"LEVEL 1","RevitId":5434156,"Area_SF":77.45},"geometry":{"coordinates":[[[-96.066288,41.165568],[-96.066257,41.165568],[-96.066253,41.165568],[-96.066253,41.165593],[-96.066267,41.165593],[-96.066288,41.165593],[-96.066288,41.165568]]],"type":"Polygon"},"type":"Feature"},{"properties":{"NCES_Type":"Private Office - Enclosed","Number":"A202","Name":"PROGRAM OFFICE","NCES_Department":"Juvenile Justice Center","Seat Count":"","Revit_UniqueId":"1aaeed2f-b4e7-4873-9f01-18e6280fb552-0052eb2f","Workstations":"1","Element":"Room","NCES_Occupancy Status":"","occupancyStatus":"Occupied","Level":"LEVEL 1","RevitId":5434159,"Area_SF":115.14},"geometry":{"coordinates":[[[-96.066253,41.165568],[-96.066206,41.165568],[-96.066203,41.165568],[-96.066203,41.165574],[-96.066203,41.165593],[-96.066253,41.165593],[-96.066253,41.165568]]],"type":"Polygon"},"type":"Feature"},{"properties":{"NCES_Type":"Staff Toilet/Changing","Number":"A203","Name":"STAFF RR","NCES_Department":"Juvenile Justice Center","Seat Count":"","Revit_UniqueId":"1aaeed2f-b4e7-4873-9f01-18e6280fb552-0052eb32","Workstations":"","Element":"Room","NCES_Occupancy Status":"","occupancyStatus":"Occupied","Level":"LEVEL 1","RevitId":5434162,"Area_SF":36.53},"geometry":{"coordinates":[[[-96.066181,41.165593],[-96.066203,41.165593],[-96.066203,41.165574],[-96.066181,41.165574],[-96.066181,41.165593]]],"type":"Polygon"},"type":"Feature"},{"properties":{"NCES_Type":"Private Office - Enclosed","Number":"A204","Name":"OFFICE","NCES_Department":"Juvenile Justice Center","Seat Count":"","Revit_UniqueId":"1aaeed2f-b4e7-4873-9f01-18e6280fb552-0052eb35","Workstations":"1","Element":"Room","NCES_Occupancy Status":"","occupancyStatus":"Occupied","Level":"LEVEL 1","RevitId":5434165,"Area_SF":115.84},"geometry":{"coordinates":[[[-96.066181,41.165568],[-96.066168,41.165568],[-96.066131,41.165568],[-96.066131,41.165573],[-96.066131,41.165593],[-96.066181,41.165593],[-96.066181,41.165574],[-96.066181,41.165568]]],"type":"Polygon"},"type":"Feature"},{"properties":{"NCES_Type":"Mens Restroom","Number":"A205","Name":"BOYS","NCES_Department":"Juvenile Justice Center","Seat Count":"","Revit_UniqueId":"1aaeed2f-b4e7-4873-9f01-18e6280fb552-0052eb38","Workstations":"","Element":"Room","NCES_Occupancy Status":"","occupancyStatus":"Occupied","Level":"LEVEL 1","RevitId":5434168,"Area_SF":36.99},"geometry":{"coordinates":[[[-96.06611,41.165593],[-96.066131,41.165593],[-96.066131,41.165573],[-96.06611,41.165573],[-96.06611,41.165593]]],"type":"Polygon"},"type":"Feature"},{"properties":{"NCES_Type":"Womens Restroom","Number":"A206","Name":"GIRLS","NCES_Department":"Juvenile Justice Center","Seat Count":"","Revit_UniqueId":"1aaeed2f-b4e7-4873-9f01-18e6280fb552-0052eb3b","Workstations":"","Element":"Room","NCES_Occupancy Status":"","occupancyStatus":"Occupied","Level":"LEVEL 1","RevitId":5434171,"Area_SF":37.13},"geometry":{"coordinates":[[[-96.066088,41.165593],[-96.06611,41.165593],[-96.06611,41.165573],[-96.066088,41.165573],[-96.066088,41.165593]]],"type":"Polygon"},"type":"Feature"},{"properties":{"NCES_Type":"Locker Room","Number":"A207","Name":"COATS/LOCKERS","NCES_Department":"Juvenile Justice Center","Seat Count":"","Revit_UniqueId":"1aaeed2f-b4e7-4873-9f01-18e6280fb552-0052eb3e","Workstations":"","Element":"Room","NCES_Occupancy Status":"","occupancyStatus":"Occupied","Level":"LEVEL 1","RevitId":5434174,"Area_SF":163.16},"geometry":{"coordinates":[[[-96.066088,41.165568],[-96.066047,41.165568],[-96.066047,41.165611],[-96.066088,41.165611],[-96.066088,41.165593],[-96.066088,41.165573],[-96.066088,41.165568]]],"type":"Polygon"},"type":"Feature"},{"properties":{"NCES_Type":"Corridor/Hallway","Number":"A208","Name":"CORRIDOR","NCES_Department":"Juvenile Justice Center","Seat Count":"","Revit_UniqueId":"1aaeed2f-b4e7-4873-9f01-18e6280fb552-0052ebbc","Workstations":"","Element":"Room","NCES_Occupancy Status":"","occupancyStatus":"Occupied","Level":"LEVEL 1","RevitId":5434300,"Area_SF":335.5},"geometry":{"coordinates":[[[-96.066267,41.165593],[-96.066253,41.165593],[-96.066203,41.165593],[-96.066181,41.165593],[-96.066131,41.165593],[-96.06611,41.165593],[-96.066088,41.165593],[-96.066088,41.165611],[-96.06611,41.165611],[-96.06611,41.165611],[-96.066143,41.165611],[-96.066143,41.165619],[-96.066162,41.165619],[-96.066162,41.165611],[-96.066195,41.165611],[-96.066195,41.165619],[-96.066215,41.165619],[-96.066235,41.165619],[-96.066235,41.165611],[-96.066267,41.165611],[-96.066267,41.165593]]],"type":"Polygon"},"type":"Feature"},{"properties":{"NCES_Type":"General Storage","Number":"A210","Name":"STOR","NCES_Department":"Juvenile Justice Center","Seat Count":"","Revit_UniqueId":"1aaeed2f-b4e7-4873-9f01-18e6280fb552-0052ebc3","Workstations":"","Element":"Room","NCES_Occupancy Status":"","occupancyStatus":"Occupied","Level":"LEVEL 1","RevitId":5434307,"Area_SF":86.45},"geometry":{"coordinates":[[[-96.066047,41.165626],[-96.066047,41.165628],[-96.066047,41.165649],[-96.066069,41.165649],[-96.06609,41.165649],[-96.06609,41.165626],[-96.066047,41.165626]]],"type":"Polygon"},"type":"Feature"},{"properties":{"NCES_Type":"Supervised Family Meeting/Visitation","Number":"A211","Name":"N.C. VISIT","NCES_Department":"Juvenile Justice Center","Seat Count":"","Revit_UniqueId":"1aaeed2f-b4e7-4873-9f01-18e6280fb552-0052ebca","Workstations":"","Element":"Room","NCES_Occupancy Status":"","occupancyStatus":"Occupied","Level":"LEVEL 1","RevitId":5434314,"Area_SF":22.84},"geometry":{"coordinates":[[[-96.066047,41.165649],[-96.066047,41.165662],[-96.066067,41.165662],[-96.066069,41.165662],[-96.066069,41.165649],[-96.066047,41.165649]]],"type":"Polygon"},"type":"Feature"},{"properties":{"NCES_Type":"Staff Toilet/Changing","Number":"A212","Name":"STAFF RR","NCES_Department":"Juvenile Justice Center","Seat Count":"","Revit_UniqueId":"1aaeed2f-b4e7-4873-9f01-18e6280fb552-0052ebd1","Workstations":"","Element":"Room","NCES_Occupancy Status":"","occupancyStatus":"Occupied","Level":"LEVEL 1","RevitId":5434321,"Area_SF":25.29},"geometry":{"coordinates":[[[-96.06609,41.165678],[-96.06609,41.165662],[-96.06607,41.165662],[-96.06607,41.165678],[-96.06609,41.165678]]],"type":"Polygon"},"type":"Feature"},{"properties":{"NCES_Type":"General Storage","Number":"A213","Name":"STOR","NCES_Department":"Juvenile Justice Center","Seat Count":"","Revit_UniqueId":"1aaeed2f-b4e7-4873-9f01-18e6280fb552-0052ebd4","Workstations":"","Element":"Room","NCES_Occupancy Status":"","occupancyStatus":"Occupied","Level":"LEVEL 1","RevitId":5434324,"Area_SF":24.86},"geometry":{"coordinates":[[[-96.066047,41.165662],[-96.066047,41.165678],[-96.066067,41.165678],[-96.066067,41.165662],[-96.066047,41.165662]]],"type":"Polygon"},"type":"Feature"},{"properties":{"NCES_Type":"Shared Office - Enclosed","Number":"A214","Name":"JUDICIAL OFFICE","NCES_Department":"Juvenile Justice Center","Seat Count":"","Revit_UniqueId":"1aaeed2f-b4e7-4873-9f01-18e6280fb552-0052ebe4","Workstations":"2","Element":"Room","NCES_Occupancy Status":"","occupancyStatus":"Occupied","Level":"LEVEL 1","RevitId":5434340,"Area_SF":156.64},"geometry":{"coordinates":[[[-96.066047,41.165678],[-96.066047,41.16568],[-96.066047,41.165698],[-96.066047,41.165719],[-96.066089,41.165719],[-96.066089,41.165705],[-96.06609,41.165705],[-96.06609,41.165678],[-96.06607,41.165678],[-96.066067,41.165678],[-96.066047,41.165678]]],"type":"Polygon"},"type":"Feature"},{"properties":{"NCES_Type":"Corridor/Hallway","Number":"A215","Name":"CORR.","NCES_Department":"Juvenile Justice Center","Seat Count":"","Revit_UniqueId":"1aaeed2f-b4e7-4873-9f01-18e6280fb552-0052ebeb","Workstations":"","Element":"Room","NCES_Occupancy Status":"","occupancyStatus":"Occupied","Level":"LEVEL 1","RevitId":5434347,"Area_SF":218.92},"geometry":{"coordinates":[[[-96.066047,41.165611],[-96.066047,41.165626],[-96.06609,41.165626],[-96.06609,41.165649],[-96.06609,41.165662],[-96.06609,41.165678],[-96.06609,41.165705],[-96.066111,41.165705],[-96.066111,41.16569],[-96.06611,41.16569],[-96.06611,41.165675],[-96.06611,41.165611],[-96.066088,41.165611],[-96.066047,41.165611]]],"type":"Polygon"},"type":"Feature"},{"properties":{"NCES_Type":"Equipment Storage","Number":"A216","Name":"CR/AV STOR","NCES_Department":"Juvenile Justice Center","Seat Count":"","Revit_UniqueId":"1aaeed2f-b4e7-4873-9f01-18e6280fb552-0052ebf4","Workstations":"","Element":"Room","NCES_Occupancy Status":"","occupancyStatus":"Occupied","Level":"LEVEL 1","RevitId":5434356,"Area_SF":65.61},"geometry":{"coordinates":[[[-96.066111,41.16569],[-96.066162,41.16569],[-96.066162,41.165675],[-96.06611,41.165675],[-96.06611,41.16569],[-96.066111,41.16569]]],"type":"Polygon"},"type":"Feature"},{"properties":{"NCES_Type":"Multipurpose Room","Number":"A217","Name":"CLASSROOM B","NCES_Department":"Juvenile Justice Center","Seat Count":"6","Revit_UniqueId":"1aaeed2f-b4e7-4873-9f01-18e6280fb552-0052ebf7","Workstations":"2","Element":"Room","NCES_Occupancy Status":"","occupancyStatus":"Occupied","Level":"LEVEL 1","RevitId":5434359,"Area_SF":295.65},"geometry":{"coordinates":[[[-96.066162,41.165675],[-96.066162,41.165619],[-96.066143,41.165619],[-96.066143,41.165611],[-96.06611,41.165611],[-96.06611,41.165611],[-96.06611,41.165675],[-96.066162,41.165675]]],"type":"Polygon"},"type":"Feature"},{"properties":{"NCES_Type":"Equipment Storage","Number":"A218","Name":"INSTR. MAT. STOR","NCES_Department":"Juvenile Justice Center","Seat Count":"","Revit_UniqueId":"1aaeed2f-b4e7-4873-9f01-18e6280fb552-0052ebfa","Workstations":"","Element":"Room","NCES_Occupancy Status":"","occupancyStatus":"Occupied","Level":"LEVEL 1","RevitId":5434362,"Area_SF":66.1},"geometry":{"coordinates":[[[-96.066162,41.16569],[-96.066215,41.16569],[-96.066215,41.165675],[-96.066162,41.165675],[-96.066162,41.16569]]],"type":"Polygon"},"type":"Feature"},{"properties":{"NCES_Type":"Multipurpose Room","Number":"A219","Name":"COMPUTER LAB","NCES_Department":"Juvenile Justice Center","Seat Count":"6","Revit_UniqueId":"1aaeed2f-b4e7-4873-9f01-18e6280fb552-0052ebfd","Workstations":"1","Element":"Room","NCES_Occupancy Status":"","occupancyStatus":"Occupied","Level":"LEVEL 1","RevitId":5434365,"Area_SF":302.01},"geometry":{"coordinates":[[[-96.066215,41.165619],[-96.066195,41.165619],[-96.066195,41.165611],[-96.066162,41.165611],[-96.066162,41.165619],[-96.066162,41.165675],[-96.066215,41.165675],[-96.066215,41.165628],[-96.066215,41.165619]]],"type":"Polygon"},"type":"Feature"},{"properties":{"NCES_Type":"Equipment Storage","Number":"A220","Name":"CR/AV STOR","NCES_Department":"Juvenile Justice Center","Seat Count":"","Revit_UniqueId":"1aaeed2f-b4e7-4873-9f01-18e6280fb552-0052ec00","Workstations":"","Element":"Room","NCES_Occupancy Status":"","occupancyStatus":"Occupied","Level":"LEVEL 1","RevitId":5434368,"Area_SF":65.51},"geometry":{"coordinates":[[[-96.066269,41.16569],[-96.066269,41.165675],[-96.066215,41.165675],[-96.066215,41.16569],[-96.066269,41.16569]]],"type":"Polygon"},"type":"Feature"},{"properties":{"NCES_Type":"Multipurpose Room","Number":"A221","Name":"CLASSROOM A","NCES_Department":"Juvenile Justice Center","Seat Count":"6","Revit_UniqueId":"1aaeed2f-b4e7-4873-9f01-18e6280fb552-0052ec03","Workstations":"2","Element":"Room","NCES_Occupancy Status":"","occupancyStatus":"Occupied","Level":"LEVEL 1","RevitId":5434371,"Area_SF":299.18},"geometry":{"coordinates":[[[-96.066269,41.165612],[-96.066269,41.165611],[-96.066267,41.165611],[-96.066235,41.165611],[-96.066235,41.165619],[-96.066215,41.165619],[-96.066215,41.165628],[-96.066215,41.165675],[-96.066269,41.165675],[-96.066269,41.165612]]],"type":"Polygon"},"type":"Feature"},{"properties":{"NCES_Type":"Conference Room","Number":"A222","Name":"CONFERENCE ROOM","NCES_Department":"Juvenile Justice Center","Seat Count":"6","Revit_UniqueId":"6a48aaad-a60b-4f92-9280-358e25716b2c-00532cf5","Workstations":"","Element":"Room","NCES_Occupancy Status":"","occupancyStatus":"Occupied","Level":"LEVEL 1","RevitId":5450997,"Area_SF":121.54},"geometry":{"coordinates":[[[-96.065974,41.165464],[-96.065975,41.165464],[-96.065975,41.165446],[-96.065936,41.165446],[-96.065936,41.165484],[-96.065946,41.165484],[-96.065946,41.165481],[-96.065974,41.165481],[-96.065974,41.165464]]],"type":"Polygon"},"type":"Feature"},{"properties":{"NCES_Type":"Public Interview/Intake Room","Number":"A223","Name":"INTERVIEW ROOM","NCES_Department":"Juvenile Justice Center","Seat Count":"","Revit_UniqueId":"6a48aaad-a60b-4f92-9280-358e25716b2c-005338b9","Workstations":"","Element":"Room","NCES_Occupancy Status":"","occupancyStatus":"Occupied","Level":"LEVEL 1","RevitId":5454009,"Area_SF":22.14},"geometry":{"coordinates":[[[-96.06609,41.165662],[-96.06609,41.165649],[-96.066069,41.165649],[-96.066069,41.165662],[-96.06607,41.165662],[-96.06609,41.165662]]],"type":"Polygon"},"type":"Feature"}],"type":"FeatureCollection"}